,Unnamed: 0,Unnamed: 0.1,addressline1,addressline2,addressline3,addressline4,businessname,businesstype,businesstypeid,confidenceinmanagement,extractdate,fhrsid,hygiene,itemcount,latitude,localauthoritybusinessid,localauthoritycode,localauthorityemailaddress,localauthorityname,localauthoritywebsite,longitude,postcode,ratingdate,ratingkey,ratingvalue,returncode,schemetype,structural,full_address,DPA_POST_TOWN,DPA_STATUS,DPA_MATCH_DESCRIPTION,DPA_THOROUGHFARE_NAME,DPA_Y_COORDINATE,DPA_UPRN,DPA_RPC,DPA_POSTCODE,DPA_ADDRESS,DPA_X_COORDINATE,DPA_ORGANISATION_NAME,DPA_MATCH,DPA_BUILDING_NAME,DPA_lat,DPA_lng,DPA_BUILDING_NUMBER,DPA_DEPENDENT_THOROUGHFARE_NAME,DPA_SUB_BUILDING_NAME
0,119516,119516,4 Wild Goose Drive,London,,,Purn News,Retailers - other,4613,10,,254972,5,,51.472805,PI/000178443,523,david.edwards@lewisham.gov.uk,Lewisham,http://www.lewisham.gov.uk/myservices/business/food-safety/Pages/default.aspx,-0.051613,SE14 5LL,04/02/2014,fhrs_3_en-GB,3,,FHRS,10,"Purn News, 4 Wild Goose Drive, London, SE14 5LL",LONDON,APPROVED,PARTIAL,WILD GOOSE DRIVE,176698,1.00023E+11,1,SE14 5LL,"BEST BUYS, 4-6, WILD GOOSE DRIVE, LONDON, SE14 5LL",535443,BEST BUYS,0.7,04-Jun,-0.051244813,51.47304116,,,
1,119729,119729,Barnes Wallis Community Centre,74 Wild Goose Drive,London,,Stars of Hope Pre School,School/college/university,7845,10,,255533,10,,51.472805,PI/000166827,523,david.edwards@lewisham.gov.uk,Lewisham,http://www.lewisham.gov.uk/myservices/business/food-safety/Pages/default.aspx,-0.051613,SE14 5LL,20/11/2013,fhrs_3_en-GB,3,,FHRS,10,"Stars of Hope Pre School, Barnes Wallis Community Centre, 74 Wild Goose Drive, London, SE14 5LL",LONDON,APPROVED,EXACT,WILD GOOSE DRIVE,176661,1.00023E+11,1,SE14 5LL,"74, WILD GOOSE DRIVE, LONDON, SE14 5LL",535466,,1,,-0.050928031,51.47270317,74,,
2,125339,125339,,186-188,Peckham High Street,London,1st choice day nursery,School/college/university,7845,10,,736089,5,,51.473706,184805,528,food@southwark.gov.uk,Southwark,http://www.southwark.gov.uk/,-0.065326,SE15 5EG,28/01/2015,fhrs_3_en-GB,3,,FHRS,10,"1st choice day nursery, 186-188, Peckham High Street, London, SE15 5EG",LONDON,APPROVED,GOOD,PECKHAM HIGH STREET,176745,2.00003E+11,1,SE15 5EG,"186, PECKHAM HIGH STREET, LONDON, SE15 5EG",534464,,0.9,,-0.06531419,51.47369682,186,,
3,125342,125342,,87-91,Rye Lane,London,99p stores ltd,Retailers - other,4613,20,,363433,5,,51.471369,174033,528,food@southwark.gov.uk,Southwark,http://www.southwark.gov.uk/,-0.069169,SE15 5EX,14/04/2014,fhrs_1_en-GB,1,,FHRS,15,"99p stores ltd, 87-91 Rye Lane, London, SE15 5EX",LONDON,APPROVED,EXACT,RYE LANE,176444,2.00003E+11,1,SE15 5EX,"99P STORE, 87-91, RYE LANE, LONDON, SE15 5EX",534227,99P STORE,1,87-91,-0.068838777,51.47104814,,,
4,125343,125343,,100,Rye Lane,London,A & a butchers and grocers,Retailers - other,4613,20,,362666,10,,51.469024,107337,528,food@southwark.gov.uk,Southwark,http://www.southwark.gov.uk/,-0.068174,SE15 4RZ,02/07/2014,fhrs_1_en-GB,1,,FHRS,10,"A & a butchers and grocers, 100 Rye Lane, London, SE15 4RZ",LONDON,APPROVED,GOOD,RYE LANE,176251,2.00003E+11,1,SE15 4RZ,"ACE FOODS, 100, RYE LANE, LONDON, SE15 4RZ",534261,ACE FOODS,0.8,,-0.068422812,51.46930571,100,,
5,125348,125348,,2,Choumert Road,London,A 1 superstore,Retailers - other,4613,10,,363996,10,,51.468211,1856,528,food@southwark.gov.uk,Southwark,http://www.southwark.gov.uk/,-0.068496,SE15 4SE,10/09/2010,fhrs_3_en-GB,3,,FHRS,10,"A 1 superstore, 2 Choumert Road, London, SE15 4SE",LONDON,APPROVED,PARTIAL,CHOUMERT ROAD,176117,2.00003E+11,1,SE15 4SF,"1 GIRDLERS COTTAGES, CHOUMERT ROAD, LONDON, SE15 4SF",534207,,0.7,1 GIRDLERS COTTAGES,-0.069250616,51.46811433,,,
6,125351,125351,,139,Evelina Road,London,A g flowers,Retailers - other,4613,,,421378,,,51.466101,42023,528,food@southwark.gov.uk,Southwark,http://www.southwark.gov.uk/,-0.056707,SE15 3HB,12/01/2011,fhrs_exempt_en-GB,Exempt,,FHRS,,"A g flowers, 139 Evelina Road, London, SE15 3HB",LONDON,APPROVED,EXACT,EVELINA ROAD,175878,2.00003E+11,1,SE15 3HB,"A G FLOWERS, 139, EVELINA ROAD, LONDON, SE15 3HB",535048,A G FLOWERS,1,,-0.057241665,51.4657667,139,,
7,125371,125371,Pitch 2 & 5,,Parkstone Road,London,Afro-caribbean food vegetables & fruits,Retailers - other,4613,10,,364830,5,,51.468902,53580,528,food@southwark.gov.uk,Southwark,http://www.southwark.gov.uk/,-0.066797,SE15 4UQ,21/01/2011,fhrs_4_en-GB,4,,FHRS,5,"Afro-caribbean food vegetables & fruits, Pitch 2 & 5, Parkstone Road, London, SE15 4UQ",,,,,,,,,,,,,,,,,,
8,125374,125374,,139,Peckham High Street,London,Agrobeso,Takeaway/sandwich shop,7844,10,,365101,10,,51.474167,91712,528,food@southwark.gov.uk,Southwark,http://www.southwark.gov.uk/,-0.066488,SE15 5SL,27/06/2014,fhrs_2_en-GB,2,,FHRS,15,"Agrobeso, 139 Peckham High Street, London, SE15 5SL",LONDON,APPROVED,GOOD,PECKHAM HIGH STREET,176792,2.00003E+11,1,SE15 5SL,"AGROBEJO, 139, PECKHAM HIGH STREET, LONDON, SE15 5SL",534352,AGROBEJO,0.8,,-0.066907977,51.47414576,139,,
9,125375,125375,,28b,Fenwick Road,London,Agua na boca ltd,Other catering premises,7841,10,,617523,10,,51.463792,182868,528,food@southwark.gov.uk,Southwark,http://www.southwark.gov.uk/,-0.068294,SE15 4HW,09/10/2013,fhrs_3_en-GB,3,,FHRS,10,"Agua na boca ltd, 28b, Fenwick Road, London, SE15 4HW",LONDON,APPROVED,GOOD,FENWICK ROAD,175595,2.00003E+11,1,SE15 4HW,"28B, FENWICK ROAD, LONDON, SE15 4HW",534297,,0.9,28B,-0.068153837,51.46340209,,,
10,125389,125389,,125B,Rye Lane,,Ali baba juice & matcha,Retailers - other,4613,10,,714782,15,,51.469866,183775,528,food@southwark.gov.uk,Southwark,http://www.southwark.gov.uk/,-0.068008,SE15 4ST,17/10/2014,fhrs_2_en-GB,2,,FHRS,10,"Ali baba juice & matcha, 125B, Rye Lane, SE15 4ST",LONDON,APPROVED,PARTIAL,RYE LANE,176357,2.00003E+11,1,SE15 4ST,"MIGHTY POUND, 117-125, RYE LANE, LONDON, SE15 4ST",534257,MIGHTY POUND,0.7,117-125,-0.068440133,51.47025921,,,
11,125393,125393,,115,Rye Lane,London,Ali's greengrocery,Retailers - other,4613,10,,362618,5,,51.469866,103495,528,food@southwark.gov.uk,Southwark,http://www.southwark.gov.uk/,-0.068008,SE15 4ST,14/04/2014,fhrs_3_en-GB,3,,FHRS,10,"Ali's greengrocery, 115 Rye Lane, London, SE15 4ST",LONDON,APPROVED,GOOD,RYE LANE,176386,2.00003E+11,1,SE15 4ST,"ALIS GREENGROCERS, 115, RYE LANE, LONDON, SE15 4ST",534258,ALIS GREENGROCERS,0.8,,-0.068414738,51.47051958,115,,
12,125401,125401,,24,Peckham Rye,London,Alpha off licence,Retailers - other,4613,10,,364777,5,,51.465565,50839,528,food@southwark.gov.uk,Southwark,http://www.southwark.gov.uk/,-0.066722,SE15 4JR,29/02/2012,fhrs_4_en-GB,4,,FHRS,0,"Alpha off licence, 24 Peckham Rye, London, SE15 4JR",LONDON,APPROVED,GOOD,PECKHAM RYE,175881,2.00003E+11,1,SE15 4JR,"ALPHA OFF LICENSE, 24, PECKHAM RYE, LONDON, SE15 4JR",534384,ALPHA OFF LICENSE,0.9,,-0.066793598,51.46595157,24,,
13,125411,125411,Baptist Church,,Amott Road,London,Amott road pre-school (day nursery kitchen),Hospitals/Childcare/Caring Premises,5,0,,363072,0,,51.463914,1456,528,food@southwark.gov.uk,Southwark,http://www.southwark.gov.uk/,-0.070247,SE15 4HU,11/12/2009,fhrs_5_en-GB,5,,FHRS,5,"Amott road pre-school (day nursery kitchen), Baptist Church, Amott Road, London, SE15 4HU",LONDON,APPROVED,GOOD,AMOTT ROAD,175598,2.00003E+11,1,SE15 4HU,"AMOTT ROAD BAPTIST CHURCH, AMOTT ROAD, LONDON, SE15 4HU",534047,AMOTT ROAD BAPTIST CHURCH,0.8,,-0.071749317,51.46348826,,,
14,125419,125419,,139,Bellenden Road,London,Anderson & co,Restaurant/Cafe/Canteen,1,0,,363648,0,,51.466882,175816,528,food@southwark.gov.uk,Southwark,http://www.southwark.gov.uk/,-0.072468,SE15 4DH,28/08/2012,fhrs_5_en-GB,5,,FHRS,5,"Anderson & co, 139 Bellenden Road, London, SE15 4DH",LONDON,APPROVED,EXACT,BELLENDEN ROAD,176002,2.00003E+11,1,SE15 4DH,"ANDERSON & CO, 139, BELLENDEN ROAD, LONDON, SE15 4DH",533996,ANDERSON & CO,1,,-0.072330031,51.46713084,139,,
15,125437,125437,,78,Rye Lane,London,Ar cash & carry,Retailers - other,4613,0,,364001,0,,51.470033,1862,528,food@southwark.gov.uk,Southwark,http://www.southwark.gov.uk/,-0.068865,SE15 4RY,14/04/2014,fhrs_4_en-GB,4,,FHRS,10,"Ar cash & carry, 78 Rye Lane, London, SE15 4RY",LONDON,APPROVED,GOOD,RYE HILL PARK,175226,2.00003E+11,1,SE15 3JU,"78, RYE HILL PARK, LONDON, SE15 3JU",535148,,0.8,,-0.056051962,51.45988375,78,,
16,125444,125444,,125,Evelina Road,London,Arati newsagents,Retailers - other,4613,5,,364677,0,,51.466101,42017,528,food@southwark.gov.uk,Southwark,http://www.southwark.gov.uk/,-0.056707,SE15 3HB,29/02/2012,fhrs_5_en-GB,5,,FHRS,5,"Arati newsagents, 125 Evelina Road, London, SE15 3HB",LONDON,APPROVED,GOOD,EVELINA ROAD,175915,2.00003E+11,1,SE15 3HB,"ARATI NEWS, 125, EVELINA ROAD, LONDON, SE15 3HB",535085,ARATI NEWS,0.8,,-0.056695217,51.46609037,125,,
17,125446,125446,,54-56,Rye Lane,London,Argos distributors ltd,Retailers - other,4613,,,421365,,,51.471164,22042,528,food@southwark.gov.uk,Southwark,http://www.southwark.gov.uk/,-0.069782,SE15 5BY,06/03/2006,fhrs_exempt_en-GB,Exempt,,FHRS,,"Argos distributors ltd, 54-56 Rye Lane, London, SE15 5BY",LONDON,APPROVED,GOOD,RYE LANE,176415,2.00003E+11,1,SE15 5BY,"ARGOS LTD, 54, RYE LANE, LONDON, SE15 5BY",534154,ARGOS LTD,0.9,,-0.069900163,51.47080483,54,,
18,125457,125457,,161,Bellenden Road,London,Artusi,Restaurant/Cafe/Canteen,1,0,,654185,5,,51.466882,183638,528,food@southwark.gov.uk,Southwark,http://www.southwark.gov.uk/,-0.072468,SE15 4DH,28/03/2014,fhrs_5_en-GB,5,,FHRS,5,"Artusi, 161 Bellenden Road, London, SE15 4DH",LONDON,APPROVED,GOOD,BELLENDEN ROAD,175944,2.00003E+11,1,SE15 4DH,"ARTUS, 161, BELLENDEN ROAD, LONDON, SE15 4DH",533975,ARTUS,0.8,,-0.072654135,51.4666146,161,,
19,125459,125459,,174,Rye Lane,London,Asda supermarket,Retailers - supermarkets/hypermarkets,7840,5,,363899,5,,51.467853,178564,528,food@southwark.gov.uk,Southwark,http://www.southwark.gov.uk/,-0.067518,SE15 4NB,15/11/2011,fhrs_5_en-GB,5,,FHRS,0,"Asda supermarket, 174 Rye Lane, London, SE15 4NB",LONDON,APPROVED,GOOD,RYE LANE,176062,2.00003E+11,2,SE15 4NF,"ASDA STORES LTD, 174, RYE LANE, LONDON, SE15 4NF",534352,ASDA STORES LTD,0.8,,-0.067185256,51.4675857,174,,
20,125462,125462,Forecourt After,125,Rye Lane,London,Asian take away,Other catering premises,7841,20,,467678,10,,51.469866,180437,528,food@southwark.gov.uk,Southwark,http://www.southwark.gov.uk/,-0.068008,SE15 4ST,30/06/2014,fhrs_1_en-GB,1,,FHRS,10,"Asian take away, Forecourt After, 125 Rye Lane, London, SE15 4ST",LONDON,APPROVED,PARTIAL,RYE LANE,176344,10000812933,2,SE15 4ST,"RYE LANE CHINESE, 125, RYE LANE, LONDON, SE15 4ST",534265,RYE LANE CHINESE,0.7,,-0.068329959,51.47014049,125,,
21,125467,125467,,98,Evelina Road,London,Astar fish bar,Takeaway/sandwich shop,7844,0,,364673,0,,51.466607,41997,528,food@southwark.gov.uk,Southwark,http://www.southwark.gov.uk/,-0.056326,SE15 3HL,11/10/2012,fhrs_5_en-GB,5,,FHRS,5,"Astar fish bar, 98 Evelina Road, London, SE15 3HL",LONDON,APPROVED,GOOD,EVELINA ROAD,175969,2.00003E+11,1,SE15 3HL,"A* FISH BAR, 98, EVELINA ROAD, LONDON, SE15 3HL",535106,A* FISH BAR,0.8,,-0.056372465,51.46657062,98,,
22,125473,125473,Units 37 And 38 Rye Lane Mark,48,Rye Lane,London,Auntie sue variety store,Retailers - other,4613,10,,449234,5,,51.471164,179436,528,food@southwark.gov.uk,Southwark,http://www.southwark.gov.uk/,-0.069782,SE15 5BY,05/11/2014,fhrs_3_en-GB,3,,FHRS,10,"Auntie sue variety store, Units 37 And 38 Rye Lane Mark, 48 Rye Lane, London, SE15 5BY",LONDON,APPROVED,GOOD,RYE LANE,176465,10000819121,2,SE15 5BY,"SKY ASSOCIATES LTD, RYE LANE MARKET, 48, RYE LANE, LONDON, SE15 5BY",534162,SKY ASSOCIATES LTD,0.8,RYE LANE MARKET,-0.069766087,51.47125225,48,,
23,125474,125474,Unit 39 Rye Lane Market,48,Rye Lane,London,Aunty sue varieties store,Retailers - other,4613,0,,542874,0,,51.471164,182564,528,food@southwark.gov.uk,Southwark,http://www.southwark.gov.uk/,-0.069782,SE15 5BY,15/03/2013,fhrs_5_en-GB,5,,FHRS,0,"Aunty sue varieties store, Unit 39 Rye Lane Market, 48 Rye Lane, London, SE15 5BY",LONDON,APPROVED,GOOD,RYE LANE,176465,10000819121,2,SE15 5BY,"SKY ASSOCIATES LTD, RYE LANE MARKET, 48, RYE LANE, LONDON, SE15 5BY",534162,SKY ASSOCIATES LTD,0.8,RYE LANE MARKET,-0.069766087,51.47125225,48,,
24,125475,125475,,63,Avondale Rise,London,Avondale mini market,Retailers - other,4613,10,,363930,10,,51.465307,179059,528,food@southwark.gov.uk,Southwark,http://www.southwark.gov.uk/,-0.07622,SE15 4AJ,29/11/2011,fhrs_3_en-GB,3,,FHRS,10,"Avondale mini market, 63 Avondale Rise, London, SE15 4AJ",LONDON,APPROVED,EXACT,AVONDALE RISE,175779,2.00003E+11,1,SE15 4AJ,"AVONDALE MINI MARKET, 63, AVONDALE RISE, LONDON, SE15 4AJ",533655,AVONDALE MINI MARKET,1,,-0.077320471,51.46520743,63,,
25,125494,125494,,157,Queens Road,London,Bahar kebab,Takeaway/sandwich shop,7844,20,,363010,10,,51.473679,138834,528,food@southwark.gov.uk,Southwark,http://www.southwark.gov.uk/,-0.057091,SE15 2ND,02/07/2014,fhrs_1_en-GB,1,,FHRS,10,"Bahar kebab, 157 Queens Road, London, SE15 2ND",LONDON,APPROVED,EXACT,QUEENS ROAD,176740.62,10090749818,1,SE15 2ND,"BAHAR KEBAB, 157, QUEENS ROAD, LONDON, SE15 2ND",535046.9,BAHAR KEBAB,1,,-0.056928167,51.47351875,157,,
26,125495,125495,,28,Nunhead Green,London,Bajan spice,Restaurant/Cafe/Canteen,1,10,,364943,10,,51.465307,61886,528,food@southwark.gov.uk,Southwark,http://www.southwark.gov.uk/,-0.058224,SE15 3QF,20/11/2014,fhrs_3_en-GB,3,,FHRS,10,"Bajan spice, 28 Nunhead Green, London, SE15 3QF",LONDON,APPROVED,EXACT,NUNHEAD GREEN,175829,2.00003E+11,1,SE15 3QF,"BAJAN SPICE, 28, NUNHEAD GREEN, LONDON, SE15 3QF",534985,BAJAN SPICE,1,,-0.058166746,51.46534138,28,,
27,125498,125498,,143,Evelina Road,London,Bambuni,Restaurant/Cafe/Canteen,1,10,,363832,5,,51.466101,177458,528,food@southwark.gov.uk,Southwark,http://www.southwark.gov.uk/,-0.056707,SE15 3HB,17/09/2013,fhrs_4_en-GB,4,,FHRS,5,"Bambuni, 143 Evelina Road, London, SE15 3HB",LONDON,APPROVED,EXACT,EVELINA ROAD,175872,2.00003E+11,1,SE15 3HB,"BAMBUNI, 143, EVELINA ROAD, LONDON, SE15 3HB",535039,BAMBUNI,1,,-0.057373439,51.46571492,143,,
28,125502,125502,Unit 18,137-139,Rye Lane,London,Bangura african food,Retailers - other,4613,10,,564140,15,,51.469866,182988,528,food@southwark.gov.uk,Southwark,http://www.southwark.gov.uk/,-0.068008,SE15 4ST,29/05/2013,fhrs_2_en-GB,2,,FHRS,10,"Bangura african food, Unit 18, 137-139, Rye Lane, London, SE15 4ST",LONDON,APPROVED,GOOD,RYE LANE,176156,2.00003E+11,1,SE15 4RZ,"138, RYE LANE, LONDON, SE15 4RZ",534304,,0.8,,-0.067840182,51.4684418,138,,
29,125507,125507,Arch 213,,Blenheim Grove,London,Bar story,Restaurant/Cafe/Canteen,1,10,,665589,15,,51.469437,184008,528,food@southwark.gov.uk,Southwark,http://www.southwark.gov.uk/,-0.070302,SE15 4QL,14/04/2014,fhrs_2_en-GB,2,,FHRS,15,"Bar story, Arch 213, Blenheim Grove, London, SE15 4QL",LONDON,APPROVED,PARTIAL,BLENHEIM GROVE,176238,2.00003E+11,2,SE15 4QS,"ALL SAINTS VICARAGE, BLENHEIM GROVE, LONDON, SE15 4QS",534202,,0.7,ALL SAINTS VICARAGE,-0.069276653,51.46920286,,,
30,125513,125513,,03-May,Station Way,London,Barry's deli,Restaurant/Cafe/Canteen,1,10,,687793,10,,51.469985,184175,528,food@southwark.gov.uk,Southwark,http://www.southwark.gov.uk/,-0.069227,SE15 4RX,21/05/2014,fhrs_3_en-GB,3,,FHRS,10,"Barry's deli, 3-5 Station Way, London, SE15 4RX",LONDON,APPROVED,EXACT,STATION WAY,176324,2.00003E+11,1,SE15 4RX,"3-5, STATION WAY, LONDON, SE15 4RX",534204,,1,03-May,-0.06921525,51.46997522,,,
31,125514,125514,,82,Rye Lane,London,Barsat cash and carry,Retailers - other,4613,10,,588929,10,,51.470033,183301,528,food@southwark.gov.uk,Southwark,http://www.southwark.gov.uk/,-0.068865,SE15 4RY,14/04/2014,fhrs_3_en-GB,3,,FHRS,10,"Barsat cash and carry, 82 Rye Lane, London, SE15 4RY",LONDON,APPROVED,EXACT,RYE LANE,176313,2.00003E+11,1,SE15 4RY,"BARSAT CASH & CARRY, 82, RYE LANE, LONDON, SE15 4RY",534236,BARSAT CASH & CARRY,1,,-0.068758991,51.46986879,82,,
32,125529,125529,,56,Peckham High Street,London,Belgo club,Pub/bar/nightclub,7843,10,,364043,10,,51.473214,1986,528,food@southwark.gov.uk,Southwark,http://www.southwark.gov.uk/,-0.070891,SE15 5DP,02/09/2014,fhrs_2_en-GB,2,,FHRS,15,"Belgo club, 56 Peckham High Street, London, SE15 5DP",LONDON,APPROVED,GOOD,PECKHAM HILL STREET,177115,2.00003E+11,1,SE15 5JY,"56, PECKHAM HILL STREET, LONDON, SE15 5JY",534111,,0.9,,-0.070253427,51.47710549,56,,
33,125531,125531,Bellenden Junior And Infant Sc,,Reedham Street,London,Bellenden primary school,School/college/university,7845,5,,364450,5,,51.466666,3062,528,food@southwark.gov.uk,Southwark,http://www.southwark.gov.uk/,-0.070822,SE15 4PF,11/03/2014,fhrs_5_en-GB,5,,FHRS,5,"Bellenden primary school, Bellenden Junior And Infant Sc, Reedham Street, London, SE15 4PF",LONDON,APPROVED,GOOD,REEDHAM STREET,175990,2.00003E+11,1,SE15 4PF,"BELLENDEN JUNIOR & INFANT SCHOOL, REEDHAM STREET, LONDON, SE15 4PF",534111,BELLENDEN JUNIOR & INFANT SCHOOL,0.8,,-0.070680002,51.46699579,,,
34,125554,125554,,122,Rye Lane,London,Bims african food ltd,Retailers - other,4613,30,,702308,20,,51.46907,184448,528,food@southwark.gov.uk,Southwark,http://www.southwark.gov.uk/,-0.068229,SE15 4RZ,04/08/2014,fhrs_0_en-GB,0,,FHRS,20,"Bims african food ltd, 122 Rye Lane, London, SE15 4RZ",LONDON,APPROVED,GOOD,RYE LANE,176190,2.00003E+11,1,SE15 4RZ,"122, RYE LANE, LONDON, SE15 4RZ",534289,,0.9,,-0.068043096,51.4687509,122,,
35,125555,125555,,102,Rye Lane,London,Bims african store,Retailers - other,4613,20,,363130,15,,51.469024,1655,528,food@southwark.gov.uk,Southwark,http://www.southwark.gov.uk/,-0.068174,SE15 4RZ,22/07/2014,fhrs_1_en-GB,1,,FHRS,15,"Bims african store, 102 Rye Lane, London, SE15 4RZ",LONDON,APPROVED,GOOD,RYE LANE,176244,2.00003E+11,1,SE15 4RZ,"BIMS AFRICAN FOOD STORE, 102, RYE LANE, LONDON, SE15 4RZ",534264,BIMS AFRICAN FOOD STORE,0.9,,-0.068382303,51.46924209,102,,
36,125556,125556,,149,Peckham High Street,London,Binder off licence,Retailers - other,4613,,,364086,,,51.474167,2204,528,food@southwark.gov.uk,Southwark,http://www.southwark.gov.uk/,-0.066488,SE15 5SL,15/08/2012,fhrs_exempt_en-GB,Exempt,,FHRS,,"Binder off licence, 149 Peckham High Street, London, SE15 5SL",LONDON,APPROVED,GOOD,PECKHAM HIGH STREET,176794,2.00003E+11,1,SE15 5SL,"BINDER LONDON LTD, 149, PECKHAM HIGH STREET, LONDON, SE15 5SL",534382,BINDER LONDON LTD,0.8,,-0.066475523,51.47415662,149,,
37,125563,125563,,4,Atwell Road,London,Bit by bit,Retailers - other,4613,10,,364710,5,,51.46823,44076,528,food@southwark.gov.uk,Southwark,http://www.southwark.gov.uk/,-0.066954,SE15 4TW,03/09/2014,fhrs_4_en-GB,4,,FHRS,5,"Bit by bit, 4 Atwell Road, London, SE15 4TW",LONDON,APPROVED,GOOD,MARSDEN ROAD,175611,10000817605,2,SE15 4EE,"4, MARSDEN ROAD, LONDON, SE15 4EE",533818,,0.9,,-0.075038914,51.46365922,4,,
38,125566,125566,,86,Bellenden Road,London,Black elderly group southwark (b e,Other catering premises,7841,10,,364060,10,,51.470367,2025,528,food@southwark.gov.uk,Southwark,http://www.southwark.gov.uk/,-0.073272,SE15 4RQ,24/07/2014,fhrs_3_en-GB,3,,FHRS,10,"Black elderly group southwark (b e, 86 Bellenden Road, London, SE15 4RQ",LONDON,APPROVED,GOOD,BELLENDEN ROAD,176322,2.00003E+11,1,SE15 4RQ,"BLACK ELDERLY GROUP SOUTHWARK, ELIM HOUSE, 86, BELLENDEN ROAD, LONDON, SE15 4RQ",533911,BLACK ELDERLY GROUP SOUTHWARK,0.9,ELIM HOUSE,-0.07343185,51.4700266,86,,
39,125591,125591,,20,Rye Lane,London,Boots co plc,Retailers - other,4613,5,,362835,0,,51.472256,1244,528,food@southwark.gov.uk,Southwark,http://www.southwark.gov.uk/,-0.070053,SE15 5BS,02/05/2007,fhrs_5_en-GB,5,,FHRS,0,"Boots co plc, 20 Rye Lane, London, SE15 5BS",LONDON,APPROVED,EXACT,RYE LANE,176582,2.00003E+11,1,SE15 5BS,"BOOTS THE CHEMISTS LTD, 20, RYE LANE, LONDON, SE15 5BS",534137,BOOTS THE CHEMISTS LTD,1,,-0.070081439,51.47230959,20,,
40,125608,125608,,27,Peckham High Street,London,Bottles off licence,Retailers - other,4613,,,364089,,,51.473716,2207,528,food@southwark.gov.uk,Southwark,http://www.southwark.gov.uk/,-0.07241,SE15 5EB,07/08/2013,fhrs_exempt_en-GB,Exempt,,FHRS,,"Bottles off licence, 27 Peckham High Street, London, SE15 5EB",LONDON,APPROVED,EXACT,PECKHAM HIGH STREET,176733,2.00003E+11,1,SE15 5EB,"BOTTLES OFF LICENCE, 27, PECKHAM HIGH STREET, LONDON, SE15 5EB",533972,BOTTLES OFF LICENCE,1,,-0.072398469,51.47370559,27,,
41,125613,125613,,95,Peckham Road,London,Bp  connect,Retailers - other,4613,0,,421370,0,,51.474559,25643,528,food@southwark.gov.uk,Southwark,http://www.southwark.gov.uk/,-0.075586,SE15 5LJ,16/08/2012,fhrs_5_en-GB,5,,FHRS,0,"Bp  connect, 95 Peckham Road, London, SE15 5LJ",LONDON,APPROVED,GOOD,WICKHAM ROAD,175458,1.00022E+11,1,SE4 1NH,"95, WICKHAM ROAD, LONDON, SE4 1NH",536720,,0.9,,-0.033349001,51.4615914,95,,
42,125617,125617,,128,Brayards Road,London,Brayards chicken,Takeaway/sandwich shop,7844,10,,363726,10,,51.46946,176383,528,food@southwark.gov.uk,Southwark,http://www.southwark.gov.uk/,-0.057544,SE15 2BU,17/01/2014,fhrs_2_en-GB,2,,FHRS,15,"Brayards chicken, 128 Brayards Road, London, SE15 2BU",LONDON,APPROVED,EXACT,BRAYARDS ROAD,176297,2.00003E+11,1,SE15 2BU,"BRAYARDS CHICKEN, 128, BRAYARDS ROAD, LONDON, SE15 2BU",535062,BRAYARDS CHICKEN,1,,-0.056880284,51.46952864,128,,
43,125626,125626,Oliver Goldsmith Primary Schoo,,Peckham Road,London,Breakfast club,Takeaway/sandwich shop,7844,5,,363440,0,,51.474304,174067,528,food@southwark.gov.uk,Southwark,http://www.southwark.gov.uk/,-0.079787,SE5 8UH,31/01/2013,fhrs_5_en-GB,5,,FHRS,0,"Breakfast club, Oliver Goldsmith Primary Schoo, Peckham Road, London, SE5 8UH",LONDON,APPROVED,GOOD,PECKHAM ROAD,176836,2.00003E+11,2,SE5 8UH,"OLIVER GOLDSMITH PRIMARY SCHOOL, 83, PECKHAM ROAD, LONDON, SE5 8UH",533584,OLIVER GOLDSMITH PRIMARY SCHOOL,0.8,,-0.077942787,51.47472285,83,,
44,125629,125629,Railway Arch 209,,Blenheim Grove,London,Brick brewery,Manufacturers/packers,7839,5,,617528,5,,51.469437,183147,528,food@southwark.gov.uk,Southwark,http://www.southwark.gov.uk/,-0.070302,SE15 4QL,24/01/2014,fhrs_5_en-GB,5,,FHRS,5,"Brick brewery, Railway Arch 209, Blenheim Grove, London, SE15 4QL",LONDON,APPROVED,GOOD,BLENHEIM GROVE,176257,2.00003E+11,1,SE15 4QL,"RAILWAY ARCH 209-210, BLENHEIM GROVE, LONDON, SE15 4QL",534094,,0.9,RAILWAY ARCH 209-210,-0.070823386,51.46939919,,,
45,125648,125648,,46-52,Peckham High Street,London,Burger king,Restaurant/Cafe/Canteen,1,5,,363172,5,,51.473214,170902,528,food@southwark.gov.uk,Southwark,http://www.southwark.gov.uk/,-0.070891,SE15 5DP,01/05/2014,fhrs_5_en-GB,5,,FHRS,5,"Burger king, 46-52 Peckham High Street, London, SE15 5DP",LONDON,APPROVED,GOOD,PECKHAM HIGH STREET,176713,2.00003E+11,2,SE15 5EB,"47A, PECKHAM HIGH STREET, LONDON, SE15 5EB",534058,,0.9,47A,-0.071168536,51.47350551,,,
46,125653,125653,,30,Rye Lane,London,Butt seafood ltd,Retailers - other,4613,10,,363544,10,,51.472256,175058,528,food@southwark.gov.uk,Southwark,http://www.southwark.gov.uk/,-0.070053,SE15 5BS,01/08/2013,fhrs_2_en-GB,2,,FHRS,15,"Butt seafood ltd, 30 Rye Lane, London, SE15 5BS",LONDON,APPROVED,EXACT,RYE LANE,176536,2.00003E+11,1,SE15 5BS,"UK FOODS, 30, RYE LANE, LONDON, SE15 5BS",534136,UK FOODS,1,,-0.070113274,51.47189645,30,,
47,125666,125666,Unit 17,137-139,Rye Lane,London,Cafe al ayaan,Restaurant/Cafe/Canteen,1,20,,692096,15,,51.469866,184453,528,food@southwark.gov.uk,Southwark,http://www.southwark.gov.uk/,-0.068008,SE15 4ST,06/08/2014,fhrs_1_en-GB,1,,FHRS,15,"Cafe al ayaan, Unit 17, 137-139, Rye Lane, London, SE15 4ST",LONDON,APPROVED,PARTIAL,RYE LANE,176632,2.00003E+11,1,SE15 5EW,"SELECT & SAVE, UNIT 17, AYLESHAM CENTRE, RYE LANE, LONDON, SE15 5EW",534233,SELECT & SAVE,0.7,UNIT 17,-0.068681094,51.47273616,,AYLESHAM CENTRE,
48,125672,125672,,42,Peckham Road,London,Cafe culture,Restaurant/Cafe/Canteen,1,20,,363630,10,,51.473666,175709,528,food@southwark.gov.uk,Southwark,http://www.southwark.gov.uk/,-0.079771,SE5 8PX,28/03/2012,fhrs_1_en-GB,1,,FHRS,0,"Cafe culture, 42 Peckham Road, London, SE5 8PX",LONDON,APPROVED,EXACT,PECKHAM ROAD,176684,2.00003E+11,1,SE5 8PX,"CULTURE CAFE, 42, PECKHAM ROAD, LONDON, SE5 8PX",533361,CULTURE CAFE,1,,-0.0812091,51.47340947,42,,
49,125697,125697,,88,Rye Lane,London,Cafe spice,Restaurant/Cafe/Canteen,1,10,,364417,15,,51.469024,2970,528,food@southwark.gov.uk,Southwark,http://www.southwark.gov.uk/,-0.068174,SE15 4RZ,01/12/2014,fhrs_2_en-GB,2,,FHRS,15,"Cafe spice, 88 Rye Lane, London, SE15 4RZ",LONDON,APPROVED,EXACT,RYE LANE,176283,2.00003E+11,1,SE15 4RZ,"CAFE SPICE, 88, RYE LANE, LONDON, SE15 4RZ",534253,CAFE SPICE,1,,-0.068525773,51.46959517,88,,
50,125699,125699,,44,Choumert Road,London,Cafe viva ltd,Restaurant/Cafe/Canteen,1,5,,692034,5,,51.468194,180393,528,food@southwark.gov.uk,Southwark,http://www.southwark.gov.uk/,-0.068554,SE15 4SE,17/07/2014,fhrs_5_en-GB,5,,FHRS,0,"Cafe viva ltd, 44 Choumert Road, London, SE15 4SE",LONDON,APPROVED,EXACT,CHOUMERT ROAD,176118,2.00003E+11,1,SE15 4SE,"CAFE VIVA, 44, CHOUMERT ROAD, LONDON, SE15 4SE",534216,CAFE VIVA,1,,-0.069120746,51.46812118,44,,
51,125700,125700,,131,Peckham High Street,London,Cafe world,Restaurant/Cafe/Canteen,1,10,,692063,5,,51.474167,184099,528,food@southwark.gov.uk,Southwark,http://www.southwark.gov.uk/,-0.066488,SE15 5SL,27/06/2014,fhrs_4_en-GB,4,,FHRS,5,"Cafe world, 131 Peckham High Street, London, SE15 5SL",LONDON,APPROVED,EXACT,PECKHAM HIGH STREET,176795,2.00003E+11,1,SE15 5SL,"CAFE WORLD, 131, PECKHAM HIGH STREET, LONDON, SE15 5SL",534332,CAFE WORLD,1,,-0.067194634,51.47417747,131,,
52,125719,125719,,45-65,Peckham Road,London,Camberwell college of art & design - senior common room club,Restaurant/Cafe/Canteen,1,0,,362875,0,,51.474068,128844,528,food@southwark.gov.uk,Southwark,http://www.southwark.gov.uk/,-0.080733,SE5 8UF,23/11/2012,fhrs_5_en-GB,5,,FHRS,0,"Camberwell college of art & design - senior common room club, 45-65 Peckham Road, London, SE5 8UF",LONDON,APPROVED,GOOD,PECKHAM ROAD,176708,2.00003E+11,1,SE5 8PX,"56A, PECKHAM ROAD, LONDON, SE5 8PX",533452,,0.9,56A,-0.079890582,51.47360371,,,
53,125730,125730,,188,Rye Lane,London,Canavans peckham pool club,Pub/bar/nightclub,7843,,,449236,,,51.467136,180055,528,food@southwark.gov.uk,Southwark,http://www.southwark.gov.uk/,-0.066583,SE15 4NF,04/10/2013,fhrs_exempt_en-GB,Exempt,,FHRS,,"Canavans peckham pool club, 188 Rye Lane, London, SE15 4NF",LONDON,APPROVED,GOOD,RYE LANE,176019,2.00003E+11,1,SE15 4NF,"CANAVANS SNOOKER CLUB, 188, RYE LANE, LONDON, SE15 4NF",534383,CANAVANS SNOOKER CLUB,0.8,,-0.066755569,51.46719193,188,,
54,125746,125746,Peckham Bus Garage,,Blackpool Road,London,Capital catering,Restaurant/Cafe/Canteen,1,0,,364509,0,,51.469799,3269,528,food@southwark.gov.uk,Southwark,http://www.southwark.gov.uk/,-0.063951,SE15 3SU,27/10/2010,fhrs_5_en-GB,5,,FHRS,5,"Capital catering, Peckham Bus Garage, Blackpool Road, London, SE15 3SU",LONDON,APPROVED,GOOD,BLACKPOOL ROAD,176258.81,2.00003E+11,2,SE15 3SU,"LONDON CENTRAL BUS CO LTD, PECKHAM BUS GARAGE, BLACKPOOL ROAD, LONDON, SE15 3SU",534550.6,LONDON CENTRAL BUS CO LTD,0.9,PECKHAM BUS GARAGE,-0.064252998,51.46930717,,,
55,125756,125756,,151a,Rye Lane,London,Carnation supermarket,Retailers - other,4613,20,,364121,15,,51.468604,22933,528,food@southwark.gov.uk,Southwark,http://www.southwark.gov.uk/,-0.067241,SE15 4TL,20/06/2014,fhrs_1_en-GB,1,,FHRS,15,"Carnation supermarket, 151a, Rye Lane, London, SE15 4TL",LONDON,APPROVED,GOOD,PECKHAM RYE,175402,2.00003E+11,1,SE15 3UL,"151A, PECKHAM RYE, LONDON, SE15 3UL",534708,,0.9,151A,-0.062314493,51.46157014,,,
56,125795,125795,Harris Primary Free School Pec,112,Peckham Road,London,Chartwells,School/college/university,7845,0,,621246,5,,51.473788,183289,528,food@southwark.gov.uk,Southwark,http://www.southwark.gov.uk/,-0.074063,SE15 5DZ,04/12/2013,fhrs_5_en-GB,5,,FHRS,5,"Chartwells, Harris Primary Free School Pec, 112 Peckham Road, London, SE15 5DZ",LONDON,APPROVED,PARTIAL,PECKHAM ROAD,176738,2.00003E+11,1,SE15 5DZ,"SCHOOL HOUSE, PECKHAM ROAD, LONDON, SE15 5DZ",533857,,0.7,SCHOOL HOUSE,-0.074051396,51.47377772,,,
57,125796,125796,Hollydale Road Primary School,,Hollydale Road,London,Chartwells,School/college/university,7845,0,,364449,0,,51.467318,3056,528,food@southwark.gov.uk,Southwark,http://www.southwark.gov.uk/,-0.052595,SE15 2AR,11/06/2014,fhrs_5_en-GB,5,,FHRS,5,"Chartwells, Hollydale Road Primary School, Hollydale Road, London, SE15 2AR",LONDON,APPROVED,GOOD,HOLLYDALE ROAD,176100,2.00003E+11,1,SE15 2AR,"HOLLYDALE PRIMARY SCHOOL, HOLLYDALE ROAD, LONDON, SE15 2AR",535369,HOLLYDALE PRIMARY SCHOOL,0.9,,-0.052538478,51.46768504,,,
58,125799,125799,St Thomas The Apostle College,,Hollydale Road,London,Chartwells,School/college/university,7845,5,,654192,0,,51.470753,183780,528,food@southwark.gov.uk,Southwark,http://www.southwark.gov.uk/,-0.056351,SE15 2EB,27/02/2014,fhrs_5_en-GB,5,,FHRS,5,"Chartwells, St Thomas The Apostle College, Hollydale Road, London, SE15 2EB",LONDON,APPROVED,GOOD,HOLLYDALE ROAD,176433,2.00003E+11,1,SE15 2EB,"ST. THOMAS THE APOSTLE COLLEGE, HOLLYDALE ROAD, LONDON, SE15 2EB",535096,ST. THOMAS THE APOSTLE COLLEGE,0.9,,-0.056339141,51.47074267,,,
59,125810,125810,,289,Rye Lane,London,Cheung's,Takeaway/sandwich shop,7844,20,,654204,10,,51.46589,183984,528,food@southwark.gov.uk,Southwark,http://www.southwark.gov.uk/,-0.0657,SE15 4UA,20/03/2014,fhrs_1_en-GB,1,,FHRS,15,"Cheung's, 289 Rye Lane, London, SE15 4UA",LONDON,APPROVED,GOOD,RYE LANE,175875,2.00003E+11,1,SE15 4UA,"CHEUNG TAKE AWAY, 289, RYE LANE, LONDON, SE15 4UA",534461,CHEUNG TAKE AWAY,0.8,,-0.065688062,51.46587938,289,,
60,125811,125811,,117,Peckham High Street,London,Chick chicken,Takeaway/sandwich shop,7844,10,,729116,5,,51.474117,184018,528,food@southwark.gov.uk,Southwark,http://www.southwark.gov.uk/,-0.068362,SE15 5SE,03/11/2014,fhrs_4_en-GB,4,,FHRS,5,"Chick chicken, 117 Peckham High Street, London, SE15 5SE",LONDON,APPROVED,GOOD,PECKHAM HIGH STREET,176785,2.00003E+11,1,SE15 5SE,"CHICK KING, 117, PECKHAM HIGH STREET, LONDON, SE15 5SE",534252,CHICK KING,0.8,,-0.068349616,51.47410657,117,,
61,125822,125822,,30,Ivanhoe Road,London,China ho lok,Takeaway/sandwich shop,7844,10,,363216,10,,51.46495,171555,528,food@southwark.gov.uk,Southwark,http://www.southwark.gov.uk/,-0.079115,SE5 8DJ,22/07/2013,fhrs_3_en-GB,3,,FHRS,10,"China ho lok, 30 Ivanhoe Road, London, SE5 8DJ",LONDON,APPROVED,PARTIAL,IVANHOE ROAD,175799,2.00003E+11,1,SE5 8DJ,"SEASON CHINESE, 30, IVANHOE ROAD, LONDON, SE5 8DJ",533487,SEASON CHINESE,0.7,,-0.079729959,51.46542677,30,,
62,125830,125830,,211,Rye Lane,London,Christine's meat shop,Retailers - other,4613,5,,407128,5,,51.467685,180260,528,food@southwark.gov.uk,Southwark,http://www.southwark.gov.uk/,-0.066603,SE15 4TP,11/05/2012,fhrs_5_en-GB,5,,FHRS,5,"Christine's meat shop, 211 Rye Lane, London, SE15 4TP",LONDON,APPROVED,GOOD,RYE LANE,176067,2.00003E+11,1,SE15 4TP,"CHRISTINES BUTCHERY, 211, RYE LANE, LONDON, SE15 4TP",534402,CHRISTINES BUTCHERY,0.8,,-0.066463969,51.46761877,211,,
63,125851,125851,,125,Bellenden Road,London,Cod fella,Takeaway/sandwich shop,7844,5,,363159,5,,51.467913,170798,528,food@southwark.gov.uk,Southwark,http://www.southwark.gov.uk/,-0.072281,SE15 4QY,07/07/2014,fhrs_4_en-GB,4,,FHRS,10,"Cod fella, 125 Bellenden Road, London, SE15 4QY",LONDON,APPROVED,GOOD,BELLENDEN ROAD,176073,2.00003E+11,1,SE15 4QY,"COD FELLAS, 125, BELLENDEN ROAD, LONDON, SE15 4QY",533998,COD FELLAS,0.8,,-0.072274364,51.46776841,125,,
64,125874,125874,,64,Nunhead Lane,London,Convenience store,Retailers - other,4613,0,,542837,0,,51.464633,180828,528,food@southwark.gov.uk,Southwark,http://www.southwark.gov.uk/,-0.059865,SE15 3QE,15/03/2013,fhrs_5_en-GB,5,,FHRS,0,"Convenience store, 64 Nunhead Lane, London, SE15 3QE",LONDON,APPROVED,GOOD,NUNHEAD LANE,175736,2.00003E+11,1,SE15 3QE,"NUNHEAD MINI MARKET, 64, NUNHEAD LANE, LONDON, SE15 3QE",534938,NUNHEAD MINI MARKET,0.8,,-0.058878401,51.46451685,64,,
65,125880,125880,The Clf Art Cafe,133,Copeland Road,London,Copeland park cafe,Mobile caterer,7846,10,,635620,5,,51.469911,183414,528,food@southwark.gov.uk,Southwark,http://www.southwark.gov.uk/,-0.064162,SE15 3SN,12/02/2014,fhrs_3_en-GB,3,,FHRS,10,"Copeland park cafe, The Clf Art Cafe, 133 Copeland Road, London, SE15 3SN",,,,,,,,,,,,,,,,,,
66,125881,125881,Copleston Centre,,Copleston Road,London,Copleston centre,Restaurant/Cafe/Canteen,1,10,,362779,0,,51.466197,1142,528,food@southwark.gov.uk,Southwark,http://www.southwark.gov.uk/,-0.077306,SE15 4AN,06/02/2013,fhrs_4_en-GB,4,,FHRS,5,"Copleston centre, Copleston Centre, Copleston Road, London, SE15 4AN",LONDON,APPROVED,EXACT,COPLESTON ROAD,175848,2.00003E+11,1,SE15 4AN,"COPLESTON CENTRE, COPLESTON ROAD, LONDON, SE15 4AN",533676,COPLESTON CENTRE,1,,-0.076992274,51.46582254,,,
67,125910,125910,,129,Peckham High Street,London,Criterion  restaurant,Restaurant/Cafe/Canteen,1,10,,364364,5,,51.474167,2831,528,food@southwark.gov.uk,Southwark,http://www.southwark.gov.uk/,-0.066488,SE15 5SL,11/12/2014,fhrs_4_en-GB,4,,FHRS,5,"Criterion  restaurant, 129 Peckham High Street, London, SE15 5SL",LONDON,APPROVED,GOOD,PECKHAM HIGH STREET,176795,2.00003E+11,1,SE15 5SL,"THE CRITERION, 129, PECKHAM HIGH STREET, LONDON, SE15 5SL",534325,THE CRITERION,0.8,,-0.067295362,51.47417913,129,,
68,125911,125911,,190,Bellenden Road,London,Crossroads cafe,Restaurant/Cafe/Canteen,1,10,,364286,10,,51.466859,2640,528,food@southwark.gov.uk,Southwark,http://www.southwark.gov.uk/,-0.073218,SE15 4BW,22/01/2015,fhrs_3_en-GB,3,,FHRS,5,"Crossroads cafe, 190 Bellenden Road, London, SE15 4BW",LONDON,APPROVED,EXACT,BELLENDEN ROAD,175976,2.00003E+11,1,SE15 4BW,"CROSSROADS CAFE, 190, BELLENDEN ROAD, LONDON, SE15 4BW",533947,CROSSROADS CAFE,1,,-0.07304487,51.46690878,190,,
69,125912,125912,,93,Evelina Road,London,Crossways cafe,Restaurant/Cafe/Canteen,1,5,,364672,5,,51.466607,41993,528,food@southwark.gov.uk,Southwark,http://www.southwark.gov.uk/,-0.056326,SE15 3HL,19/12/2014,fhrs_4_en-GB,4,,FHRS,10,"Crossways cafe, 93 Evelina Road, London, SE15 3HL",LONDON,APPROVED,EXACT,EVELINA ROAD,175992,2.00003E+11,1,SE15 3HL,"CROSSWAYS CAFE, 93, EVELINA ROAD, LONDON, SE15 3HL",535177,CROSSWAYS CAFE,1,,-0.055342177,51.46676037,93,,
70,125919,125919,The Aylesham Centre,,Rye Lane,London,Cuisine africana,Retailers - other,4613,10,,363443,5,,51.472746,174098,528,food@southwark.gov.uk,Southwark,http://www.southwark.gov.uk/,-0.068693,SE15 5EW,11/02/2010,fhrs_4_en-GB,4,,FHRS,5,"Cuisine africana, The Aylesham Centre, Rye Lane, London, SE15 5EW",LONDON,APPROVED,PARTIAL,RYE LANE,176678,10009804746,2,SE15 5DW,"FLAT C, 1-2 CENTRAL BUILDINGS, RYE LANE, LONDON, SE15 5DW",534134,,0.7,1-2 CENTRAL BUILDINGS,-0.070088198,51.47317299,,,FLAT C
71,125926,125926,Unit 10,137-139,Rye Lane,London,Cynthia a's cakes sugarcraft,Retailers - other,4613,,,467696,,,51.469866,181304,528,food@southwark.gov.uk,Southwark,http://www.southwark.gov.uk/,-0.068008,SE15 4ST,01/11/2012,fhrs_exempt_en-GB,Exempt,,FHRS,,"Cynthia a's cakes sugarcraft, Unit 10, 137-139, Rye Lane, London, SE15 4ST",LONDON,APPROVED,GOOD,RYE LANE,176156,2.00003E+11,1,SE15 4RZ,"138, RYE LANE, LONDON, SE15 4RZ",534304,,0.8,,-0.067840182,51.4684418,138,,
72,125939,125939,,97,Queens Road,London,Dans food,Takeaway/sandwich shop,7844,,,363970,,,51.473961,180178,528,food@southwark.gov.uk,Southwark,http://www.southwark.gov.uk/,-0.059484,SE15 2EZ,04/12/2014,fhrs_4_en-GB,4,,FHRS,,"Dans food, 97 Queens Road, London, SE15 2EZ",LONDON,APPROVED,EXACT,QUEENS ROAD,176799,2.00003E+11,1,SE15 2EZ,"DANS FOOD, 97, QUEENS ROAD, LONDON, SE15 2EZ",534804,DANS FOOD,1,,-0.060401135,51.47410125,97,,
73,125941,125941,,173,Peckham High Street,London,Daphanies taste of the caribbean,Restaurant/Cafe/Canteen,1,10,,364365,10,,51.474167,2833,528,food@southwark.gov.uk,Southwark,http://www.southwark.gov.uk/,-0.066488,SE15 5SL,30/04/2014,fhrs_3_en-GB,3,,FHRS,10,"Daphanies taste of the caribbean, 173 Peckham High Street, London, SE15 5SL",LONDON,APPROVED,GOOD,PECKHAM HIGH STREET,176799,2.00003E+11,1,SE15 5SL,"DAPHNES, 173, PECKHAM HIGH STREET, LONDON, SE15 5SL",534466,DAPHNES,0.8,,-0.065264878,51.47418161,173,,
74,125949,125949,,08-Oct,Blenheim Grove,London,Ddk jerk centre,Restaurant/Cafe/Canteen,1,20,,363917,15,,51.469437,178868,528,food@southwark.gov.uk,Southwark,http://www.southwark.gov.uk/,-0.070302,SE15 4QL,17/12/2013,fhrs_0_en-GB,0,,FHRS,20,"Ddk jerk centre, 8-10 Blenheim Grove, London, SE15 4QL",LONDON,APPROVED,GOOD,BLENHEIM GROVE,176245,2.00003E+11,1,SE15 4QS,"9, BLENHEIM GROVE, LONDON, SE15 4QS",534158,,0.9,,-0.069907083,51.46927619,9,,
75,125959,125959,,178,Rye Lane,London,Delight cafe - uckg help centre,Restaurant/Cafe/Canteen,1,10,,714775,10,,51.467202,130571,528,food@southwark.gov.uk,Southwark,http://www.southwark.gov.uk/,-0.066768,SE15 4NF,28/10/2014,fhrs_4_en-GB,4,,FHRS,0,"Delight cafe - uckg help centre, 178 Rye Lane, London, SE15 4NF",LONDON,APPROVED,GOOD,RYE LANE,176049,2.00003E+11,1,SE15 4NF,"U C K G HELP CENTRE, 176-178, RYE LANE, LONDON, SE15 4NF",534367,U C K G HELP CENTRE,0.8,176-178,-0.066974377,51.46746532,,,
76,125962,125962,,9,Peckham High Street,London,Delta express pizza,Takeaway/sandwich shop,7844,10,,621250,10,,51.473716,183617,528,food@southwark.gov.uk,Southwark,http://www.southwark.gov.uk/,-0.07241,SE15 5EB,10/12/2013,fhrs_3_en-GB,3,,FHRS,10,"Delta express pizza, 9 Peckham High Street, London, SE15 5EB",LONDON,APPROVED,GOOD,PECKHAM HIGH STREET,176753,10091837436,1,SE15 5EB,"DELTA EXPRESS CHICKEN, 9, PECKHAM HIGH STREET, LONDON, SE15 5EB",533931,DELTA EXPRESS CHICKEN,0.8,,-0.072980874,51.47389502,9,,
77,125964,125964,,135,Peckham High Street,London,Dennis butchers,Retailers - other,4613,10,,362751,5,,51.474167,1104,528,food@southwark.gov.uk,Southwark,http://www.southwark.gov.uk/,-0.066488,SE15 5SL,14/04/2014,fhrs_4_en-GB,4,,FHRS,5,"Dennis butchers, 135 Peckham High Street, London, SE15 5SL",LONDON,APPROVED,EXACT,PECKHAM HIGH STREET,176794,2.00003E+11,1,SE15 5SL,"DENNIS BUTCHERS, 135, PECKHAM HIGH STREET, LONDON, SE15 5SL",534342,DENNIS BUTCHERS,1,,-0.067051115,51.47416611,135,,
78,125968,125968,Copleston Centre,,Copleston Road,London,Destiny kids nursery,Hospitals/Childcare/Caring Premises,5,10,,407109,5,,51.466197,178255,528,food@southwark.gov.uk,Southwark,http://www.southwark.gov.uk/,-0.077306,SE15 4AN,08/01/2014,fhrs_4_en-GB,4,,FHRS,5,"Destiny kids nursery, Copleston Centre, Copleston Road, London, SE15 4AN",LONDON,APPROVED,GOOD,COPLESTON ROAD,175848,2.00003E+11,1,SE15 4AN,"COPLESTON CENTRE, COPLESTON ROAD, LONDON, SE15 4AN",533676,COPLESTON CENTRE,0.9,,-0.076992274,51.46582254,,,
79,125979,125979,,16,Peckham High Street,London,Dixie chicken,Takeaway/sandwich shop,7844,0,,449257,0,,51.473393,181276,528,food@southwark.gov.uk,Southwark,http://www.southwark.gov.uk/,-0.072453,SE15 5DT,15/08/2012,fhrs_5_en-GB,5,,FHRS,0,"Dixie chicken, 16 Peckham High Street, London, SE15 5DT",LONDON,APPROVED,GOOD,PECKHAM HIGH STREET,176684,10091837532,1,SE15 5DT,"DIXIE FRIED CHICKEN, 16, PECKHAM HIGH STREET, LONDON, SE15 5DT",533962,DIXIE FRIED CHICKEN,0.8,,-0.072560927,51.47326762,16,,
80,126028,126028,6-7 Whaddon House Dog Kennel H,,Albrighton Road,London,East dulwich community nursery,Hospitals/Childcare/Caring Premises,5,5,,363091,5,,51.464603,1515,528,food@southwark.gov.uk,Southwark,http://www.southwark.gov.uk/,-0.080986,SE22 8AQ,07/05/2013,fhrs_5_en-GB,5,,FHRS,5,"East dulwich community nursery, 6-7 Whaddon House Dog Kennel H, Albrighton Road, London, SE22 8AQ",LONDON,APPROVED,GOOD,EAST DULWICH ESTATE,175704,10091872820,1,SE22 8AQ,"EAST DULWICH COMMUNITY NURSERY, 6-7 WHADDON HOUSE, EAST DULWICH ESTATE, LONDON, SE22 8AQ",533403,EAST DULWICH COMMUNITY NURSERY,0.8,6-7 WHADDON HOUSE,-0.0809743,51.46459285,,,
81,126029,126029,Albrighton Community Centre,37,Albrighton Road,London,East dulwich estate community project & tenants as,Other catering premises,7841,0,,542904,0,,51.464622,699,528,food@southwark.gov.uk,Southwark,http://www.southwark.gov.uk/,-0.081619,SE22 8AH,19/03/2013,fhrs_5_en-GB,5,,FHRS,0,"East dulwich estate community project & tenants as, Albrighton Community Centre, 37 Albrighton Road, London, SE22 8AH",LONDON,APPROVED,GOOD,ALBRIGHTON ROAD,175705,2.00003E+11,1,SE22 8AH,"ALBRIGHTON COMMUNITY CENTRE, 37, ALBRIGHTON ROAD, LONDON, SE22 8AH",533359,ALBRIGHTON COMMUNITY CENTRE,0.8,,-0.081606948,51.46461219,37,,
82,126099,126099,,141,Evelina Road,London,F c soper,Retailers - other,4613,10,,364680,0,,51.466101,42024,528,food@southwark.gov.uk,Southwark,http://www.southwark.gov.uk/,-0.056707,SE15 3HB,10/10/2012,fhrs_4_en-GB,4,,FHRS,10,"F c soper, 141 Evelina Road, London, SE15 3HB",LONDON,APPROVED,GOOD,EVELINA ROAD,175871,2.00003E+11,1,SE15 3HB,"F C SOPERS, 141, EVELINA ROAD, LONDON, SE15 3HB",535044,F C SOPERS,0.9,,-0.057301886,51.46570475,141,,
83,126137,126137,,155,Bellenden Road,London,Flock and herd,Retailers - other,4613,0,,487193,0,,51.466882,181907,528,food@southwark.gov.uk,Southwark,http://www.southwark.gov.uk/,-0.072468,SE15 4DH,23/11/2012,fhrs_5_en-GB,5,,FHRS,0,"Flock and herd, 155 Bellenden Road, London, SE15 4DH",LONDON,APPROVED,GOOD,BELLENDEN ROAD,175954,2.00003E+11,1,SE15 4DH,"FLOCK X HERD, 155, BELLENDEN ROAD, LONDON, SE15 4DH",533977,FLOCK X HERD,0.9,,-0.072621574,51.46670399,155,,
84,126152,126152,Unit 4.1 Copeland Industrial P,133,Copeland Road,London,Forza win ltd,Restaurant/Cafe/Canteen,1,10,,702304,5,,51.469911,184350,528,food@southwark.gov.uk,Southwark,http://www.southwark.gov.uk/,-0.064162,SE15 3SN,20/08/2014,fhrs_2_en-GB,2,,FHRS,15,"Forza win ltd, Unit 4.1 Copeland Industrial P, 133 Copeland Road, London, SE15 3SN",,,,,,,,,,,,,,,,,,
85,126157,126157,,187,Rye Lane,London,Four quarters,Restaurant/Cafe/Canteen,1,10,,708633,10,,51.467685,184104,528,food@southwark.gov.uk,Southwark,http://www.southwark.gov.uk/,-0.066603,SE15 4TP,02/10/2014,fhrs_2_en-GB,2,,FHRS,15,"Four quarters, 187 Rye Lane, London, SE15 4TP",LONDON,APPROVED,GOOD,RYE LANE,176116,2.00003E+11,1,SE15 4TP,"THE FOUR QUARTERS, 187, RYE LANE, LONDON, SE15 4TP",534373,THE FOUR QUARTERS,0.9,,-0.066862602,51.46806598,187,,
86,126168,126168,Level 10 Peckham Rye Car Park,95A,Rye Lane,London,Frank's cafe and campari bar,Restaurant/Cafe/Canteen,1,10,,363280,10,,51.469866,172180,528,food@southwark.gov.uk,Southwark,http://www.southwark.gov.uk/,-0.068008,SE15 4ST,17/09/2014,fhrs_2_en-GB,2,,FHRS,15,"Frank's cafe and campari bar, Level 10 Peckham Rye Car Park, 95A, Rye Lane, London, SE15 4ST",,,,,,,,,,,,,,,,,,
87,126176,126176,,77,Rye Lane,London,Fresh fish & seafood,Retailers - other,4613,10,,702316,10,,51.471369,184545,528,food@southwark.gov.uk,Southwark,http://www.southwark.gov.uk/,-0.069169,SE15 5EX,03/09/2014,fhrs_3_en-GB,3,,FHRS,10,"Fresh fish & seafood, 77 Rye Lane, London, SE15 5EX",LONDON,APPROVED,GOOD,RYE HILL PARK,175184,2.00003E+11,1,SE15 3JS,"77, RYE HILL PARK, LONDON, SE15 3JS",535232,,0.8,,-0.05485965,51.45948628,77,,
88,126177,126177,,161,Peckham Hill Street,London,Fresh fruit & vegetable for you,Retailers - other,4613,10,,363818,5,,51.474661,177181,528,food@southwark.gov.uk,Southwark,http://www.southwark.gov.uk/,-0.06867,SE15 5JZ,23/03/2011,fhrs_3_en-GB,3,,FHRS,10,"Fresh fruit & vegetable for you, 161 Peckham Hill Street, London, SE15 5JZ",LONDON,APPROVED,GOOD,PECKHAM HILL STREET,176834,2.00003E+11,1,SE15 5JZ,"HILL STREET FRUIT & VEG, 161, PECKHAM HILL STREET, LONDON, SE15 5JZ",534230,HILL STREET FRUIT & VEG,0.8,,-0.068647593,51.47455212,161,,
89,126179,126179,,119,Consort Road,London,Frog on the green,Restaurant/Cafe/Canteen,1,10,,362746,10,,51.467895,110271,528,food@southwark.gov.uk,Southwark,http://www.southwark.gov.uk/,-0.061886,SE15 3RU,07/11/2012,fhrs_3_en-GB,3,,FHRS,10,"Frog on the green, 119 Consort Road, London, SE15 3RU",LONDON,APPROVED,EXACT,CONSORT ROAD,176100,2.00003E+11,1,SE15 3RU,"119, CONSORT ROAD, LONDON, SE15 3RU",534722,,1,,-0.061847332,51.4678393,119,,
90,126181,126181,,230,Rye Lane,London,Full garden,Takeaway/sandwich shop,7844,0,,364596,5,,51.466439,3490,528,food@southwark.gov.uk,Southwark,http://www.southwark.gov.uk/,-0.066325,SE15 4NL,22/08/2012,fhrs_5_en-GB,5,,FHRS,5,"Full garden, 230 Rye Lane, London, SE15 4NL",LONDON,APPROVED,GOOD,RYE LANE,175918,2.00003E+11,1,SE15 4NL,"FULL GARDEN CHINESE TAKEAWAY, 230, RYE LANE, LONDON, SE15 4NL",534407,FULL GARDEN CHINESE TAKEAWAY,0.8,,-0.066448636,51.46627861,230,,
91,126183,126183,,40,Peckham Road,London,Fung sing,Takeaway/sandwich shop,7844,10,,467642,15,,51.473666,113946,528,food@southwark.gov.uk,Southwark,http://www.southwark.gov.uk/,-0.079771,SE5 8PX,26/08/2014,fhrs_2_en-GB,2,,FHRS,15,"Fung sing, 40 Peckham Road, London, SE5 8PX",LONDON,APPROVED,GOOD,WICKHAM ROAD,176043,10023234336,1,SE4 1NZ,"40B-40E, WICKHAM ROAD, LONDON, SE4 1NZ",536897,,0.8,40B-40E,-0.030576431,51.46680559,,,
92,126196,126196,,38,Holly Grove,London,Ganapati south indian restaurant,Restaurant/Cafe/Canteen,1,0,,364415,5,,51.469729,2964,528,food@southwark.gov.uk,Southwark,http://www.southwark.gov.uk/,-0.071657,SE15 5DF,14/08/2012,fhrs_5_en-GB,5,,FHRS,5,"Ganapati south indian restaurant, 38 Holly Grove, London, SE15 5DF",LONDON,APPROVED,GOOD,HOLLY GROVE,176286,2.00003E+11,1,SE15 5DF,"GNAPATTI RESTAURANT, 38, HOLLY GROVE, LONDON, SE15 5DF",533937,GNAPATTI RESTAURANT,0.8,,-0.073071379,51.46969694,38,,
93,126197,126197,,4,Maxted Road,London,Ganapati takeaway kitchen,Takeaway/sandwich shop,7844,,,609251,,,51.465971,183287,528,food@southwark.gov.uk,Southwark,http://www.southwark.gov.uk/,-0.072262,SE15 4LL,26/06/2014,fhrs_5_en-GB,5,,FHRS,,"Ganapati takeaway kitchen, 4 Maxted Road, London, SE15 4LL",LONDON,APPROVED,GOOD,MAXEY ROAD,178867,1.00021E+11,1,SE18 7EL,"4, MAXEY ROAD, LONDON, SE18 7EL",544204,,0.9,,0.075697116,51.49036784,4,,
94,126202,126202,Part Ground Floor,174,Bellenden Road,London,General store (london) limited,Retailers - other,4613,0,,542853,0,,51.466859,182176,528,food@southwark.gov.uk,Southwark,http://www.southwark.gov.uk/,-0.073218,SE15 4BW,21/03/2013,fhrs_5_en-GB,5,,FHRS,0,"General store (london) limited, Part Ground Floor, 174 Bellenden Road, London, SE15 4BW",LONDON,APPROVED,GOOD,BELLENDEN ROAD,176010,2.00003E+11,1,SE15 4BW,"THE GENERAL STORE, 174, BELLENDEN ROAD, LONDON, SE15 4BW",533961,THE GENERAL STORE,0.9,,-0.07283057,51.46721101,174,,
95,126208,126208,,1,Choumert Road,London,Ghana mini market,Retailers - other,4613,10,,363543,5,,51.468211,175049,528,food@southwark.gov.uk,Southwark,http://www.southwark.gov.uk/,-0.068496,SE15 4SE,28/07/2010,fhrs_3_en-GB,3,,FHRS,10,"Ghana mini market, 1 Choumert Road, London, SE15 4SE",LONDON,APPROVED,EXACT,CHOUMERT ROAD,176116,2.00003E+11,1,SE15 4SE,"GHANA MINI MARKET, 1, CHOUMERT ROAD, LONDON, SE15 4SE",534313,GHANA MINI MARKET,1,,-0.067725876,51.46808021,1,,
96,126219,126219,,14,Choumert Road,London,God bless new cafe,Restaurant/Cafe/Canteen,1,10,,665591,5,,51.468211,184045,528,food@southwark.gov.uk,Southwark,http://www.southwark.gov.uk/,-0.068496,SE15 4SE,22/04/2014,fhrs_4_en-GB,4,,FHRS,5,"God bless new cafe, 14 Choumert Road, London, SE15 4SE",LONDON,APPROVED,GOOD,CHOUMERT ROAD,176130,2.00003E+11,1,SE15 4SE,"GOD BLESS, 14, CHOUMERT ROAD, LONDON, SE15 4SE",534273,GOD BLESS,0.9,,-0.068296079,51.46821551,14,,
97,126221,126221,,144-150,Rye Lane,London,Goitom behr,Retailers - other,4613,10,,467640,10,,51.469024,102081,528,food@southwark.gov.uk,Southwark,http://www.southwark.gov.uk/,-0.068174,SE15 4RZ,25/10/2012,fhrs_3_en-GB,3,,FHRS,10,"Goitom behr, 144-150, Rye Lane, London, SE15 4RZ",LONDON,APPROVED,GOOD,RYE LANE,176236,2.00003E+11,1,SE15 4ST,"149, RYE LANE, LONDON, SE15 4ST",534311,,0.9,,-0.067709092,51.46915905,149,,
98,126226,126226,,177,Queens Road,London,Golden noodle,Takeaway/sandwich shop,7844,10,,363485,10,,51.473679,174461,528,food@southwark.gov.uk,Southwark,http://www.southwark.gov.uk/,-0.057091,SE15 2ND,09/10/2012,fhrs_3_en-GB,3,,FHRS,10,"Golden noodle, 177 Queens Road, London, SE15 2ND",LONDON,APPROVED,GOOD,QUEENS ROAD,176743,2.00003E+11,1,SE15 2ND,"GOLDEN NOODLES, 177, QUEENS ROAD, LONDON, SE15 2ND",535078,GOLDEN NOODLES,0.8,,-0.056479743,51.47353272,177,,
99,126229,126229,,18a,Peckham Rye,London,Golden taste,Restaurant/Cafe/Canteen,1,10,,467664,5,,51.465565,178695,528,food@southwark.gov.uk,Southwark,http://www.southwark.gov.uk/,-0.066722,SE15 4JR,22/10/2013,fhrs_3_en-GB,3,,FHRS,10,"Golden taste, 18a, Peckham Rye, London, SE15 4JR",LONDON,APPROVED,PARTIAL,PECKHAM RYE,175858,2.00003E+11,1,SE15 4NS,"51 TROY TOWN FLATS, PECKHAM RYE, LONDON, SE15 4NS",534350,,0.7,51 TROY TOWN FLATS,-0.067291497,51.46575295,,,
100,126235,126235,,106,Evelina Road,London,Gosling nursery,Hospitals/Childcare/Caring Premises,5,10,,364674,5,,51.466607,42001,528,food@southwark.gov.uk,Southwark,http://www.southwark.gov.uk/,-0.056326,SE15 3HL,21/10/2014,fhrs_3_en-GB,3,,FHRS,10,"Gosling nursery, 106 Evelina Road, London, SE15 3HL",LONDON,APPROVED,GOOD,EVELINA ROAD,175956,2.00003E+11,1,SE15 3HL,"GOSLINGS NURSERY, 106, EVELINA ROAD, LONDON, SE15 3HL",535090,GOSLINGS NURSERY,0.8,,-0.056607626,51.46645762,106,,
101,126236,126236,Unit 10 Print Village,58,Chadwick Road,London,Gosnells beverages ltd,Manufacturers/packers,7839,0,,729122,0,,51.467827,184362,528,food@southwark.gov.uk,Southwark,http://www.southwark.gov.uk/,-0.074127,SE15 4PU,10/11/2014,fhrs_5_en-GB,5,,FHRS,5,"Gosnells beverages ltd, Unit 10 Print Village, 58 Chadwick Road, London, SE15 4PU",LONDON,APPROVED,GOOD,CHADWICK ROAD,176110,10091837468,1,SE15 4PU,"POLAR BEAR EUROPE LTD, UNIT 10, PRINT VILLAGE, 58, CHADWICK ROAD, LONDON, SE15 4PU",533869,POLAR BEAR EUROPE LTD,0.9,PRINT VILLAGE,-0.074116397,51.46813141,58,,UNIT 10
102,126241,126241,,62,Gowlett Road,London,Gowlett arms,Pub/bar/nightclub,7843,10,,364109,10,,51.463105,2263,528,food@southwark.gov.uk,Southwark,http://www.southwark.gov.uk/,-0.070252,SE15 4HY,30/08/2012,fhrs_2_en-GB,2,,FHRS,15,"Gowlett arms, 62 Gowlett Road, London, SE15 4HY",LONDON,APPROVED,EXACT,GOWLETT ROAD,175636,2.00003E+11,1,SE15 4HY,"GOWLETT ARMS, 62, GOWLETT ROAD, LONDON, SE15 4HY",534133,GOWLETT ARMS,1,,-0.070497675,51.46380939,62,,
103,126248,126248,,50,Brayards Road,London,Greenhive,Hospitals/Childcare/Caring Premises,5,0,,364801,0,,51.469175,53197,528,food@southwark.gov.uk,Southwark,http://www.southwark.gov.uk/,-0.059355,SE15 2BQ,26/09/2012,fhrs_5_en-GB,5,,FHRS,0,"Greenhive, 50 Brayards Road, London, SE15 2BQ",LONDON,APPROVED,GOOD,BRAYARDS ROAD,176188,2.00003E+11,2,SE15 2BQ,"GREENHIVE HOUSE, 50, BRAYARDS ROAD, LONDON, SE15 2BQ",534720,GREENHIVE HOUSE,0.8,,-0.061842595,51.46863057,50,,
104,126250,126250,Unit 8 The Aylesham Centre,,Rye Lane,London,Greggs,Takeaway/sandwich shop,7844,0,,487180,0,,51.472746,181591,528,food@southwark.gov.uk,Southwark,http://www.southwark.gov.uk/,-0.068693,SE15 5EW,21/11/2012,fhrs_5_en-GB,5,,FHRS,0,"Greggs, Unit 8 The Aylesham Centre, Rye Lane, London, SE15 5EW",LONDON,HISTORICAL,GOOD,RYE LANE,176632,2.00003E+11,1,SE15 5EW,"GREGGS, UNIT 8, AYLESHAM CENTRE, RYE LANE, LONDON, SE15 5EW",534233,GREGGS,0.8,UNIT 8,-0.068681094,51.47273616,,AYLESHAM CENTRE,
105,126254,126254,,66,Peckham High Street,London,Greggs the bakers,Manufacturers/packers,7839,0,,362699,0,,51.473214,1086,528,food@southwark.gov.uk,Southwark,http://www.southwark.gov.uk/,-0.070891,SE15 5DP,13/01/2011,fhrs_5_en-GB,5,,FHRS,0,"Greggs the bakers, 66 Peckham High Street, London, SE15 5DP",LONDON,APPROVED,GOOD,PECKHAM HILL STREET,177062,2.00003E+11,1,SE15 5JY,"66, PECKHAM HILL STREET, LONDON, SE15 5JY",534130,,0.9,,-0.070000107,51.47662471,66,,
106,126256,126256,,60,Nunhead Lane,London,Gregsons pharmacy ltd,Retailers - other,4613,,,362837,,,51.464633,1249,528,food@southwark.gov.uk,Southwark,http://www.southwark.gov.uk/,-0.059865,SE15 3QE,17/07/2003,fhrs_exempt_en-GB,Exempt,,FHRS,,"Gregsons pharmacy ltd, 60 Nunhead Lane, London, SE15 3QE",LONDON,APPROVED,EXACT,NUNHEAD LANE,175728,2.00003E+11,1,SE15 3QE,"SHEEL PHARMACY, 60, NUNHEAD LANE, LONDON, SE15 3QE",534930,SHEEL PHARMACY,1,,-0.058996545,51.46444686,60,,
107,126264,126264,Unit C Astbury Business Park,,Astbury Road,London,Guidetti fine foods & wines,Importers/Exporters,14,10,,588927,5,,51.475812,183280,528,food@southwark.gov.uk,Southwark,http://www.southwark.gov.uk/,-0.055027,SE15 2NW,21/08/2013,fhrs_4_en-GB,4,,FHRS,5,"Guidetti fine foods & wines, Unit C Astbury Business Park, Astbury Road, London, SE15 2NW",LONDON,APPROVED,GOOD,ASTBURY ROAD,176946.69,2.00003E+11,1,SE15 2NW,"GUIDETTI FINE FOODS, UNIT C, ASTBURY BUSINESS PARK, ASTBURY ROAD, LONDON, SE15 2NW",535116,GUIDETTI FINE FOODS,0.8,ASTBURY BUSINESS PARK,-0.055855117,51.47535408,,,UNIT C
108,126271,126271,,60-62,Gibbon Road,London,H barry,Retailers - other,4613,5,,362865,5,,51.466568,1278,528,food@southwark.gov.uk,Southwark,http://www.southwark.gov.uk/,-0.051835,SE15 3XE,09/05/2013,fhrs_5_en-GB,5,,FHRS,5,"H barry, 60-62 Gibbon Road, London, SE15 3XE",LONDON,APPROVED,GOOD,GIBBON ROAD,175966,2.00003E+11,2,SE15 3XE,"60, GIBBON ROAD, LONDON, SE15 3XE",535421,,0.9,,-0.051841612,51.46646844,60,,
109,126275,126275,,111-113,Evelina Road,London,H.a smith & son,Retailers - other,4613,5,,364675,5,,51.466101,42007,528,food@southwark.gov.uk,Southwark,http://www.southwark.gov.uk/,-0.056707,SE15 3HB,13/11/2014,fhrs_4_en-GB,4,,FHRS,10,"H.a smith & son, 111-113, Evelina Road, London, SE15 3HB",LONDON,APPROVED,GOOD,EVELINA ROAD,175934,2.00003E+11,1,SE15 3HB,"111B, EVELINA ROAD, LONDON, SE15 3HB",535112,,0.9,111B,-0.056299507,51.46625467,,,
110,126278,126278,,143,Peckham High Street,London,Hagi vegetable & grocery,Retailers - other,4613,20,,363658,0,,51.474167,175844,528,food@southwark.gov.uk,Southwark,http://www.southwark.gov.uk/,-0.066488,SE15 5SL,14/04/2014,fhrs_1_en-GB,1,,FHRS,10,"Hagi vegetable & grocery, 143 Peckham High Street, London, SE15 5SL",LONDON,APPROVED,GOOD,PECKHAM HIGH STREET,176795,2.00003E+11,1,SE15 5SL,"HAGI VEG GROCERS, 143, PECKHAM HIGH STREET, LONDON, SE15 5SL",534365,HAGI VEG GROCERS,0.8,,-0.06671977,51.47416964,143,,
111,126280,126280,,174,Rye Lane,London,Haji baba halal meats,Retailers - other,4613,0,,714789,0,,51.467853,184478,528,food@southwark.gov.uk,Southwark,http://www.southwark.gov.uk/,-0.067518,SE15 4NB,28/10/2014,fhrs_5_en-GB,5,,FHRS,0,"Haji baba halal meats, 174 Rye Lane, London, SE15 4NB",LONDON,APPROVED,GOOD,RYE HILL PARK,175210,2.00003E+11,1,SE15 3JT,"174, RYE HILL PARK, LONDON, SE15 3JT",535195,,0.8,,-0.055381967,51.45972876,174,,
112,126317,126317,,59,Rye Lane,London,Harte's irish meat market,Retailers - other,4613,10,,363467,5,,51.471369,174373,528,food@southwark.gov.uk,Southwark,http://www.southwark.gov.uk/,-0.069169,SE15 5EX,14/04/2014,fhrs_3_en-GB,3,,FHRS,10,"Harte's irish meat market, 59 Rye Lane, London, SE15 5EX",LONDON,APPROVED,GOOD,RYE HILL PARK,175268,2.00003E+11,2,SE15 3JN,"59, RYE HILL PARK, LONDON, SE15 3JN",535207,,0.8,,-0.055187189,51.4602471,59,,
113,126320,126320,,156-158,Rye Lane,London,Hax international,Retailers - other,4613,10,,363613,10,,51.467853,175541,528,food@southwark.gov.uk,Southwark,http://www.southwark.gov.uk/,-0.067518,SE15 4NB,14/04/2014,fhrs_3_en-GB,3,,FHRS,10,"Hax international, 156-158, Rye Lane, London, SE15 4NB",LONDON,APPROVED,GOOD,RYE LANE,176202,2.00003E+11,1,SE15 4TL,"157-159, RYE LANE, LONDON, SE15 4TL",534331,,0.9,157-159,-0.067434238,51.46884877,,,
114,126340,126340,Highshore School,,Bellenden Road,London,Highshore school,School/college/university,7845,0,,364486,0,,51.471856,3155,528,food@southwark.gov.uk,Southwark,http://www.southwark.gov.uk/,-0.072532,SE15 5BB,19/07/2012,fhrs_5_en-GB,5,,FHRS,5,"Highshore school, Highshore School, Bellenden Road, London, SE15 5BB",LONDON,HISTORICAL,EXACT,BELLENDEN ROAD,176578,2.00003E+11,1,SE15 5BB,"HIGHSHORE SCHOOL, BELLENDEN ROAD, LONDON, SE15 5BB",533976,HIGHSHORE SCHOOL,1,,-0.072399627,51.47231175,,,
115,126354,126354,Unit 9 Aylesham Centre,,Rye Lane,,Holland & barrett ltd,Retailers - other,4613,5,,364015,0,,51.472746,1890,528,food@southwark.gov.uk,Southwark,http://www.southwark.gov.uk/,-0.068693,SE15 5EW,01/05/2007,fhrs_5_en-GB,5,,FHRS,0,"Holland & barrett ltd, Unit 9 Aylesham Centre, Rye Lane, SE15 5EW",LONDON,APPROVED,GOOD,RYE LANE,176632,2.00003E+11,1,SE15 5EW,"HOLLAND & BARRETT LTD, UNIT 9, AYLESHAM CENTRE, RYE LANE, LONDON, SE15 5EW",534233,HOLLAND & BARRETT LTD,0.8,UNIT 9,-0.068681094,51.47273616,,AYLESHAM CENTRE,
116,126357,126357,,115,Hollydale Road,London,Hollydale tavern,Pub/bar/nightclub,7843,10,,364145,5,,51.468976,2350,528,food@southwark.gov.uk,Southwark,http://www.southwark.gov.uk/,-0.056009,SE15 2TF,15/02/2011,fhrs_4_en-GB,4,,FHRS,5,"Hollydale tavern, 115 Hollydale Road, London, SE15 2TF",LONDON,APPROVED,EXACT,HOLLYDALE ROAD,176308,2.00003E+11,1,SE15 2TF,"HOLLYDALE TAVERN, 115, HOLLYDALE ROAD, LONDON, SE15 2TF",535103,HOLLYDALE TAVERN,1,,-0.056286164,51.46961771,115,,
117,126362,126362,,28,Ivanhoe Road,London,Hoopers,Pub/bar/nightclub,7843,10,,363005,5,,51.466227,138218,528,food@southwark.gov.uk,Southwark,http://www.southwark.gov.uk/,-0.079104,SE5 8DH,11/10/2011,fhrs_4_en-GB,4,,FHRS,5,"Hoopers, 28 Ivanhoe Road, London, SE5 8DH",LONDON,APPROVED,EXACT,IVANHOE ROAD,175831.45,10091664572,1,SE5 8DH,"28, IVANHOE ROAD, LONDON, SE5 8DH",533495.06,,1,,-0.079601755,51.46571648,28,,
118,126387,126387,,74,Rye Lane,London,Iceland frozen foods,Retailers - supermarkets/hypermarkets,7840,5,,364000,5,,51.470269,1861,528,food@southwark.gov.uk,Southwark,http://www.southwark.gov.uk/,-0.068985,SE15 5DQ,01/05/2007,fhrs_5_en-GB,5,,FHRS,5,"Iceland frozen foods, 74 Rye Lane, London, SE15 5DQ",LONDON,APPROVED,GOOD,RYE HILL PARK,175226,2.00003E+11,1,SE15 3JU,"74, RYE HILL PARK, LONDON, SE15 3JU",535148,,0.8,,-0.056051962,51.45988375,74,,
119,126390,126390,,7,Blenheim Grove,London,Il giardino restaurant,Restaurant/Cafe/Canteen,1,5,,364416,5,,51.469116,2968,528,food@southwark.gov.uk,Southwark,http://www.southwark.gov.uk/,-0.070488,SE15 4QS,30/08/2012,fhrs_5_en-GB,5,,FHRS,5,"Il giardino restaurant, 7 Blenheim Grove, London, SE15 4QS",LONDON,APPROVED,EXACT,BLENHEIM GROVE,176269,2.00003E+11,1,SE15 4QS,"IL GIARDINO RESTAURANT, 7, BLENHEIM GROVE, LONDON, SE15 4QS",534214,IL GIARDINO RESTAURANT,1,,-0.069092232,51.4694786,7,,
120,126393,126393,John Donne Primary School,,Woods Road,London,In house catering john donne primary school,Other catering premises,7841,5,,363890,5,,51.472599,178396,528,food@southwark.gov.uk,Southwark,http://www.southwark.gov.uk/,-0.060852,SE15 2SW,12/06/2013,fhrs_5_en-GB,5,,FHRS,0,"In house catering john donne primary school, John Donne Primary School, Woods Road, London, SE15 2SW",LONDON,APPROVED,GOOD,WOODS ROAD,176680,2.00003E+11,1,SE15 2SW,"JOHN DONNE PRIMARY SCHOOL, WOODS ROAD, LONDON, SE15 2SW",534743,JOHN DONNE PRIMARY SCHOOL,0.8,,-0.061324249,51.47304639,,,
121,126405,126405,,4,Station Way,London,Isatus kitchen,Restaurant/Cafe/Canteen,1,20,,364747,15,,51.469985,46883,528,food@southwark.gov.uk,Southwark,http://www.southwark.gov.uk/,-0.069227,SE15 4RX,14/01/2015,fhrs_1_en-GB,1,,FHRS,15,"Isatus kitchen, 4 Station Way, London, SE15 4RX",LONDON,APPROVED,GOOD,STATION WAY,176324,2.00003E+11,1,SE15 4RX,"2-4, STATION WAY, LONDON, SE15 4RX",534214,,0.9,02-Apr,-0.069071364,51.46997285,,,
122,126406,126406,,83,Peckham Road,London,Iss caterhouse,School/college/university,7845,0,,364066,0,,51.474265,21285,528,food@southwark.gov.uk,Southwark,http://www.southwark.gov.uk/,-0.079573,SE5 8UH,29/03/2012,fhrs_5_en-GB,5,,FHRS,0,"Iss caterhouse, 83 Peckham Road, London, SE5 8UH",LONDON,APPROVED,GOOD,WICKHAM ROAD,175505,1.00023E+11,1,SE4 1NH,"FIRST FLOOR FLAT, 83, WICKHAM ROAD, LONDON, SE4 1NH",536740,,0.8,,-0.03304313,51.46200893,83,,FIRST FLOOR FLAT
123,126414,126414,St James The Great School,,Peckham Road,London,Iss caterhouse,School/college/university,7845,0,,364484,0,,51.474366,3153,528,food@southwark.gov.uk,Southwark,http://www.southwark.gov.uk/,-0.073117,SE15 5LP,01/11/2011,fhrs_5_en-GB,5,,FHRS,5,"Iss caterhouse, St James The Great School, Peckham Road, London, SE15 5LP",LONDON,HISTORICAL,GOOD,PECKHAM ROAD,176803,10000812518,4,SE15 5LP,"ST. JAMES THE GREAT CATHOLIC PRIMARY SCHOOL, PECKHAM ROAD, LONDON, SE15 5LP",533920,ST. JAMES THE GREAT CATHOLIC PRIMARY SCHOOL,0.9,,-0.073120227,51.47434694,,,
124,126418,126418,St Johns And St Clements Prima,,Adys Road,London,Iss caterhouse ltd,School/college/university,7845,0,,363221,0,,51.463147,171591,528,food@southwark.gov.uk,Southwark,http://www.southwark.gov.uk/,-0.071747,SE15 4DY,23/06/2014,fhrs_5_en-GB,5,,FHRS,5,"Iss caterhouse ltd, St Johns And St Clements Prima, Adys Road, London, SE15 4DY",LONDON,APPROVED,GOOD,ADYS ROAD,175554,2.00003E+11,1,SE15 4DY,"ST. JOHNS & ST. CLEMENTS PRIMARY SCHOOL, ADYS ROAD, LONDON, SE15 4DY",534045,ST. JOHNS & ST. CLEMENTS PRIMARY SCHOOL,0.9,,-0.071794757,51.46309333,,,
125,126429,126429,,30,Choumert Road,London,Iya pupa,Retailers - other,4613,10,,654167,10,,51.468194,183241,528,food@southwark.gov.uk,Southwark,http://www.southwark.gov.uk/,-0.068554,SE15 4SE,24/03/2014,fhrs_3_en-GB,3,,FHRS,10,"Iya pupa, 30 Choumert Road, London, SE15 4SE",LONDON,APPROVED,GOOD,CHOUMERT ROAD,176125,2.00003E+11,1,SE15 4SE,"TESSAS BARGAIN, 30, CHOUMERT ROAD, LONDON, SE15 4SE",534245,TESSAS BARGAIN,0.8,,-0.068700839,51.46817721,30,,
126,126431,126431,,132,Rye Lane,London,J & j butchers,Retailers - other,4613,10,,364791,15,,51.469024,52198,528,food@southwark.gov.uk,Southwark,http://www.southwark.gov.uk/,-0.068174,SE15 4RZ,23/07/2014,fhrs_2_en-GB,2,,FHRS,10,"J & j butchers, 132 Rye Lane, London, SE15 4RZ",LONDON,APPROVED,EXACT,RYE LANE,176166,2.00003E+11,1,SE15 4RZ,"J & J BUTCHERS, 132, RYE LANE, LONDON, SE15 4RZ",534295,J & J BUTCHERS,1,,-0.067965878,51.4685338,132,,
127,126433,126433,,7C,Choumert Road,London,J & t fish & seafood,Retailers - other,4613,5,,364079,10,,51.468211,21640,528,food@southwark.gov.uk,Southwark,http://www.southwark.gov.uk/,-0.068496,SE15 4SE,05/11/2014,fhrs_3_en-GB,3,,FHRS,10,"J & t fish & seafood, 7C, Choumert Road, London, SE15 4SE",LONDON,APPROVED,GOOD,CHOUMERT ROAD,176098,10009801326,2,SE15 4SE,"J & T FISH, 7C, CHOUMERT ROAD, LONDON, SE15 4SE",534250,J & T FISH,0.8,7C,-0.068639146,51.46793339,,,
128,126434,126434,,131-133,Evelina Road,London,J f ayre ltd,Manufacturers/packers,7839,5,,364679,0,,51.466101,42020,528,food@southwark.gov.uk,Southwark,http://www.southwark.gov.uk/,-0.056707,SE15 3HB,02/12/2014,fhrs_4_en-GB,4,,FHRS,10,"J f ayre ltd, 131-133, Evelina Road, London, SE15 3HB",LONDON,APPROVED,EXACT,EVELINA ROAD,175904,2.00003E+11,1,SE15 3HB,"J F AYRE LTD, 131-133, EVELINA ROAD, LONDON, SE15 3HB",535074,J F AYRE LTD,1,131-133,-0.056857675,51.46599414,,,
129,126442,126442,,168,Rye Lane,London,Jaffa food store,Retailers - other,4613,10,,363993,5,,51.467853,1847,528,food@southwark.gov.uk,Southwark,http://www.southwark.gov.uk/,-0.067518,SE15 4NB,14/04/2014,fhrs_4_en-GB,4,,FHRS,0,"Jaffa food store, 168 Rye Lane, London, SE15 4NB",LONDON,APPROVED,GOOD,RYE LANE,176078.23,10090286043,2,SE15 4NB,"JAFFA FOODS, 168, RYE LANE, LONDON, SE15 4NB",534339.94,JAFFA FOODS,0.8,,-0.067352609,51.46773441,168,,
130,126446,126446,,207,Rye Lane,London,Jamaica spice ltd,Other catering premises,7841,10,,363823,10,,51.467685,177364,528,food@southwark.gov.uk,Southwark,http://www.southwark.gov.uk/,-0.066603,SE15 4TP,06/01/2015,fhrs_3_en-GB,3,,FHRS,10,"Jamaica spice ltd, 207 Rye Lane, London, SE15 4TP",LONDON,APPROVED,EXACT,RYE LANE,176073,2.00003E+11,1,SE15 4TP,"TASTY BAKERY, 207, RYE LANE, LONDON, SE15 4TP",534393,TASTY BAKERY,1,,-0.06659118,51.46767482,207,,
131,126458,126458,,27a,Peckham High Street,London,Jb's soul food,Takeaway/sandwich shop,7844,10,,654195,10,,51.473716,183884,528,food@southwark.gov.uk,Southwark,http://www.southwark.gov.uk/,-0.07241,SE15 5EB,10/03/2014,fhrs_4_en-GB,4,,FHRS,0,"Jb's soul food, 27a, Peckham High Street, London, SE15 5EB",LONDON,APPROVED,PARTIAL,PECKHAM HIGH STREET,176733,10091837438,1,SE15 5EB,"RAM JAM TAKEAWAY, 27A, PECKHAM HIGH STREET, LONDON, SE15 5EB",533972,RAM JAM TAKEAWAY,0.7,27A,-0.072398469,51.47370559,,,
132,126462,126462,,12,Station Way,London,Jenny's,Retailers - other,4613,5,,362839,0,,51.469985,125039,528,food@southwark.gov.uk,Southwark,http://www.southwark.gov.uk/,-0.069227,SE15 4RX,30/08/2012,fhrs_5_en-GB,5,,FHRS,0,"Jenny's, 12 Station Way, London, SE15 4RX",LONDON,APPROVED,GOOD,CLIFTON WAY,177083,2.00003E+11,1,SE15 2LG,"12, CLIFTON WAY, LONDON, SE15 2LG",535011,,0.9,,-0.057314033,51.47660405,12,,
133,126464,126464,,100,Evelina Road,London,Jerkiz caribbean cuisine,Restaurant/Cafe/Canteen,1,,,687781,,,51.466607,182979,528,food@southwark.gov.uk,Southwark,http://www.southwark.gov.uk/,-0.056326,SE15 3HL,06/08/2014,fhrs_5_en-GB,5,,FHRS,,"Jerkiz caribbean cuisine, 100 Evelina Road, London, SE15 3HL",LONDON,APPROVED,GOOD,EVELINA ROAD,175970,2.00003E+11,1,SE15 3HL,"NKEMS AFRICAN QUISINE, 100, EVELINA ROAD, LONDON, SE15 3HL",535098,NKEMS AFRICAN QUISINE,0.8,,-0.056487182,51.46658152,100,,
134,126478,126478,,137,Brayards Road,London,Julian supermarket,Retailers - other,4613,10,,421354,0,,51.469697,2171,528,food@southwark.gov.uk,Southwark,http://www.southwark.gov.uk/,-0.057735,SE15 2BX,14/02/2011,fhrs_4_en-GB,4,,FHRS,0,"Julian supermarket, 137 Brayards Road, London, SE15 2BX",LONDON,APPROVED,EXACT,BRAYARDS ROAD,176319,2.00003E+11,1,SE15 2BX,"JULIAN SUPERMARKET, 137, BRAYARDS ROAD, LONDON, SE15 2BX",535027,JULIAN SUPERMARKET,1,,-0.057375476,51.46973468,137,,
135,126486,126486,,146-150,Rye Lane,London,K & k butchers,Retailers - other,4613,20,,362764,15,,51.469024,1112,528,food@southwark.gov.uk,Southwark,http://www.southwark.gov.uk/,-0.068174,SE15 4RZ,06/01/2015,fhrs_1_en-GB,1,,FHRS,15,"K & k butchers, 146-150, Rye Lane, London, SE15 4RZ",LONDON,HISTORICAL,EXACT,RYE LANE,176137,2.00003E+11,1,SE15 4RZ,"K & K BUTCHERS, 146-150, RYE LANE, LONDON, SE15 4RZ",534308,K & K BUTCHERS,1,146-150,-0.067789843,51.46827011,,,
136,126493,126493,,,90-92 Rye Lane,London,K&a centre ltd,Retailers - other,4613,10,,365018,10,,51.469024,75180,528,food@southwark.gov.uk,Southwark,http://www.southwark.gov.uk/,-0.068174,SE15 4RZ,21/08/2014,fhrs_3_en-GB,3,,FHRS,10,"K&a centre ltd, 90-92 Rye Lane, London, SE15 4RZ",LONDON,APPROVED,EXACT,RYE LANE,176276,2.00003E+11,1,SE15 4RZ,"K & A FOODS, 90-92, RYE LANE, LONDON, SE15 4RZ",534254,K & A FOODS,1,90-92,-0.068514042,51.46953202,,,
137,126495,126495,John Kitchen Centre,22,Linden Grove,London,Kairos,Hospitals/Childcare/Caring Premises,5,5,,364738,5,,51.463226,46039,528,food@southwark.gov.uk,Southwark,http://www.southwark.gov.uk/,-0.059622,SE15 3LF,24/01/2013,fhrs_5_en-GB,5,,FHRS,5,"Kairos, John Kitchen Centre, 22 Linden Grove, London, SE15 3LF",LONDON,APPROVED,GOOD,LINDEN GROVE,170654,1.0002E+11,1,SE26 5PH,"22, LINDEN GROVE, LONDON, SE26 5PH",535534,,0.9,,-0.052247977,51.41870594,22,,
138,126501,126501,,19,Peckham High Street,London,Kam foh,Takeaway/sandwich shop,7844,5,,449256,5,,51.473716,181274,528,food@southwark.gov.uk,Southwark,http://www.southwark.gov.uk/,-0.07241,SE15 5EB,24/09/2013,fhrs_5_en-GB,5,,FHRS,0,"Kam foh, 19 Peckham High Street, London, SE15 5EB",LONDON,APPROVED,EXACT,PECKHAM HIGH STREET,176741,2.00003E+11,1,SE15 5EB,"KAM FOH, 19, PECKHAM HIGH STREET, LONDON, SE15 5EB",533955,KAM FOH,1,,-0.072640064,51.4737815,19,,
139,126502,126502,,44,Peckham Rye,London,Kapadokya,Takeaway/sandwich shop,7844,5,,363690,0,,51.465565,176071,528,food@southwark.gov.uk,Southwark,http://www.southwark.gov.uk/,-0.066722,SE15 4JR,30/08/2012,fhrs_5_en-GB,5,,FHRS,0,"Kapadokya, 44 Peckham Rye, London, SE15 4JR",LONDON,APPROVED,GOOD,PECKHAM RYE,175818,2.00003E+11,1,SE15 4JR,"KAPADOKYA FISH SHOP, 44, PECKHAM RYE, LONDON, SE15 4JR",534388,KAPADOKYA FISH SHOP,0.8,,-0.066759978,51.46538448,44,,
140,126505,126505,,18,Choumert Road,London,Kashmir grocers,Retailers - other,4613,20,,363994,15,,51.468211,1850,528,food@southwark.gov.uk,Southwark,http://www.southwark.gov.uk/,-0.068496,SE15 4SE,01/07/2014,fhrs_1_en-GB,1,,FHRS,10,"Kashmir grocers, 18 Choumert Road, London, SE15 4SE",LONDON,APPROVED,GOOD,CHOUMERT ROAD,176129,10091838253,1,SE15 4SE,"KASMIR GROCERS, 18-20, CHOUMERT ROAD, LONDON, SE15 4SE",534267,KASMIR GROCERS,0.8,18-20,-0.068382787,51.46820794,,,
141,126507,126507,,165,Peckham Hill Street,London,Katies,Takeaway/sandwich shop,7844,10,,363676,10,,51.474661,175982,528,food@southwark.gov.uk,Southwark,http://www.southwark.gov.uk/,-0.06867,SE15 5JZ,24/06/2014,fhrs_3_en-GB,3,,FHRS,5,"Katies, 165 Peckham Hill Street, London, SE15 5JZ",LONDON,APPROVED,EXACT,PECKHAM HILL STREET,176824,2.00003E+11,1,SE15 5JZ,"KATIES, 165, PECKHAM HILL STREET, LONDON, SE15 5JZ",534234,KATIES,1,,-0.068593829,51.47446131,165,,
142,126508,126508,,130,Peckham Hill Street,London,Katies kebab,Takeaway/sandwich shop,7844,5,,363656,5,,51.475275,175835,528,food@southwark.gov.uk,Southwark,http://www.southwark.gov.uk/,-0.06935,SE15 5JT,07/08/2013,fhrs_5_en-GB,5,,FHRS,5,"Katies kebab, 130 Peckham Hill Street, London, SE15 5JT",LONDON,APPROVED,GOOD,PECKHAM HILL STREET,176782,2.00003E+11,1,SE15 5JT,"KATIES KEBABS, 130, PECKHAM HILL STREET, LONDON, SE15 5JT",534210,KATIES KEBABS,0.8,,-0.068955127,51.47408957,130,,
143,126513,126513,,97,Azenby Road,London,Keerthanaa store,Retailers - other,4613,10,,364005,10,,51.469645,1867,528,food@southwark.gov.uk,Southwark,http://www.southwark.gov.uk/,-0.077521,SE15 5AJ,20/08/2013,fhrs_3_en-GB,3,,FHRS,10,"Keerthanaa store, 97 Azenby Road, London, SE15 5AJ",,,,,,,,,,,,,,,,,,
144,126517,126517,,32,Rye Lane,London,Kentucky fried chicken,Restaurant/Cafe/Canteen,1,0,,364414,0,,51.472256,2963,528,food@southwark.gov.uk,Southwark,http://www.southwark.gov.uk/,-0.070053,SE15 5BS,22/08/2012,fhrs_5_en-GB,5,,FHRS,0,"Kentucky fried chicken, 32 Rye Lane, London, SE15 5BS",LONDON,APPROVED,GOOD,RYE LANE,176524,2.00003E+11,1,SE15 5BS,"32-36, RYE LANE, LONDON, SE15 5BS",534137,,0.9,32-36,-0.070103435,51.47178837,,,
145,126523,126523,,208,Rye Lane,London,Kgf (kingdom gift centre),Retailers - other,4613,5,,363770,5,,51.466439,176868,528,food@southwark.gov.uk,Southwark,http://www.southwark.gov.uk/,-0.066325,SE15 4NL,25/02/2011,fhrs_5_en-GB,5,,FHRS,5,"Kgf (kingdom gift centre), 208 Rye Lane, London, SE15 4NL",,,,,,,,,,,,,,,,,,
146,126528,126528,,135,Rye Lane,London,Khan's bargain limited (grocery),Retailers - other,4613,10,,362724,10,,51.469866,110165,528,food@southwark.gov.uk,Southwark,http://www.southwark.gov.uk/,-0.068008,SE15 4ST,14/04/2014,fhrs_2_en-GB,2,,FHRS,15,"Khan's bargain limited (grocery), 135 Rye Lane, London, SE15 4ST",LONDON,APPROVED,EXACT,RYE LANE,176309,2.00003E+11,1,SE15 4ST,"KHANS BARGAIN LTD, 135, RYE LANE, LONDON, SE15 4ST",534340,KHANS BARGAIN LTD,1,,-0.06726411,51.46980818,135,,
147,126529,126529,,35,Peckham High Street,London,Khf,Restaurant/Cafe/Canteen,1,10,,364369,5,,51.473716,2842,528,food@southwark.gov.uk,Southwark,http://www.southwark.gov.uk/,-0.07241,SE15 5EB,11/09/2014,fhrs_4_en-GB,4,,FHRS,5,"Khf, 35 Peckham High Street, London, SE15 5EB",LONDON,APPROVED,EXACT,PECKHAM HIGH STREET,176722,2.00003E+11,1,SE15 5EB,"35, PECKHAM HIGH STREET, LONDON, SE15 5EB",534019,,1,,-0.071726321,51.47359562,35,,
148,126530,126530,,47,Peckham High Street,London,Kim lien,Retailers - other,4613,10,,542859,10,,51.473716,182291,528,food@southwark.gov.uk,Southwark,http://www.southwark.gov.uk/,-0.07241,SE15 5EB,14/04/2014,fhrs_4_en-GB,4,,FHRS,0,"Kim lien, 47 Peckham High Street, London, SE15 5EB",LONDON,APPROVED,GOOD,PECKHAM HIGH STREET,176715,2.00003E+11,1,SE15 5EB,"KIN LIEN MINI MARKET, 47, PECKHAM HIGH STREET, LONDON, SE15 5EB",534059,KIN LIEN MINI MARKET,0.8,,-0.071153388,51.47352325,47,,
149,126533,126533,,56,Gibbon Road,London,King valley fried chicken,Takeaway/sandwich shop,7844,0,,364549,0,,51.466568,3352,528,food@southwark.gov.uk,Southwark,http://www.southwark.gov.uk/,-0.051835,SE15 3XE,09/10/2012,fhrs_5_en-GB,5,,FHRS,5,"King valley fried chicken, 56 Gibbon Road, London, SE15 3XE",LONDON,APPROVED,GOOD,GILTON ROAD,172387,1.00022E+11,1,SE6 1PJ,"56, GILTON ROAD, LONDON, SE6 1PJ",539277,,0.9,,0.002226648,51.43337241,56,,
150,126546,126546,,119,Queens Road,London,Kitchen 54,Takeaway/sandwich shop,7844,10,,692072,10,,51.473961,184225,528,food@southwark.gov.uk,Southwark,http://www.southwark.gov.uk/,-0.059484,SE15 2EZ,23/07/2014,fhrs_3_en-GB,3,,FHRS,10,"Kitchen 54, 119 Queens Road, London, SE15 2EZ",LONDON,APPROVED,GOOD,QUEEN MARY ROAD,170912,1.00021E+11,1,SE19 3NL,"119, QUEEN MARY ROAD, LONDON, SE19 3NL",531931,,0.8,,-0.103936582,51.4218737,119,,
151,126548,126548,,92,Rye Lane,London,Kna food centre,Retailers - other,4613,0,,364002,0,,51.469024,1864,528,food@southwark.gov.uk,Southwark,http://www.southwark.gov.uk/,-0.068174,SE15 4RZ,14/04/2014,fhrs_4_en-GB,4,,FHRS,10,"Kna food centre, 92 Rye Lane, London, SE15 4RZ",LONDON,APPROVED,GOOD,RYE LANE,176276,2.00003E+11,1,SE15 4RZ,"K & A FOODS, 90-92, RYE LANE, LONDON, SE15 4RZ",534254,K & A FOODS,0.8,90-92,-0.068514042,51.46953202,,,
152,126554,126554,,127,Evelina Road,London,Kristal pharmacy,Retailers - other,4613,,,364678,,,51.466101,42019,528,food@southwark.gov.uk,Southwark,http://www.southwark.gov.uk/,-0.056707,SE15 3HB,21/04/2007,fhrs_exempt_en-GB,Exempt,,FHRS,,"Kristal pharmacy, 127 Evelina Road, London, SE15 3HB",LONDON,APPROVED,GOOD,EVELINA ROAD,175911,2.00003E+11,2,SE15 3HB,"KRISTALS PHARMACY, 127-129, EVELINA ROAD, LONDON, SE15 3HB",535078,KRISTALS PHARMACY,0.8,127-129,-0.056797454,51.46605609,,,
153,126556,126556,,5,Choumert Road,London,Krootown market,Retailers - other,4613,10,,467680,10,,51.468211,180608,528,food@southwark.gov.uk,Southwark,http://www.southwark.gov.uk/,-0.068496,SE15 4SE,25/10/2012,fhrs_3_en-GB,3,,FHRS,10,"Krootown market, 5 Choumert Road, London, SE15 4SE",LONDON,APPROVED,GOOD,CHOUMERT ROAD,176114,10090285281,1,SE15 4BG,"KROO TOWN, 5 THE MARKET, CHOUMERT ROAD, LONDON, SE15 4BG",534314,KROO TOWN,0.8,5 THE MARKET,-0.067712248,51.468062,,,
154,126560,126560,,74,Peckham High Street,London,Kumasi market,Retailers - other,4613,20,,363999,0,,51.473722,1860,528,food@southwark.gov.uk,Southwark,http://www.southwark.gov.uk/,-0.068436,SE15 5ED,14/04/2014,fhrs_1_en-GB,1,,FHRS,0,"Kumasi market, 74 Peckham High Street, London, SE15 5ED",LONDON,APPROVED,GOOD,PECKHAM HIGH STREET,176708,2.00003E+11,1,SE15 5ED,"FLAT A-B, 74, PECKHAM HIGH STREET, LONDON, SE15 5ED",534168,,0.9,,-0.069587573,51.47343453,74,,FLAT A-B
155,126601,126601,,48,Rye Lane,,Le petit jardin,Restaurant/Cafe/Canteen,1,5,,364845,5,,51.471164,55120,528,food@southwark.gov.uk,Southwark,http://www.southwark.gov.uk/,-0.069782,SE15 5BY,06/01/2009,fhrs_5_en-GB,5,,FHRS,5,"Le petit jardin, 48 Rye Lane, SE15 5BY",LONDON,APPROVED,GOOD,RYE LANE,176465,10000819121,2,SE15 5BY,"SKY ASSOCIATES LTD, RYE LANE MARKET, 48, RYE LANE, LONDON, SE15 5BY",534162,SKY ASSOCIATES LTD,0.8,RYE LANE MARKET,-0.069766087,51.47125225,48,,
156,126617,126617,,200,Rye Lane,London,Lerryn's,Restaurant/Cafe/Canteen,1,10,,665576,5,,51.467202,183763,528,food@southwark.gov.uk,Southwark,http://www.southwark.gov.uk/,-0.066768,SE15 4NF,06/05/2014,fhrs_3_en-GB,3,,FHRS,10,"Lerryn's, 200 Rye Lane, London, SE15 4NF",LONDON,APPROVED,GOOD,RYE LANE,175987,2.00003E+11,1,SE15 4NF,"LERRYNS CAFE, 200, RYE LANE, LONDON, SE15 4NF",534421,LERRYNS CAFE,0.8,,-0.066220998,51.46689535,200,,
157,126623,126623,,5,Bellenden Road,London,Lidl uk gmbh,Retailers - supermarkets/hypermarkets,7840,5,,364761,10,,51.472484,48914,528,food@southwark.gov.uk,Southwark,http://www.southwark.gov.uk/,-0.071325,SE15 5BA,17/04/2009,fhrs_3_en-GB,3,,FHRS,10,"Lidl uk gmbh, 5 Bellenden Road, London, SE15 5BA",LONDON,APPROVED,PARTIAL,BELLENDEN ROAD,176566,10000818823,1,SE15 5BA,"POUNDSTRETCHERS, 5, BELLENDEN ROAD, LONDON, SE15 5BA",534095,POUNDSTRETCHERS,0.7,,-0.070691854,51.47217575,5,,
158,126627,126627,Lime Tree House,2,Dundas Road,London,Lime tree house,Hospitals/Childcare/Caring Premises,5,5,,542844,0,,51.470272,182096,528,food@southwark.gov.uk,Southwark,http://www.southwark.gov.uk/,-0.0545,SE15 2DL,13/03/2013,fhrs_5_en-GB,5,,FHRS,0,"Lime tree house, Lime Tree House, 2 Dundas Road, London, SE15 2DL",LONDON,APPROVED,GOOD,DUNDALK ROAD,175701,1.00023E+11,1,SE4 2JL,"2, DUNDALK ROAD, LONDON, SE4 2JL",536082,,0.9,,-0.042433592,51.46392867,2,,
159,126632,126632,,165,Queens Road,London,Lions fried chicken,Takeaway/sandwich shop,7844,10,,365041,0,,51.473679,77933,528,food@southwark.gov.uk,Southwark,http://www.southwark.gov.uk/,-0.057091,SE15 2ND,23/01/2014,fhrs_4_en-GB,4,,FHRS,10,"Lions fried chicken, 165 Queens Road, London, SE15 2ND",LONDON,APPROVED,EXACT,QUEENS ROAD,176749,2.00003E+11,1,SE15 2ND,"165, QUEENS ROAD, LONDON, SE15 2ND",535062,,1,,-0.056707684,51.47359046,165,,
160,126638,126638,,59,Peckham High Street,London,Little hut,Retailers - other,4613,20,,362969,15,,51.473716,1365,528,food@southwark.gov.uk,Southwark,http://www.southwark.gov.uk/,-0.07241,SE15 5EB,14/04/2014,fhrs_1_en-GB,1,,FHRS,10,"Little hut, 59 Peckham High Street, London, SE15 5EB",LONDON,APPROVED,EXACT,PECKHAM HIGH STREET,176721,2.00003E+11,1,SE15 5EB,"LITTLE HUT, 59, PECKHAM HIGH STREET, LONDON, SE15 5EB",534098,LITTLE HUT,1,,-0.070589917,51.47356793,59,,
161,126639,126639,,60a,Amott Road,London,Little jungle nursery,Hospitals/Childcare/Caring Premises,5,5,,363882,5,,51.464093,178228,528,food@southwark.gov.uk,Southwark,http://www.southwark.gov.uk/,-0.070728,SE15 4JD,18/11/2014,fhrs_4_en-GB,4,,FHRS,10,"Little jungle nursery, 60a, Amott Road, London, SE15 4JD",LONDON,APPROVED,EXACT,AMOTT ROAD,175648,2.00003E+11,1,SE15 4JD,"LITTLE JUNGLE NURSERY, 60A, AMOTT ROAD, LONDON, SE15 4JD",534065,LITTLE JUNGLE NURSERY,1,60A,-0.071471417,51.46393332,,,
162,126646,126646,,281-283,Rye Lane,London,Little winners day nursery,Hospitals/Childcare/Caring Premises,5,5,,363408,5,,51.46589,173666,528,food@southwark.gov.uk,Southwark,http://www.southwark.gov.uk/,-0.0657,SE15 4UA,03/09/2014,fhrs_4_en-GB,4,,FHRS,10,"Little winners day nursery, 281-283, Rye Lane, London, SE15 4UA",LONDON,APPROVED,GOOD,RYE LANE,175888,10091837739,1,SE15 4UA,"LITTLE WINNERS NURSERY, 281-283, RYE LANE, LONDON, SE15 4UA",534453,LITTLE WINNERS NURSERY,0.9,281-283,-0.065798219,51.4659981,,,
163,126653,126653,,38,Choumert Road,London,Lolak,Restaurant/Cafe/Canteen,1,20,,363206,15,,51.468211,171423,528,food@southwark.gov.uk,Southwark,http://www.southwark.gov.uk/,-0.068496,SE15 4SE,18/12/2013,fhrs_1_en-GB,1,,FHRS,10,"Lolak, 38 Choumert Road, London, SE15 4SE",LONDON,APPROVED,PARTIAL,CHOUMERT ROAD,176118,2.00003E+11,1,SE15 4SE,"LODAK AFRIQUE RESTAURANT, 38-40, CHOUMERT ROAD, LONDON, SE15 4SE",534223,LODAK AFRIQUE RESTAURANT,0.7,38-40,-0.06902003,51.46811952,,,
164,126682,126682,,37,Peckham Road,London,London self storage centre,Distributors/Transporters,7,,,635637,,,51.474265,6066,528,food@southwark.gov.uk,Southwark,http://www.southwark.gov.uk/,-0.079573,SE5 8UH,29/01/2014,fhrs_exempt_en-GB,Exempt,,FHRS,,"London self storage centre, 37 Peckham Road, London, SE5 8UH",LONDON,HISTORICAL,PARTIAL,PECKHAM ROAD,176804,2.00003E+11,1,SE15 5LP,"DIVISIONAL SCHOOL CARE ORGANISER, PECKHAM ROAD, LONDON, SE15 5LP",533921,DIVISIONAL SCHOOL CARE ORGANISER,0.7,,-0.073105459,51.47435569,,,
165,126712,126712,,105,Peckham High Street,London,M manze,Restaurant/Cafe/Canteen,1,0,,364362,0,,51.473836,2829,528,food@southwark.gov.uk,Southwark,http://www.southwark.gov.uk/,-0.069309,SE15 5RS,06/01/2011,fhrs_5_en-GB,5,,FHRS,0,"M manze, 105 Peckham High Street, London, SE15 5RS",LONDON,APPROVED,GOOD,PECKHAM HIGH STREET,176774,2.00003E+11,1,SE15 5RS,"M MANZE PIE & MASH, 105, PECKHAM HIGH STREET, LONDON, SE15 5RS",534214,M MANZE PIE & MASH,0.8,,-0.068900604,51.47401673,105,,
166,126719,126719,,54,Linden Grove,London,Magic mind,Hospitals/Childcare/Caring Premises,5,5,,365092,5,,51.463226,89693,528,food@southwark.gov.uk,Southwark,http://www.southwark.gov.uk/,-0.059622,SE15 3LF,26/06/2014,fhrs_5_en-GB,5,,FHRS,5,"Magic mind, 54 Linden Grove, London, SE15 3LF",LONDON,APPROVED,EXACT,LINDEN GROVE,175510,2.00003E+11,1,SE15 3LF,"54, LINDEN GROVE, LONDON, SE15 3LF",534990,,1,,-0.058216506,51.46247354,54,,
167,126733,126733,,2,Nunhead Green,London,Man of kent,Pub/bar/nightclub,7843,10,,364162,5,,51.465307,2387,528,food@southwark.gov.uk,Southwark,http://www.southwark.gov.uk/,-0.058224,SE15 3QF,21/04/2007,fhrs_4_en-GB,4,,FHRS,5,"Man of kent, 2 Nunhead Green, London, SE15 3QF",LONDON,APPROVED,GOOD,NUNHEAD GREEN,175763,2.00003E+11,1,SE15 3QF,"MAN OF KENT, 2-4, NUNHEAD GREEN, LONDON, SE15 3QF",534950,MAN OF KENT,0.9,02-Apr,-0.058695463,51.46475662,,,
168,126737,126737,,145,Peckham High Street,London,Mango associates,Retailers - other,4613,20,,362904,10,,51.474167,130573,528,food@southwark.gov.uk,Southwark,http://www.southwark.gov.uk/,-0.066488,SE15 5SL,23/07/2014,fhrs_1_en-GB,1,,FHRS,15,"Mango associates, 145 Peckham High Street, London, SE15 5SL",LONDON,APPROVED,GOOD,PECKHAM HIGH STREET,176796,2.00003E+11,1,SE15 5SL,"MANGO ACCESSORIES, 145, PECKHAM HIGH STREET, LONDON, SE15 5SL",534369,MANGO ACCESSORIES,0.8,,-0.06666183,51.47417767,145,,
169,126738,126738,,149-151,Copeland Road,London,Mani caterers,Mobile caterer,7846,0,,363150,5,,51.469911,170507,528,food@southwark.gov.uk,Southwark,http://www.southwark.gov.uk/,-0.064162,SE15 3SN,26/02/2009,fhrs_5_en-GB,5,,FHRS,5,"Mani caterers, 149-151, Copeland Road, London, SE15 3SN",,,,,,,,,,,,,,,,,,
170,126744,126744,7 The Market,,Choumert Road,London,Marampa koya,Other catering premises,7841,10,,617537,10,,51.464881,183423,528,food@southwark.gov.uk,Southwark,http://www.southwark.gov.uk/,-0.07274,SE15 4BG,30/10/2014,fhrs_3_en-GB,3,,FHRS,10,"Marampa koya, 7 The Market, Choumert Road, London, SE15 4BG",LONDON,APPROVED,GOOD,CHOUMERT ROAD,176094,2.00003E+11,1,SE15 4SE,"7, CHOUMERT ROAD, LONDON, SE15 4SE",534262,,0.9,,-0.068468009,51.4678946,7,,
171,126760,126760,,147-149,Peckham Hill Street,London,Mason & white ltd,Retailers - other,4613,,,362815,,,51.474661,1220,528,food@southwark.gov.uk,Southwark,http://www.southwark.gov.uk/,-0.06867,SE15 5JZ,26/04/2007,fhrs_exempt_en-GB,Exempt,,FHRS,,"Mason & white ltd, 147-149, Peckham Hill Street, London, SE15 5JZ",LONDON,APPROVED,EXACT,PECKHAM HILL STREET,176869,2.00003E+11,1,SE15 5JZ,"LLOYDS PHARMACY, 147-149, PECKHAM HILL STREET, LONDON, SE15 5JZ",534221,LLOYDS PHARMACY,1,147-149,-0.068763819,51.47486878,,,
172,126768,126768,,26a,Peckham Rye,London,Mc neils,Takeaway/sandwich shop,7844,20,,692067,15,,51.465565,184202,528,food@southwark.gov.uk,Southwark,http://www.southwark.gov.uk/,-0.066722,SE15 4JR,03/06/2014,fhrs_1_en-GB,1,,FHRS,10,"Mc neils, 26a, Peckham Rye, London, SE15 4JR",LONDON,APPROVED,GOOD,PECKHAM RYE,175866.12,2.00003E+11,1,SE15 4JR,"MCNEILS, 26A, PECKHAM RYE, LONDON, SE15 4JR",534385.94,MCNEILS,0.8,26A,-0.066771338,51.46581739,,,
173,126769,126769,,72,Rye Lane,London,Mcdonalds,Restaurant/Cafe/Canteen,1,0,,363772,5,,51.470269,176873,528,food@southwark.gov.uk,Southwark,http://www.southwark.gov.uk/,-0.068985,SE15 5DQ,09/10/2013,fhrs_4_en-GB,4,,FHRS,10,"Mcdonalds, 72 Rye Lane, London, SE15 5DQ",LONDON,APPROVED,GOOD,RYE HILL PARK,175226,2.00003E+11,1,SE15 3JU,"72, RYE HILL PARK, LONDON, SE15 3JU",535148,,0.8,,-0.056051962,51.45988375,72,,
174,126788,126788,,261,Rye Lane,London,Mfc (mediterranean food centre),Retailers - supermarkets/hypermarkets,7840,10,,692036,10,,51.466599,183256,528,food@southwark.gov.uk,Southwark,http://www.southwark.gov.uk/,-0.06567,SE15 4UR,31/07/2014,fhrs_3_en-GB,3,,FHRS,10,"Mfc (mediterranean food centre), 261 Rye Lane, London, SE15 4UR",,,,,,,,,,,,,,,,,,
175,126792,126792,Unit 11 Print Village,58,Chadwick Road,London,Mighty fine kitchen ltd,Manufacturers/packers,7839,0,,692052,0,,51.467827,183918,528,food@southwark.gov.uk,Southwark,http://www.southwark.gov.uk/,-0.074127,SE15 4PU,19/06/2014,fhrs_4_en-GB,4,,FHRS,10,"Mighty fine kitchen ltd, Unit 11 Print Village, 58 Chadwick Road, London, SE15 4PU",LONDON,APPROVED,GOOD,CHADWICK ROAD,176110,10091837467,1,SE15 4PU,"HYPERDUB LTD, UNIT 11, PRINT VILLAGE, 58, CHADWICK ROAD, LONDON, SE15 4PU",533869,HYPERDUB LTD,0.9,PRINT VILLAGE,-0.074116397,51.46813141,58,,UNIT 11
176,126820,126820,,2a,Kirkwood Road,London,Monley's,Takeaway/sandwich shop,7844,10,,554963,0,,51.466971,182953,528,food@southwark.gov.uk,Southwark,http://www.southwark.gov.uk/,-0.058254,SE15 3XX,13/11/2014,fhrs_4_en-GB,4,,FHRS,0,"Monley's, 2a, Kirkwood Road, London, SE15 3XX",LONDON,APPROVED,GOOD,KIRKWOOD ROAD,175906,2.00003E+11,2,SE15 3XX,"MONLEYS CHICKEN, 2A, KIRKWOOD ROAD, LONDON, SE15 3XX",535021,MONLEYS CHICKEN,0.8,2A,-0.057619432,51.46602475,,,
177,126833,126833,,163,Rye Lane,London,Morleys fried chicken,Takeaway/sandwich shop,7844,20,,363942,20,,51.468604,179286,528,food@southwark.gov.uk,Southwark,http://www.southwark.gov.uk/,-0.067241,SE15 4TL,12/03/2014,fhrs_1_en-GB,1,,FHRS,10,"Morleys fried chicken, 163 Rye Lane, London, SE15 4TL",LONDON,HISTORICAL,PARTIAL,RYE LANE,176169,2.00003E+11,1,SE15 4TL,"163B, RYE LANE, LONDON, SE15 4TL",534354,,0.7,163B,-0.067115844,51.46854677,,,
178,126834,126834,,189,Queens Road,London,Morleys fried chicken,Takeaway/sandwich shop,7844,5,,364567,5,,51.473679,3420,528,food@southwark.gov.uk,Southwark,http://www.southwark.gov.uk/,-0.057091,SE15 2ND,13/08/2014,fhrs_5_en-GB,5,,FHRS,5,"Morleys fried chicken, 189 Queens Road, London, SE15 2ND",LONDON,APPROVED,EXACT,QUEENS ROAD,176736,2.00003E+11,1,SE15 2ND,"MORLEYS FRIED CHICKEN, 189, QUEENS ROAD, LONDON, SE15 2ND",535118,MORLEYS FRIED CHICKEN,1,,-0.055906837,51.47346028,189,,
179,126835,126835,,10,Peckham High Street,London,Morleys fried chicken,Takeaway/sandwich shop,7844,10,,635618,5,,51.473415,183399,528,food@southwark.gov.uk,Southwark,http://www.southwark.gov.uk/,-0.072697,SE15 5DT,11/02/2014,fhrs_4_en-GB,4,,FHRS,5,"Morleys fried chicken, 10 Peckham High Street, London, SE15 5DT",LONDON,APPROVED,EXACT,PECKHAM HIGH STREET,176710,2.00003E+11,1,SE15 5DT,"10, PECKHAM HIGH STREET, LONDON, SE15 5DT",533941,,1,,-0.072853261,51.47350624,10,,
180,126840,126840,Morrisons Petrol Station The,,Rye Lane,London,Morrisons,Retailers - supermarkets/hypermarkets,7840,5,,363594,5,,51.472746,175427,528,food@southwark.gov.uk,Southwark,http://www.southwark.gov.uk/,-0.068693,SE15 5EW,12/08/2010,fhrs_5_en-GB,5,,FHRS,5,"Morrisons, Morrisons Petrol Station The, Rye Lane, London, SE15 5EW",LONDON,APPROVED,PARTIAL,RYE LANE,176678,10009804746,2,SE15 5DW,"FLAT C, 1-2 CENTRAL BUILDINGS, RYE LANE, LONDON, SE15 5DW",534134,,0.7,1-2 CENTRAL BUILDINGS,-0.070088198,51.47317299,,,FLAT C
181,126841,126841,Unit 3 The Aylesham Centre,,Rye Lane,London,Morrisons,Retailers - supermarkets/hypermarkets,7840,0,,364536,0,,51.472746,3324,528,food@southwark.gov.uk,Southwark,http://www.southwark.gov.uk/,-0.068693,SE15 5EW,22/10/2010,fhrs_5_en-GB,5,,FHRS,0,"Morrisons, Unit 3 The Aylesham Centre, Rye Lane, London, SE15 5EW",LONDON,APPROVED,GOOD,RYE LANE,176632,2.00003E+11,1,SE15 5EW,"SPECSAVERS OPTICIANS, UNIT 3, AYLESHAM CENTRE, RYE LANE, LONDON, SE15 5EW",534233,SPECSAVERS OPTICIANS,0.8,UNIT 3,-0.068681094,51.47273616,,AYLESHAM CENTRE,
182,126878,126878,Unit 2,Dec-16,Blenheim Grove,London,Muana london,Restaurant/Cafe/Canteen,1,20,,449250,10,,51.469437,180936,528,food@southwark.gov.uk,Southwark,http://www.southwark.gov.uk/,-0.070302,SE15 4QL,23/07/2014,fhrs_1_en-GB,1,,FHRS,10,"Muana london, Unit 2, 12-16 Blenheim Grove, London, SE15 4QL",LONDON,APPROVED,EXACT,BLENHEIM GROVE,176297,2.00003E+11,1,SE15 4QL,"MUANA LONDON, UNIT 2, 12-16, BLENHEIM GROVE, LONDON, SE15 4QL",534204,MUANA LONDON,1,Dec-16,-0.069225493,51.46973259,,,UNIT 2
183,126922,126922,,52,Rye Lane,London,New london butchers,Retailers - other,4613,10,,665583,10,,51.471164,183952,528,food@southwark.gov.uk,Southwark,http://www.southwark.gov.uk/,-0.069782,SE15 5BY,27/05/2014,fhrs_2_en-GB,2,,FHRS,15,"New london butchers, 52 Rye Lane, London, SE15 5BY",LONDON,APPROVED,GOOD,RYE LANE,176454,2.00003E+11,1,SE15 5BY,"LONDON BUTCHERS LTD, 52, RYE LANE, LONDON, SE15 5BY",534162,LONDON BUTCHERS LTD,0.9,,-0.06977026,51.4711534,52,,
184,126924,126924,,176,Bellenden Road,London,New lotus king,Takeaway/sandwich shop,7844,20,,635633,15,,51.466859,183776,528,food@southwark.gov.uk,Southwark,http://www.southwark.gov.uk/,-0.073218,SE15 4BW,07/02/2014,fhrs_1_en-GB,1,,FHRS,15,"New lotus king, 176 Bellenden Road, London, SE15 4BW",LONDON,APPROVED,GOOD,BELLENDEN ROAD,176008,2.00003E+11,1,SE15 4BW,"LOTUS HOUSE TAKE AWAY, 176, BELLENDEN ROAD, LONDON, SE15 4BW",533960,LOTUS HOUSE TAKE AWAY,0.8,,-0.072845715,51.46719328,176,,
185,126944,126944,,2,Kirkwood Road,London,Nisa nunhead express,Retailers - other,4613,10,,364994,10,,51.466971,65580,528,food@southwark.gov.uk,Southwark,http://www.southwark.gov.uk/,-0.058254,SE15 3XX,03/04/2014,fhrs_3_en-GB,3,,FHRS,10,"Nisa nunhead express, 2 Kirkwood Road, London, SE15 3XX",LONDON,APPROVED,GOOD,KIRKWOOD ROAD,175905,2.00003E+11,1,SE15 3XX,"NUNHEAD EXPRESS, 2, KIRKWOOD ROAD, LONDON, SE15 3XX",535021,NUNHEAD EXPRESS,0.9,,-0.057619813,51.46601576,2,,
186,126947,126947,,67,Peckham Road,London,No67,Restaurant/Cafe/Canteen,1,10,,363809,10,,51.474304,177107,528,food@southwark.gov.uk,Southwark,http://www.southwark.gov.uk/,-0.079787,SE5 8UH,10/07/2012,fhrs_3_en-GB,3,,FHRS,10,"No67, 67 Peckham Road, London, SE5 8UH",LONDON,APPROVED,PARTIAL,PECKHAM ROAD,176772,2.00003E+11,2,SE5 8UH,"67, PECKHAM ROAD, LONDON, SE5 8UH",533469,,0.7,,-0.079621803,51.47417484,67,,
187,126948,126948,Buchan Tenants Hall,,Salisbury Terrace,London,Nolo buchans tenants  residents association,Other catering premises,7841,,,363803,,,51.46562382,177099,528,food@southwark.gov.uk,Southwark,http://www.southwark.gov.uk/,-0.053304927,,14/02/2011,fhrs_exempt_en-GB,Exempt,,FHRS,,"Nolo buchans tenants  residents association, Buchan Tenants Hall, Salisbury Terrace, London",LONDON,APPROVED,PARTIAL,CANTERBURY TERRACE,183233,202119969,2,NW6 5DX,"CARLTON HOUSE TENANTS & RESIDENTS HALL, CARLTON HOUSE, CANTERBURY TERRACE, LONDON, NW6 5DX",525003,CARLTON HOUSE TENANTS & RESIDENTS HALL,0.7,CARLTON HOUSE,-0.199166017,51.53417205,,,
188,126950,126950,,63,Peckham High Street,London,Noodle house,Restaurant/Cafe/Canteen,1,10,,363590,15,,51.473716,175419,528,food@southwark.gov.uk,Southwark,http://www.southwark.gov.uk/,-0.07241,SE15 5EB,12/09/2013,fhrs_2_en-GB,2,,FHRS,10,"Noodle house, 63 Peckham High Street, London, SE15 5EB",LONDON,APPROVED,EXACT,PECKHAM HIGH STREET,176719,2.00003E+11,1,SE15 5EB,"63, PECKHAM HIGH STREET, LONDON, SE15 5EB",534102,,1,,-0.070533116,51.47354901,63,,
189,126957,126957,,56,Nunhead Lane,London,Nunhead green community centre,Other catering premises,7841,5,,364059,10,,51.463807,2024,528,food@southwark.gov.uk,Southwark,http://www.southwark.gov.uk/,-0.061556,SE15 3TU,17/07/2003,fhrs_4_en-GB,4,,FHRS,0,"Nunhead green community centre, 56 Nunhead Lane, London, SE15 3TU",LONDON,APPROVED,PARTIAL,NUNHEAD LANE,175691,2.00003E+11,1,SE15 3TT,"5 NEW JAMES COURT, NUNHEAD LANE, LONDON, SE15 3TT",534735,,0.7,5 NEW JAMES COURT,-0.061816042,51.46416078,,,
190,126958,126958,,108,Evelina Road,London,Nunhead pound express,Retailers - other,4613,5,,363328,10,,51.466607,172678,528,food@southwark.gov.uk,Southwark,http://www.southwark.gov.uk/,-0.056326,SE15 3HL,13/10/2009,fhrs_4_en-GB,4,,FHRS,5,"Nunhead pound express, 108 Evelina Road, London, SE15 3HL",LONDON,APPROVED,GOOD,EVELINA ROAD,175954,2.00003E+11,1,SE15 3HL,"HAIR STYLE PLUS, 108, EVELINA ROAD, LONDON, SE15 3HL",535086,HAIR STYLE PLUS,0.8,,-0.056665939,51.4664406,108,,
191,126962,126962,,43A,Peckham High Street,London,O'bar/obalande suya,Restaurant/Cafe/Canteen,1,10,,364370,10,,51.473716,2843,528,food@southwark.gov.uk,Southwark,http://www.southwark.gov.uk/,-0.07241,SE15 5EB,14/08/2012,fhrs_3_en-GB,3,,FHRS,10,"O'bar/obalande suya, 43A, Peckham High Street, London, SE15 5EB",LONDON,APPROVED,PARTIAL,PECKHAM HIGH STREET,176740,2.00003E+11,1,SE15 5EB,"JESUS CARES INTERNATIONAL, 43A, PECKHAM HIGH STREET, LONDON, SE15 5EB",534042,JESUS CARES INTERNATIONAL,0.7,43A,-0.071388536,51.47375193,,,
192,126977,126977,The Old Nuns Head,15,Nunhead Green,London,Old nuns head,Pub/bar/nightclub,7843,20,,729162,15,,51.465286,184938,528,food@southwark.gov.uk,Southwark,http://www.southwark.gov.uk/,-0.05965,SE15 3QQ,04/11/2014,fhrs_1_en-GB,1,,FHRS,15,"Old nuns head, The Old Nuns Head, 15 Nunhead Green, London, SE15 3QQ",LONDON,APPROVED,GOOD,NUNHEAD GREEN,175819,2.00003E+11,1,SE15 3QQ,"OLD NUNS HEAD, 15, NUNHEAD GREEN, LONDON, SE15 3QQ",534883,OLD NUNS HEAD,0.9,,-0.05963803,51.46527581,15,,
193,127003,127003,,90,Astbury Road,London,Ownlife ltd,Hospitals/Childcare/Caring Premises,5,5,,364839,5,,51.475812,54357,528,food@southwark.gov.uk,Southwark,http://www.southwark.gov.uk/,-0.055027,SE15 2NW,19/01/2006,fhrs_5_en-GB,5,,FHRS,5,"Ownlife ltd, 90 Astbury Road, London, SE15 2NW",LONDON,APPROVED,GOOD,ASTBURY ROAD,176998,2.00003E+11,1,SE15 2NW,"90, ASTBURY ROAD, LONDON, SE15 2NW",535188,,0.9,,-0.054799415,51.47579799,90,,
194,127007,127007,,192A,Rye Lane,London,Ozzies cafe,Restaurant/Cafe/Canteen,1,10,,362681,0,,51.467136,107665,528,food@southwark.gov.uk,Southwark,http://www.southwark.gov.uk/,-0.066583,SE15 4NF,22/10/2014,fhrs_4_en-GB,4,,FHRS,10,"Ozzies cafe, 192A, Rye Lane, London, SE15 4NF",LONDON,APPROVED,GOOD,RYE LANE,176005,2.00003E+11,1,SE15 4NF,"OZZIES COFFEE SHOP, 192A, RYE LANE, LONDON, SE15 4NF",534404,OZZIES COFFEE SHOP,0.9,192A,-0.066458748,51.46706114,,,
195,127012,127012,Unit 14 The Aylesham Centre,,Rye Lane,London,Pak butchers (peckham) limited,Retailers - other,4613,20,,364862,10,,51.472746,56499,528,food@southwark.gov.uk,Southwark,http://www.southwark.gov.uk/,-0.068693,SE15 5EW,25/09/2014,fhrs_1_en-GB,1,,FHRS,15,"Pak butchers (peckham) limited, Unit 14 The Aylesham Centre, Rye Lane, London, SE15 5EW",LONDON,APPROVED,GOOD,RYE LANE,176632,2.00003E+11,1,SE15 5EW,"PAK BUTCHERS (PECKHAM) LTD, UNIT 14, AYLESHAM CENTRE, RYE LANE, LONDON, SE15 5EW",534233,PAK BUTCHERS (PECKHAM) LTD,0.8,UNIT 14,-0.068681094,51.47273616,,AYLESHAM CENTRE,
196,127013,127013,,22,Gibbon Road,London,Palace chinese,Takeaway/sandwich shop,7844,5,,364546,5,,51.468035,3347,528,food@southwark.gov.uk,Southwark,http://www.southwark.gov.uk/,-0.052406,SE15 2AS,22/07/2013,fhrs_4_en-GB,4,,FHRS,10,"Palace chinese, 22 Gibbon Road, London, SE15 2AS",LONDON,APPROVED,EXACT,GIBBON ROAD,176142,2.00003E+11,1,SE15 2AS,"22, GIBBON ROAD, LONDON, SE15 2AS",535375,,1,,-0.05243608,51.46806103,22,,
197,127032,127032,,121-125,Peckham High Street,London,Payless,Retailers - other,4613,10,,362658,5,,51.474134,106820,528,food@southwark.gov.uk,Southwark,http://www.southwark.gov.uk/,-0.067771,SE15 5SF,14/04/2014,fhrs_4_en-GB,4,,FHRS,0,"Payless, 121-125, Peckham High Street, London, SE15 5SF",LONDON,APPROVED,GOOD,PECKHAM HIGH STREET,176788,10091838110,1,SE15 5SL,"PAYLESS SUPERMARKET, 121-125, PECKHAM HIGH STREET, LONDON, SE15 5SL",534293,PAYLESS SUPERMARKET,0.8,121-125,-0.067758495,51.47412381,,,
198,127033,127033,,94-96,Peckham Road,London,Payless,Retailers - supermarkets/hypermarkets,7840,10,,363953,15,,51.473999,179465,528,food@southwark.gov.uk,Southwark,http://www.southwark.gov.uk/,-0.07705,SE15 5PY,22/01/2015,fhrs_2_en-GB,2,,FHRS,5,"Payless, 94-96 Peckham Road, London, SE15 5PY",LONDON,APPROVED,GOOD,WICKHAM ROAD,175458,1.00022E+11,1,SE4 1NH,"95, WICKHAM ROAD, LONDON, SE4 1NH",536720,,0.8,,-0.033349001,51.4615914,95,,
199,127036,127036,,176,Peckham High Street,London,Payless food and wine,Retailers - other,4613,20,,363282,0,,51.473707,172186,528,food@southwark.gov.uk,Southwark,http://www.southwark.gov.uk/,-0.065326,SE15 5EG,14/08/2012,fhrs_1_en-GB,1,,FHRS,10,"Payless food and wine, 176 Peckham High Street, London, SE15 5EG",LONDON,APPROVED,EXACT,PECKHAM HIGH STREET,176745,2.00003E+11,1,SE15 5EG,"PAYLESS FOOD & WINE, 176, PECKHAM HIGH STREET, LONDON, SE15 5EG",534464,PAYLESS FOOD & WINE,1,,-0.06531419,51.47369682,176,,
200,127038,127038,,10-Dec,Gibbon Road,London,Payless supermarket,Retailers - other,4613,10,,362659,10,,51.468035,106887,528,food@southwark.gov.uk,Southwark,http://www.southwark.gov.uk/,-0.052406,SE15 2AS,03/11/2010,fhrs_3_en-GB,3,,FHRS,5,"Payless supermarket, 10-12 Gibbon Road, London, SE15 2AS",LONDON,APPROVED,GOOD,GIBBON ROAD,176167,2.00003E+11,1,SE15 2AS,"10, GIBBON ROAD, LONDON, SE15 2AS",535355,,0.9,,-0.052714271,51.46829047,10,,
201,127040,127040,,64,Rye Lane,London,Peckham afro foods ltd,Retailers - other,4613,10,,363972,10,,51.471164,180247,528,food@southwark.gov.uk,Southwark,http://www.southwark.gov.uk/,-0.069782,SE15 5BY,16/04/2014,fhrs_3_en-GB,3,,FHRS,10,"Peckham afro foods ltd, 64 Rye Lane, London, SE15 5BY",LONDON,APPROVED,EXACT,RYE LANE,176423,2.00003E+11,1,SE15 5BY,"AFRO FOODS, 64, RYE LANE, LONDON, SE15 5BY",534173,AFRO FOODS,1,,-0.069623741,51.47087222,64,,
202,127041,127041,,71-73,Rye Lane,London,Peckham afro foods ltd,Retailers - other,4613,10,,542871,10,,51.471369,182512,528,food@southwark.gov.uk,Southwark,http://www.southwark.gov.uk/,-0.069169,SE15 5EX,14/04/2014,fhrs_3_en-GB,3,,FHRS,10,"Peckham afro foods ltd, 71-73 Rye Lane, London, SE15 5EX",LONDON,APPROVED,EXACT,RYE LANE,176478,2.00003E+11,1,SE15 5EX,"PECKHAM AFRO FOODS, 71-73, RYE LANE, LONDON, SE15 5EX",534204,PECKHAM AFRO FOODS,1,71-73,-0.06915682,51.47135913,,,
203,127042,127042,,50,Rye Lane,London,Peckham greengrocers,Retailers - other,4613,0,,363044,0,,51.471164,1413,528,food@southwark.gov.uk,Southwark,http://www.southwark.gov.uk/,-0.069782,SE15 5BY,14/04/2014,fhrs_4_en-GB,4,,FHRS,10,"Peckham greengrocers, 50 Rye Lane, London, SE15 5BY",LONDON,APPROVED,EXACT,RYE LANE,176458,2.00003E+11,1,SE15 5BY,"PECKHAM GREENGROCERS, 50, RYE LANE, LONDON, SE15 5BY",534161,PECKHAM GREENGROCERS,1,,-0.069783131,51.47118959,50,,
204,127043,127043,,24,Elm Grove,London,Peckham liberal club,Pub/bar/nightclub,7843,10,,364669,5,,51.470788,41748,528,food@southwark.gov.uk,Southwark,http://www.southwark.gov.uk/,-0.071008,SE15 5DE,09/05/2013,fhrs_4_en-GB,4,,FHRS,5,"Peckham liberal club, 24 Elm Grove, London, SE15 5DE",LONDON,APPROVED,EXACT,ELM GROVE,176410,2.00003E+11,1,SE15 5DE,"PECKHAM LIBERAL CLUB, 24, ELM GROVE, LONDON, SE15 5DE",534078,PECKHAM LIBERAL CLUB,1,,-0.070995606,51.47077789,24,,
205,127045,127045,Unit 4,Dec-16,Blenheim Grove,London,Peckham refreshment rooms,Restaurant/Cafe/Canteen,1,10,,554959,10,,51.469437,182670,528,food@southwark.gov.uk,Southwark,http://www.southwark.gov.uk/,-0.070302,SE15 4QL,22/01/2015,fhrs_3_en-GB,3,,FHRS,10,"Peckham refreshment rooms, Unit 4, 12-16 Blenheim Grove, London, SE15 4QL",LONDON,APPROVED,PARTIAL,BLENHEIM GROVE,176238,2.00003E+11,2,SE15 4QS,"ALL SAINTS VICARAGE, BLENHEIM GROVE, LONDON, SE15 4QS",534202,,0.7,ALL SAINTS VICARAGE,-0.069276653,51.46920286,,,
206,127046,127046,,95A,Rye Lane,London,Peckhamplex,Other catering premises,7841,10,,421379,0,,51.469866,43521,528,food@southwark.gov.uk,Southwark,http://www.southwark.gov.uk/,-0.068008,SE15 4ST,22/08/2012,fhrs_4_en-GB,4,,FHRS,0,"Peckhamplex, 95A, Rye Lane, London, SE15 4ST",LONDON,APPROVED,PARTIAL,RYE LANE,176444,2.00003E+11,1,SE15 4ST,"PREMIER CINEMA, 95A, RYE LANE, LONDON, SE15 4ST",534227,PREMIER CINEMA,0.7,95A,-0.068838777,51.47104814,,,
207,127053,127053,,28,Peckham High Street,London,Persepolis - taste of persia,Retailers - other,4613,10,,364810,0,,51.473393,53346,528,food@southwark.gov.uk,Southwark,http://www.southwark.gov.uk/,-0.072453,SE15 5DT,12/10/2010,fhrs_4_en-GB,4,,FHRS,0,"Persepolis - taste of persia, 28 Peckham High Street, London, SE15 5DT",LONDON,APPROVED,GOOD,PECKHAM HIGH STREET,176693,2.00003E+11,1,SE15 5DT,"PERSEOPOLIS FOOD, 28-30, PECKHAM HIGH STREET, LONDON, SE15 5DT",534010,PERSEOPOLIS FOOD,0.8,28-30,-0.071866817,51.47333714,,,
208,127058,127058,,63,Choumert Road,London,Petitou,Restaurant/Cafe/Canteen,1,5,,364786,0,,51.46755,51426,528,food@southwark.gov.uk,Southwark,http://www.southwark.gov.uk/,-0.070986,SE15 4AR,31/08/2012,fhrs_5_en-GB,5,,FHRS,0,"Petitou, 63 Choumert Road, London, SE15 4AR",LONDON,APPROVED,GOOD,CHOUMERT ROAD,176035,2.00003E+11,1,SE15 4AR,"PETITOU CAFE, 63, CHOUMERT ROAD, LONDON, SE15 4AR",534045,PETITOU CAFE,0.8,,-0.071612534,51.4674158,63,,
209,127072,127072,,38,Shenley Road,London,Pished fish smokery,Other catering premises,7841,5,,733883,5,,51.472515,184739,528,food@southwark.gov.uk,Southwark,http://www.southwark.gov.uk/,-0.080927,SE5 8NN,12/01/2015,fhrs_4_en-GB,4,,FHRS,10,"Pished fish smokery, 38 Shenley Road, London, SE5 8NN",LONDON,APPROVED,EXACT,SHENLEY ROAD,176572,2.00003E+11,1,SE5 8NN,"38, SHENLEY ROAD, LONDON, SE5 8NN",533387,,1,,-0.080877209,51.47239687,38,,
210,127098,127098,,131,Queens Road,London,Pound time plus,Retailers - other,4613,10,,542870,0,,51.475145,182511,528,food@southwark.gov.uk,Southwark,http://www.southwark.gov.uk/,-0.058728,SE15 2NB,15/03/2013,fhrs_4_en-GB,4,,FHRS,0,"Pound time plus, 131 Queens Road, London, SE15 2NB",LONDON,HISTORICAL,GOOD,QUEENS ROAD,176764,2.00003E+11,1,SE15 2ND,"131A-131B, QUEENS ROAD, LONDON, SE15 2ND",534931,,0.9,131A-131B,-0.058586994,51.47375648,,,
211,127101,127101,Unit 5-13 The Aylesham Centre,,Rye Lane,London,Poundland,Retailers - other,4613,0,,449228,0,,51.472746,176955,528,food@southwark.gov.uk,Southwark,http://www.southwark.gov.uk/,-0.068693,SE15 5EW,24/08/2012,fhrs_5_en-GB,5,,FHRS,5,"Poundland, Unit 5-13 The Aylesham Centre, Rye Lane, London, SE15 5EW",LONDON,APPROVED,PARTIAL,RYE LANE,176632,2.00003E+11,1,SE15 5EW,"HOLLAND & BARRETT LTD, UNIT 9, AYLESHAM CENTRE, RYE LANE, LONDON, SE15 5EW",534233,HOLLAND & BARRETT LTD,0.7,UNIT 9,-0.068681094,51.47273616,,AYLESHAM CENTRE,
212,127102,127102,Unit 1 To 2 Bellenden Road Bu,,Bellenden Road,London,Poundstretcher ltd,Retailers - other,4613,5,,421381,0,,51.46886,50439,528,food@southwark.gov.uk,Southwark,http://www.southwark.gov.uk/,-0.072989,SE15 4RF,02/02/2011,fhrs_5_en-GB,5,,FHRS,5,"Poundstretcher ltd, Unit 1 To 2 Bellenden Road Bu, Bellenden Road, London, SE15 4RF",LONDON,APPROVED,GOOD,BELLENDEN ROAD,176222,2.00003E+11,2,SE15 4RF,"UNIT 1, BELLENDEN ROAD BUSINESS CENTRE, BELLENDEN ROAD, LONDON, SE15 4RF",533930,,0.8,BELLENDEN ROAD BUSINESS CENTRE,-0.073196329,51.46912347,,,UNIT 1
213,127122,127122,,12,Peckham High Street,London,Price cutter food & wine,Retailers - other,4613,5,,363757,5,,51.473393,176724,528,food@southwark.gov.uk,Southwark,http://www.southwark.gov.uk/,-0.072453,SE15 5DT,03/02/2011,fhrs_5_en-GB,5,,FHRS,5,"Price cutter food & wine, 12 Peckham High Street, London, SE15 5DT",LONDON,APPROVED,PARTIAL,PECKHAM HIGH STREET,176704,10013529700,1,SE15 5DT,"FLAT B, 12, PECKHAM HIGH STREET, LONDON, SE15 5DT",533946,,0.7,,-0.072783586,51.47345114,12,,FLAT B
214,127123,127123,,51-57,Rye Lane,London,Primark,Retailers - other,4613,,,433579,,,51.471885,21632,528,food@southwark.gov.uk,Southwark,http://www.southwark.gov.uk/,-0.069349,SE15 5EY,21/11/2011,fhrs_exempt_en-GB,Exempt,,FHRS,,"Primark, 51-57 Rye Lane, London, SE15 5EY",LONDON,APPROVED,GOOD,PECKHAM RYE,175666,2.00003E+11,1,SE15 3NX,"51, PECKHAM RYE, LONDON, SE15 3NX",534512,,0.8,,-0.065033768,51.46398912,51,,
215,127124,127124,,111,Bellenden Road,London,Prince albert,Pub/bar/nightclub,7843,10,,364146,0,,51.467913,2353,528,food@southwark.gov.uk,Southwark,http://www.southwark.gov.uk/,-0.072281,SE15 4QY,16/04/2007,fhrs_4_en-GB,4,,FHRS,0,"Prince albert, 111 Bellenden Road, London, SE15 4QY",LONDON,APPROVED,EXACT,BELLENDEN ROAD,176128,2.00003E+11,1,SE15 4QY,"PRINCE ALBERT, 111, BELLENDEN ROAD, LONDON, SE15 4QY",533998,PRINCE ALBERT,1,,-0.072253532,51.46826266,111,,
216,127137,127137,,39,Nunhead Green,London,Pyrotechnist arms,Pub/bar/nightclub,7843,10,,729152,10,,51.465307,184801,528,food@southwark.gov.uk,Southwark,http://www.southwark.gov.uk/,-0.058224,SE15 3QF,05/11/2014,fhrs_3_en-GB,3,,FHRS,10,"Pyrotechnist arms, 39 Nunhead Green, London, SE15 3QF",LONDON,APPROVED,GOOD,NUNHEAD GREEN,175909,2.00003E+11,1,SE15 3QF,"THE PYROTECHNISTS, 39, NUNHEAD GREEN, LONDON, SE15 3QF",534980,THE PYROTECHNISTS,0.8,,-0.058208162,51.46606148,39,,
217,127143,127143,,2b,Kings Grove,London,Queen's coffee bar,Restaurant/Cafe/Canteen,1,,,363820,,,51.475145,177348,528,food@southwark.gov.uk,Southwark,http://www.southwark.gov.uk/,-0.058728,SE15 2NB,29/05/2014,fhrs_5_en-GB,5,,FHRS,,"Queen's coffee bar, 2b, Kings Grove, London, SE15 2NB",LONDON,HISTORICAL,GOOD,KINGS GROVE,176776,2.00003E+11,1,SE15 2NB,"QUEENS COFFEE BAR, 2B, KINGS GROVE, LONDON, SE15 2NB",534912,QUEENS COFFEE BAR,0.9,2B,-0.058855819,51.47386884,,,
218,127144,127144,,23-25,Peckham High Street,London,Queens kitchen,Takeaway/sandwich shop,7844,10,,362637,10,,51.473716,105858,528,food@southwark.gov.uk,Southwark,http://www.southwark.gov.uk/,-0.07241,SE15 5EB,17/10/2014,fhrs_2_en-GB,2,,FHRS,15,"Queens kitchen, 23-25 Peckham High Street, London, SE15 5EB",LONDON,APPROVED,GOOD,PECKHAM HIGH STREET,176737,2.00003E+11,1,SE15 5EB,"QUEENS KITCHEN, 23, PECKHAM HIGH STREET, LONDON, SE15 5EB",533962,QUEENS KITCHEN,0.9,,-0.072540851,51.4737439,23,,
219,127145,127145,,64-72,Queens Road,London,Queens oak care centre,Hospitals/Childcare/Caring Premises,5,5,,363087,5,,51.473535,15063,528,food@southwark.gov.uk,Southwark,http://www.southwark.gov.uk/,-0.060337,SE15 2QL,21/01/2014,fhrs_5_en-GB,5,,FHRS,5,"Queens oak care centre, 64-72 Queens Road, London, SE15 2QL",LONDON,APPROVED,EXACT,QUEENS ROAD,176735,2.00003E+11,1,SE15 2QL,"QUEENS OAK CARE CENTRE, 64-72, QUEENS ROAD, LONDON, SE15 2QL",534811,QUEENS OAK CARE CENTRE,1,64-72,-0.060324804,51.47352446,,,
220,127148,127148,,62,Nunhead Lane,London,R c patel,Retailers - other,4613,5,,363053,5,,51.464633,1422,528,food@southwark.gov.uk,Southwark,http://www.southwark.gov.uk/,-0.059865,SE15 3QE,29/02/2012,fhrs_5_en-GB,5,,FHRS,0,"R c patel, 62 Nunhead Lane, London, SE15 3QE",LONDON,APPROVED,EXACT,NUNHEAD LANE,175731,2.00003E+11,1,SE15 3QE,"62, NUNHEAD LANE, LONDON, SE15 3QE",534935,,1,,-0.058923467,51.46447263,62,,
221,127151,127151,Baptist Church,,Amott Road,London,Rainbow breakfast and after school club,Hospitals/Childcare/Caring Premises,5,10,,363073,0,,51.463914,1458,528,food@southwark.gov.uk,Southwark,http://www.southwark.gov.uk/,-0.070247,SE15 4HU,13/09/2012,fhrs_4_en-GB,4,,FHRS,5,"Rainbow breakfast and after school club, Baptist Church, Amott Road, London, SE15 4HU",LONDON,APPROVED,PARTIAL,AMOTT ROAD,175598,2.00003E+11,1,SE15 4HU,"AMOTT ROAD BAPTIST CHURCH, AMOTT ROAD, LONDON, SE15 4HU",534047,AMOTT ROAD BAPTIST CHURCH,0.7,,-0.071749317,51.46348826,,,
222,127156,127156,,157-159,Peckham Hill Street,London,Rakhs news,Retailers - other,4613,10,,362967,5,,51.474661,1363,528,food@southwark.gov.uk,Southwark,http://www.southwark.gov.uk/,-0.06867,SE15 5JZ,13/01/2011,fhrs_4_en-GB,4,,FHRS,5,"Rakhs news, 157-159, Peckham Hill Street, London, SE15 5JZ",LONDON,APPROVED,GOOD,PECKHAM HILL STREET,176844,2.00003E+11,1,SE15 5JZ,"RAKIS NEWS, 157-159, PECKHAM HILL STREET, LONDON, SE15 5JZ",534229,RAKIS NEWS,0.8,157-159,-0.068658188,51.47464222,,,
223,127165,127165,Red Cow,190-192,Peckham High Street,London,Red cow,Pub/bar/nightclub,7843,10,,363881,10,,51.473707,178213,528,food@southwark.gov.uk,Southwark,http://www.southwark.gov.uk/,-0.065326,SE15 5EG,31/10/2011,fhrs_2_en-GB,2,,FHRS,15,"Red cow, Red Cow, 190-192, Peckham High Street, London, SE15 5EG",LONDON,APPROVED,GOOD,PECKHAM HIGH STREET,176748,2.00003E+11,2,SE15 5EG,"THE RED COW, 188-190, PECKHAM HIGH STREET, LONDON, SE15 5EG",534545,THE RED COW,0.9,188-190,-0.064147487,51.47370454,,,
224,127192,127192,The Peckham Hill Street Surger,143-145,Peckham Hill Street,London,Rising stars nursery,Hospitals/Childcare/Caring Premises,5,10,,729115,5,,51.474707,184010,528,food@southwark.gov.uk,Southwark,http://www.southwark.gov.uk/,-0.068682,SE15 5JZ,11/04/2014,fhrs_4_en-GB,4,,FHRS,5,"Rising stars nursery, The Peckham Hill Street Surger, 143-145, Peckham Hill Street, London, SE15 5JZ",LONDON,APPROVED,GOOD,PECKHAM HILL STREET,176880,2.00003E+11,1,SE15 5JZ,"RISING STARS NURSERY, 143-145, PECKHAM HILL STREET, LONDON, SE15 5JZ",534222,RISING STARS NURSERY,0.9,143-145,-0.068745254,51.47496739,,,
225,127195,127195,,146-150,Rye Lane,London,Rnr green grocers,Retailers - other,4613,5,,363377,5,,51.469024,173378,528,food@southwark.gov.uk,Southwark,http://www.southwark.gov.uk/,-0.068174,SE15 4RZ,04/08/2010,fhrs_4_en-GB,4,,FHRS,10,"Rnr green grocers, 146-150, Rye Lane, London, SE15 4RZ",LONDON,APPROVED,GOOD,RYE LANE,176236,2.00003E+11,1,SE15 4ST,"149, RYE LANE, LONDON, SE15 4ST",534311,,0.9,,-0.067709092,51.46915905,149,,
226,127199,127199,,46,Peckham Road,London,Rock news,Retailers - other,4613,5,,363989,10,,51.473606,1836,528,food@southwark.gov.uk,Southwark,http://www.southwark.gov.uk/,-0.079989,SE5 8PX,27/05/2011,fhrs_4_en-GB,4,,FHRS,5,"Rock news, 46 Peckham Road, London, SE5 8PX",LONDON,APPROVED,GOOD,PECKHAM ROAD,176687,2.00003E+11,1,SE5 8PX,"ROCKY NEWS, 46, PECKHAM ROAD, LONDON, SE5 8PX",533372,ROCKY NEWS,0.8,,-0.081049682,51.47343384,46,,
227,127212,127212,,177-179,Rye Lane,London,Roosters hut,Takeaway/sandwich shop,7844,10,,729151,5,,51.467685,184794,528,food@southwark.gov.uk,Southwark,http://www.southwark.gov.uk/,-0.066603,SE15 4TP,04/11/2014,fhrs_3_en-GB,3,,FHRS,10,"Roosters hut, 177-179, Rye Lane, London, SE15 4TP",LONDON,APPROVED,PARTIAL,RYE LANE,176129,2.00003E+11,1,SE15 4TP,"CHICKEN COTTAGE, 177-179, RYE LANE, LONDON, SE15 4TP",534356,CHICKEN COTTAGE,0.7,177-179,-0.067102259,51.46818684,,,
228,127214,127214,,169,Rye Lane,London,Ropharm chemist,Retailers - other,4613,,,362834,,,51.468604,1243,528,food@southwark.gov.uk,Southwark,http://www.southwark.gov.uk/,-0.067241,SE15 4TL,08/05/2007,fhrs_exempt_en-GB,Exempt,,FHRS,,"Ropharm chemist, 169 Rye Lane, London, SE15 4TL",LONDON,APPROVED,EXACT,RYE LANE,176160,2.00003E+11,1,SE15 4TL,"ROPHARM CHEMIST, 169, RYE LANE, LONDON, SE15 4TL",534350,ROPHARM CHEMIST,1,,-0.067176814,51.46846684,169,,
229,127228,127228,,170,Bellenden Road,London,Royal caribbean spice bakery,Other catering premises,7841,20,,654202,15,,51.466859,183972,528,food@southwark.gov.uk,Southwark,http://www.southwark.gov.uk/,-0.073218,SE15 4BW,13/03/2014,fhrs_0_en-GB,0,,FHRS,20,"Royal caribbean spice bakery, 170 Bellenden Road, London, SE15 4BW",LONDON,APPROVED,GOOD,BELLENDEN ROAD,176018,2.00003E+11,1,SE15 4BW,"CARIBBEAN SPICE BAKERY, 170, BELLENDEN ROAD, LONDON, SE15 4BW",533966,CARIBBEAN SPICE BAKERY,0.9,,-0.072755602,51.46728172,170,,
230,127232,127232,Peckham Delivery Office,02-Apr,Highshore Road,London,Royal mail,Restaurant/Cafe/Canteen,1,0,,364508,5,,51.471776,3267,528,food@southwark.gov.uk,Southwark,http://www.southwark.gov.uk/,-0.070937,SE15 5AU,04/11/2010,fhrs_5_en-GB,5,,FHRS,0,"Royal mail, Peckham Delivery Office, 2-4 Highshore Road, London, SE15 5AU",LONDON,APPROVED,EXACT,HIGHSHORE ROAD,176520,2.00003E+11,1,SE15 5AU,"ROYAL MAIL, PECKHAM DELIVERY OFFICE 2-4, HIGHSHORE ROAD, LONDON, SE15 5AU",534080,ROYAL MAIL,1,PECKHAM DELIVERY OFFICE 2-4,-0.07092513,51.47176593,,,
231,127236,127236,,15,Colls Road,London,Ruby colls house,Hospitals/Childcare/Caring Premises,5,10,,363448,0,,51.475268,174147,528,food@southwark.gov.uk,Southwark,http://www.southwark.gov.uk/,-0.053682,SE15 2NS,17/01/2013,fhrs_4_en-GB,4,,FHRS,0,"Ruby colls house, 15 Colls Road, London, SE15 2NS",LONDON,APPROVED,EXACT,COLLS ROAD,176916,2.00003E+11,1,SE15 2NS,"15, COLLS ROAD, LONDON, SE15 2NS",535266,,1,,-0.053708344,51.47504248,15,,
232,127237,127237,,121,Evelina Road,London,Rudds,Retailers - other,4613,0,,364676,0,,51.466101,42013,528,food@southwark.gov.uk,Southwark,http://www.southwark.gov.uk/,-0.056707,SE15 3HB,29/02/2012,fhrs_5_en-GB,5,,FHRS,0,"Rudds, 121 Evelina Road, London, SE15 3HB",LONDON,APPROVED,GOOD,EVELINA ROAD,175920,2.00003E+11,1,SE15 3HB,"RUDD & SON GREENGROCERS, 121, EVELINA ROAD, LONDON, SE15 3HB",535094,RUDD & SON GREENGROCERS,0.8,,-0.056563823,51.46613315,121,,
233,127241,127241,Unit 1,137-139,Rye Lane,London,Rye express,Retailers - other,4613,10,,363458,10,,51.469866,174255,528,food@southwark.gov.uk,Southwark,http://www.southwark.gov.uk/,-0.068008,SE15 4ST,05/09/2011,fhrs_3_en-GB,3,,FHRS,5,"Rye express, Unit 1, 137-139, Rye Lane, London, SE15 4ST",LONDON,APPROVED,GOOD,RYE LANE,176156,2.00003E+11,1,SE15 4RZ,"138, RYE LANE, LONDON, SE15 4RZ",534304,,0.8,,-0.067840182,51.4684418,138,,
234,127243,127243,,164,Rye Lane,London,Rye lane news and off licence,Retailers - other,4613,20,,364084,10,,51.467853,21934,528,food@southwark.gov.uk,Southwark,http://www.southwark.gov.uk/,-0.067518,SE15 4NB,14/04/2014,fhrs_1_en-GB,1,,FHRS,15,"Rye lane news and off licence, 164 Rye Lane, London, SE15 4NB",LONDON,APPROVED,GOOD,RYE LANE,176083,2.00003E+11,1,SE15 4NB,"RYE LANE NEWS, 164, RYE LANE, LONDON, SE15 4NB",534332,RYE LANE NEWS,0.8,,-0.067465037,51.46777916,164,,
235,127244,127244,,34,Peckham Rye,London,Rye news,Retailers - other,4613,5,,363142,0,,51.465565,1688,528,food@southwark.gov.uk,Southwark,http://www.southwark.gov.uk/,-0.066722,SE15 4JR,29/02/2012,fhrs_5_en-GB,5,,FHRS,0,"Rye news, 34 Peckham Rye, London, SE15 4JR",LONDON,APPROVED,EXACT,PECKHAM RYE,175847,2.00003E+11,1,SE15 4JR,"RYE NEWS, 34, PECKHAM RYE, LONDON, SE15 4JR",534391,RYE NEWS,1,,-0.066705802,51.46564437,34,,
236,127245,127245,Rye Oak Primary School,,Whorlton Road,London,Rye oak school & childrens centre,School/college/university,7845,5,,407139,5,,51.46415,3159,528,food@southwark.gov.uk,Southwark,http://www.southwark.gov.uk/,-0.064377,SE15 3PD,11/07/2014,fhrs_5_en-GB,5,,FHRS,5,"Rye oak school & childrens centre, Rye Oak Primary School, Whorlton Road, London, SE15 3PD",LONDON,APPROVED,GOOD,WHORLTON ROAD,175729,2.00003E+11,1,SE15 3PD,"RYE OAK PRIMARY SCHOOL, WHORLTON ROAD, LONDON, SE15 3PD",534641,RYE OAK PRIMARY SCHOOL,0.9,,-0.063153926,51.46452461,,,
237,127246,127246,,40,Nunhead Lane,London,S g convenience store (grocery),Retailers - other,4613,5,,364009,0,,51.463807,1872,528,food@southwark.gov.uk,Southwark,http://www.southwark.gov.uk/,-0.061556,SE15 3TU,29/02/2012,fhrs_5_en-GB,5,,FHRS,0,"S g convenience store (grocery), 40 Nunhead Lane, London, SE15 3TU",LONDON,APPROVED,GOOD,NUNHEAD LANE,175658,2.00003E+11,1,SE15 3TU,"S G CONVENIENCE, 40, NUNHEAD LANE, LONDON, SE15 3TU",534756,S G CONVENIENCE,0.8,,-0.06152649,51.46385924,40,,
238,127250,127250,,8,Choumert Road,London,Sabinah food store,Retailers - other,4613,10,,654170,10,,51.468211,183392,528,food@southwark.gov.uk,Southwark,http://www.southwark.gov.uk/,-0.068496,SE15 4SE,24/03/2014,fhrs_3_en-GB,3,,FHRS,10,"Sabinah food store, 8 Choumert Road, London, SE15 4SE",LONDON,APPROVED,PARTIAL,CHOUMERT ROAD,176133,2.00003E+11,1,SE15 4SE,"MARAMPA KAYA, 8, CHOUMERT ROAD, LONDON, SE15 4SE",534285,MARAMPA KAYA,0.7,,-0.068122285,51.46823962,8,,
239,127255,127255,,29,Fenwick Road,London,Saffronland homes,Hospitals/Childcare/Caring Premises,5,10,,364685,5,,51.463304,42312,528,food@southwark.gov.uk,Southwark,http://www.southwark.gov.uk/,-0.068689,SE15 4HS,16/02/2006,fhrs_4_en-GB,4,,FHRS,0,"Saffronland homes, 29 Fenwick Road, London, SE15 4HS",LONDON,APPROVED,EXACT,FENWICK ROAD,175593,2.00003E+11,1,SE15 4HS,"29, FENWICK ROAD, LONDON, SE15 4HS",534259,,1,,-0.068701281,51.46339313,29,,
240,127268,127268,,6,Rye Lane,London,Sakhi quality meat,Retailers - other,4613,20,,665590,15,,51.472256,184036,528,food@southwark.gov.uk,Southwark,http://www.southwark.gov.uk/,-0.070053,SE15 5BS,26/03/2014,fhrs_1_en-GB,1,,FHRS,10,"Sakhi quality meat, 6 Rye Lane, London, SE15 5BS",LONDON,APPROVED,GOOD,RYE LANE,176643,2.00003E+11,1,SE15 5BS,"SAKHI, 6, RYE LANE, LONDON, SE15 5BS",534133,SAKHI,0.8,,-0.070115861,51.4728587,6,,
241,127269,127269,Unit 27 K&S Indoor Market,135a,Rye Lane,London,Sakisatu foods,Retailers - other,4613,10,,407107,10,,51.469866,178095,528,food@southwark.gov.uk,Southwark,http://www.southwark.gov.uk/,-0.068008,SE15 4ST,30/05/2012,fhrs_3_en-GB,3,,FHRS,10,"Sakisatu foods, Unit 27 K&S Indoor Market, 135a, Rye Lane, London, SE15 4ST",LONDON,APPROVED,PARTIAL,RYE LANE,176309,2.00003E+11,1,SE15 4ST,"K & S INDOOR MARKET, 135A, RYE LANE, LONDON, SE15 4ST",534340,K & S INDOOR MARKET,0.7,135A,-0.06726411,51.46980818,,,
242,127276,127276,,163,Bellenden Road,London,Sam's kebab,Takeaway/sandwich shop,7844,5,,362998,5,,51.466882,138186,528,food@southwark.gov.uk,Southwark,http://www.southwark.gov.uk/,-0.072468,SE15 4DH,14/07/2014,fhrs_5_en-GB,5,,FHRS,5,"Sam's kebab, 163 Bellenden Road, London, SE15 4DH",LONDON,APPROVED,GOOD,BELLENDEN ROAD,175943,2.00003E+11,1,SE15 4DH,"FLAT, 163, BELLENDEN ROAD, LONDON, SE15 4DH",533970,,0.8,,-0.072726452,51.46660679,163,,FLAT
243,127296,127296,,213,Rye Lane,London,Seafood superstores,Retailers - other,4613,10,,363116,10,,51.467685,1574,528,food@southwark.gov.uk,Southwark,http://www.southwark.gov.uk/,-0.066603,SE15 4TP,07/03/2013,fhrs_3_en-GB,3,,FHRS,10,"Seafood superstores, 213 Rye Lane, London, SE15 4TP",LONDON,APPROVED,GOOD,RYE LANE,176060,2.00003E+11,2,SE15 4TP,"LONDON SEAFOOD LTD, 213, RYE LANE, LONDON, SE15 4TP",534402,LONDON SEAFOOD LTD,0.8,,-0.066466628,51.46755586,213,,
244,127309,127309,,58-60,Peckham High Street,London,Shangeetha supermarket limited,Retailers - other,4613,10,,569203,10,,51.473214,183062,528,food@southwark.gov.uk,Southwark,http://www.southwark.gov.uk/,-0.070891,SE15 5DP,14/04/2014,fhrs_3_en-GB,3,,FHRS,10,"Shangeetha supermarket limited, 58-60 Peckham High Street, London, SE15 5DP",LONDON,APPROVED,EXACT,PECKHAM HIGH STREET,176670,2.00003E+11,1,SE15 5DP,"CRACKERJACKS, 58-60, PECKHAM HIGH STREET, LONDON, SE15 5DP",534112,CRACKERJACKS,1,58-60,-0.070407801,51.47310631,,,
245,127333,127333,,50,Gibbon Road,London,Silver fish bar,Takeaway/sandwich shop,7844,0,,363118,0,,51.466568,1581,528,food@southwark.gov.uk,Southwark,http://www.southwark.gov.uk/,-0.051835,SE15 3XE,09/10/2012,fhrs_5_en-GB,5,,FHRS,5,"Silver fish bar, 50 Gibbon Road, London, SE15 3XE",LONDON,APPROVED,EXACT,GIBBON ROAD,176036,2.00003E+11,1,SE15 3XE,"50, GIBBON ROAD, LONDON, SE15 3XE",535438,,1,,-0.051570232,51.46709342,50,,
246,127351,127351,,28,Choumert Road,London,Small white elephant,Restaurant/Cafe/Canteen,1,5,,692061,5,,51.468211,184021,528,food@southwark.gov.uk,Southwark,http://www.southwark.gov.uk/,-0.068496,SE15 4SE,01/07/2014,fhrs_4_en-GB,4,,FHRS,10,"Small white elephant, 28 Choumert Road, London, SE15 4SE",LONDON,APPROVED,EXACT,CHOUMERT ROAD,176124,2.00003E+11,1,SE15 4SE,"SMALL WHITE ELEPHANT, 28, CHOUMERT ROAD, LONDON, SE15 4SE",534248,SMALL WHITE ELEPHANT,1,,-0.068658055,51.46816751,28,,
247,127367,127367,Albrighton Community Centre,37,Albrighton Road,London,Solochi food and drink ltd,Other catering premises,7841,10,,581931,0,,51.464622,182996,528,food@southwark.gov.uk,Southwark,http://www.southwark.gov.uk/,-0.081619,SE22 8AH,31/07/2013,fhrs_4_en-GB,4,,FHRS,10,"Solochi food and drink ltd, Albrighton Community Centre, 37 Albrighton Road, London, SE22 8AH",LONDON,APPROVED,EXACT,ALBRIGHTON ROAD,175705,2.00003E+11,1,SE22 8AH,"ALBRIGHTON COMMUNITY CENTRE, 37, ALBRIGHTON ROAD, LONDON, SE22 8AH",533359,ALBRIGHTON COMMUNITY CENTRE,1,,-0.081606948,51.46461219,37,,
248,127372,127372,,296,Southampton Way,London,Souhampton way care home,Hospitals/Childcare/Caring Premises,5,0,,363071,5,,51.47541,14554,528,food@southwark.gov.uk,Southwark,http://www.southwark.gov.uk/,-0.078632,SE5 7HQ,09/01/2014,fhrs_5_en-GB,5,,FHRS,5,"Souhampton way care home, 296 Southampton Way, London, SE5 7HQ",LONDON,APPROVED,GOOD,SOUTHAMPTON WAY,176921,2.00003E+11,1,SE5 7HQ,"FLAT 11, 296, SOUTHAMPTON WAY, LONDON, SE5 7HQ",533510,,0.8,,-0.078975563,51.47550415,296,,FLAT 11
249,127381,127381,Copleston Centre,,Copleston Road,London,Southwark day centre for asylum seekers,Restaurant/Cafe/Canteen,1,0,,521974,0,,51.466197,182652,528,food@southwark.gov.uk,Southwark,http://www.southwark.gov.uk/,-0.077306,SE15 4AN,12/02/2013,fhrs_5_en-GB,5,,FHRS,5,"Southwark day centre for asylum seekers, Copleston Centre, Copleston Road, London, SE15 4AN",LONDON,APPROVED,PARTIAL,COPLESTON ROAD,175848,2.00003E+11,1,SE15 4AN,"COPLESTON CENTRE, COPLESTON ROAD, LONDON, SE15 4AN",533676,COPLESTON CENTRE,0.7,,-0.076992274,51.46582254,,,
250,127404,127404,,91,Evelina Road,London,Spices,Takeaway/sandwich shop,7844,10,,363047,10,,51.466607,141759,528,food@southwark.gov.uk,Southwark,http://www.southwark.gov.uk/,-0.056326,SE15 3HL,24/02/2014,fhrs_3_en-GB,3,,FHRS,10,"Spices, 91 Evelina Road, London, SE15 3HL",,,,,,,,,,,,,,,,,,
251,127405,127405,,165,Rye Lane,London,Spinners bakery ltd,Takeaway/sandwich shop,7844,,,729163,,,51.468604,184942,528,food@southwark.gov.uk,Southwark,http://www.southwark.gov.uk/,-0.067241,SE15 4TL,,fhrs_awaitinginspection_en-GB,AwaitingInspection,,FHRS,,"Spinners bakery ltd, 165 Rye Lane, London, SE15 4TL",LONDON,APPROVED,EXACT,RYE LANE,176169,2.00003E+11,1,SE15 4TL,"GABBYS, 165, RYE LANE, LONDON, SE15 4TL",534340,GABBYS,1,,-0.067317277,51.46855009,165,,
252,127409,127409,,64-66,Choumert Road,London,St andrews nursing home,Hospitals/Childcare/Caring Premises,5,5,,363246,5,,51.467841,171710,528,food@southwark.gov.uk,Southwark,http://www.southwark.gov.uk/,-0.071132,SE15 4AX,14/07/2014,fhrs_5_en-GB,5,,FHRS,5,"St andrews nursing home, 64-66 Choumert Road, London, SE15 4AX",LONDON,APPROVED,EXACT,CHOUMERT ROAD,176095,2.00003E+11,1,SE15 4AX,"ST. ANDREWS NURSING HOME, 64-66, CHOUMERT ROAD, LONDON, SE15 4AX",534103,ST. ANDREWS NURSING HOME,1,64-66,-0.070755302,51.46794126,,,
253,127431,127431,,81,Evelina Road,London,St. thomas the apostle church (licensed bar),Pub/bar/nightclub,7843,10,,362738,0,,51.466607,110237,528,food@southwark.gov.uk,Southwark,http://www.southwark.gov.uk/,-0.056326,SE15 3HL,10/10/2012,fhrs_4_en-GB,4,,FHRS,5,"St. thomas the apostle church (licensed bar), 81 Evelina Road, London, SE15 3HL",LONDON,APPROVED,GOOD,EVELINA ROAD,176066,2.00003E+11,1,SE15 3HL,"ST. THOMAS THE APOSTLE CHURCH, 81, EVELINA ROAD, LONDON, SE15 3HL",535255,ST. THOMAS THE APOSTLE CHURCH,0.8,,-0.054191671,51.46740674,81,,
254,127432,127432,,81,Evelina Road,London,St. thomas the apostle church (place of worship/church),Other catering premises,7841,,,421377,,,51.466607,41984,528,food@southwark.gov.uk,Southwark,http://www.southwark.gov.uk/,-0.056326,SE15 3HL,10/10/2012,fhrs_exempt_en-GB,Exempt,,FHRS,,"St. thomas the apostle church (place of worship/church), 81 Evelina Road, London, SE15 3HL",LONDON,APPROVED,PARTIAL,EVELINA ROAD,176066,2.00003E+11,1,SE15 3HL,"ST. THOMAS THE APOSTLE CHURCH, 81, EVELINA ROAD, LONDON, SE15 3HL",535255,ST. THOMAS THE APOSTLE CHURCH,0.7,,-0.054191671,51.46740674,81,,
255,127433,127433,,45-65,Peckham Road,London,Staff bar - camberwell college of arts and design,Restaurant/Cafe/Canteen,1,5,,487200,0,,51.474068,182099,528,food@southwark.gov.uk,Southwark,http://www.southwark.gov.uk/,-0.080733,SE5 8UF,23/11/2012,fhrs_5_en-GB,5,,FHRS,0,"Staff bar - camberwell college of arts and design, 45-65 Peckham Road, London, SE5 8UF",LONDON,APPROVED,GOOD,PECKHAM ROAD,176708,2.00003E+11,1,SE5 8PX,"56A, PECKHAM ROAD, LONDON, SE5 8PX",533452,,0.9,56A,-0.079890582,51.47360371,,,
256,127438,127438,,114,Rye Lane,London,Star noodles,Restaurant/Cafe/Canteen,1,10,,364411,10,,51.469024,2952,528,food@southwark.gov.uk,Southwark,http://www.southwark.gov.uk/,-0.068174,SE15 4RZ,09/05/2013,fhrs_3_en-GB,3,,FHRS,10,"Star noodles, 114 Rye Lane, London, SE15 4RZ",LONDON,APPROVED,GOOD,RYE LANE,176219,2.00003E+11,1,SE15 4RZ,"STARNOODLE, 114, RYE LANE, LONDON, SE15 4RZ",534280,STARNOODLE,0.8,,-0.068161581,51.46901364,114,,
257,127449,127449,,154,Rye Lane,London,Stella's groceries and vegetables limited,Retailers - other,4613,10,,363992,10,,51.467853,1846,528,food@southwark.gov.uk,Southwark,http://www.southwark.gov.uk/,-0.067518,SE15 4NB,14/03/2013,fhrs_2_en-GB,2,,FHRS,15,"Stella's groceries and vegetables limited, 154 Rye Lane, London, SE15 4NB",LONDON,APPROVED,EXACT,RYE LANE,176110,2.00003E+11,1,SE15 4NB,"STELLA, 154, RYE LANE, LONDON, SE15 4NB",534320,STELLA,1,,-0.067627439,51.46802463,154,,
258,127463,127463,1 Central Buildings,,Rye Lane,London,Subway peckham,Restaurant/Cafe/Canteen,1,0,,365012,0,,51.473218,71573,528,food@southwark.gov.uk,Southwark,http://www.southwark.gov.uk/,-0.070056,SE15 5DW,11/02/2011,fhrs_5_en-GB,5,,FHRS,0,"Subway peckham, 1 Central Buildings, Rye Lane, London, SE15 5DW",,,,,,,,,,,,,,,,,,
259,127483,127483,,38-44,Rye Lane,London,Superdrug stores plc,Retailers - other,4613,0,,362836,5,,51.471164,1245,528,food@southwark.gov.uk,Southwark,http://www.southwark.gov.uk/,-0.069782,SE15 5BY,23/08/2012,fhrs_5_en-GB,5,,FHRS,5,"Superdrug stores plc, 38-44 Rye Lane, London, SE15 5BY",LONDON,APPROVED,GOOD,RYE LANE,176485,2.00003E+11,2,SE15 5BY,"SUPERDRUG STORES PLC, 42-44, RYE LANE, LONDON, SE15 5BY",534157,SUPERDRUG STORES PLC,0.9,42-44,-0.069830446,51.47143317,,,
260,127504,127504,,1a,Choumert Road,London,Swaizie food store,Retailers - other,4613,0,,364740,5,,51.468211,46196,528,food@southwark.gov.uk,Southwark,http://www.southwark.gov.uk/,-0.068496,SE15 4SE,29/02/2012,fhrs_5_en-GB,5,,FHRS,0,"Swaizie food store, 1a, Choumert Road, London, SE15 4SE",LONDON,APPROVED,PARTIAL,CHOUMERT ROAD,176098,2.00003E+11,1,SE15 4SE,"AUGUSTAS OFF LICENSE, 1A, CHOUMERT ROAD, LONDON, SE15 4SE",534277,AUGUSTAS OFF LICENSE,0.7,1A,-0.068250673,51.46792699,,,
261,127513,127513,,213A,Rye Lane,London,T & s afro cosmetics and food and wine,Retailers - other,4613,10,,363995,0,,51.467685,1853,528,food@southwark.gov.uk,Southwark,http://www.southwark.gov.uk/,-0.066603,SE15 4TP,03/05/2007,fhrs_4_en-GB,4,,FHRS,0,"T & s afro cosmetics and food and wine, 213A, Rye Lane, London, SE15 4TP",LONDON,APPROVED,GOOD,RYE LANE,176057,2.00003E+11,1,SE15 4TP,"T & S AFRO COSMETICS, 213A, RYE LANE, LONDON, SE15 4TP",534410,T & S AFRO COSMETICS,0.8,213A,-0.066352666,51.46752701,,,
262,127533,127533,,12a,Rye Lane,London,Tastes,Retailers - other,4613,10,,692039,10,,51.47232,183431,528,food@southwark.gov.uk,Southwark,http://www.southwark.gov.uk/,-0.070093,SE15 5BS,11/07/2014,fhrs_3_en-GB,3,,FHRS,10,"Tastes, 12a, Rye Lane, London, SE15 5BS",LONDON,APPROVED,EXACT,RYE LANE,176620,2.00003E+11,1,SE15 5BS,"12A, RYE LANE, LONDON, SE15 5BS",534140,,1,12A,-0.070023859,51.47265036,,,
263,127568,127568,,151-155,Queens Road,London,Tesco stores ltd,Retailers - supermarkets/hypermarkets,7840,5,,363318,5,,51.473679,172537,528,food@southwark.gov.uk,Southwark,http://www.southwark.gov.uk/,-0.057091,SE15 2ND,09/07/2014,fhrs_4_en-GB,4,,FHRS,10,"Tesco stores ltd, 151-155, Queens Road, London, SE15 2ND",LONDON,APPROVED,GOOD,QUEENS ROAD,176752,2.00003E+11,1,SE15 2ND,"TESCO, 151-153, QUEENS ROAD, LONDON, SE15 2ND",535031,TESCO,0.9,151-153,-0.057152615,51.47362481,,,
264,127572,127572,Unit 1,265,Rye Lane,London,Tesco stores ltd,Retailers - supermarkets/hypermarkets,7840,5,,363249,5,,51.466599,171745,528,food@southwark.gov.uk,Southwark,http://www.southwark.gov.uk/,-0.06567,SE15 4UR,21/02/2012,fhrs_5_en-GB,5,,FHRS,5,"Tesco stores ltd, Unit 1, 265 Rye Lane, London, SE15 4UR",LONDON,APPROVED,GOOD,RYE LANE,176632,2.00003E+11,1,SE15 5EW,"BLUE INC, UNIT 1, AYLESHAM CENTRE, RYE LANE, LONDON, SE15 5EW",534233,BLUE INC,0.8,UNIT 1,-0.068681094,51.47273616,,AYLESHAM CENTRE,
265,127596,127596,,129,Queens Road,London,The beer rebellion,Pub/bar/nightclub,7843,5,,702299,5,,51.47509,184115,528,food@southwark.gov.uk,Southwark,http://www.southwark.gov.uk/,-0.058716,SE15 2NB,09/09/2014,fhrs_5_en-GB,5,,FHRS,5,"The beer rebellion, 129 Queens Road, London, SE15 2NB",LONDON,APPROVED,GOOD,BRAYARDS ROAD,176314,2.00003E+11,1,SE15 2BX,"129, BRAYARDS ROAD, LONDON, SE15 2BX",535008,,0.9,,-0.057650763,51.46969428,129,,
266,127597,127597,Part Ground Floor,168,Bellenden Road,London,The begging bowl,Restaurant/Cafe/Canteen,1,5,,487184,0,,51.466859,181660,528,food@southwark.gov.uk,Southwark,http://www.southwark.gov.uk/,-0.073218,SE15 4BW,06/12/2012,fhrs_4_en-GB,4,,FHRS,10,"The begging bowl, Part Ground Floor, 168 Bellenden Road, London, SE15 4BW",LONDON,APPROVED,GOOD,BELLENDEN ROAD,176021,2.00003E+11,1,SE15 4BW,"THE BEGGING BOWL, 168, BELLENDEN ROAD, LONDON, SE15 4BW",533959,THE BEGGING BOWL,0.8,,-0.07285518,51.46731034,168,,
267,127618,127618,,43,Lyndhurst Grove,London,The cadeleigh arms,Pub/bar/nightclub,7843,10,,364139,5,,51.470287,2337,528,food@southwark.gov.uk,Southwark,http://www.southwark.gov.uk/,-0.08046,SE15 5AN,29/02/2012,fhrs_4_en-GB,4,,FHRS,5,"The cadeleigh arms, 43 Lyndhurst Grove, London, SE15 5AN",LONDON,APPROVED,GOOD,LYNDHURST GROVE,176335,2.00003E+11,1,SE15 5AN,"CADLEIGH ARMS, 43, LYNDHURST GROVE, LONDON, SE15 5AN",533474,CADLEIGH ARMS,0.8,,-0.079714768,51.47024658,43,,
268,127623,127623,,133-137,Queens Road,London,The camden society,Restaurant/Cafe/Canteen,1,0,,362935,5,,51.473679,133057,528,food@southwark.gov.uk,Southwark,http://www.southwark.gov.uk/,-0.057091,SE15 2ND,23/06/2014,fhrs_5_en-GB,5,,FHRS,5,"The camden society, 133-137, Queens Road, London, SE15 2ND",LONDON,APPROVED,GOOD,QUEENS ROAD,176756,10000816788,1,SE15 2ND,"THE CAMDEN SOCIETY, QUEENS ROAD DAY CENTRE 133-137, QUEENS ROAD, LONDON, SE15 2ND",534940,THE CAMDEN SOCIETY,0.9,QUEENS ROAD DAY CENTRE 133-137,-0.05846054,51.47368245,,,
269,127630,127630,,91,Queens Road,London,The childrens society,Restaurant/Cafe/Canteen,1,5,,364499,5,,51.473961,3230,528,food@southwark.gov.uk,Southwark,http://www.southwark.gov.uk/,-0.059484,SE15 2EZ,29/02/2012,fhrs_5_en-GB,5,,FHRS,5,"The childrens society, 91 Queens Road, London, SE15 2EZ",LONDON,APPROVED,GOOD,QUEENS ROAD,176807,2.00003E+11,1,SE15 2EZ,"THE CHILDRENS SOCIETY, 91-93, QUEENS ROAD, LONDON, SE15 2EZ",534791,THE CHILDRENS SOCIETY,0.9,91-93,-0.060585153,51.47417623,,,
270,127636,127636,,133,Copeland Road,London,The clf art cafe,Pub/bar/nightclub,7843,20,,564145,15,,51.469911,23344,528,food@southwark.gov.uk,Southwark,http://www.southwark.gov.uk/,-0.064162,SE15 3SN,23/06/2013,fhrs_1_en-GB,1,,FHRS,15,"The clf art cafe, 133 Copeland Road, London, SE15 3SN",LONDON,APPROVED,PARTIAL,COPELAND ROAD,176333.92,10000818902,2,SE15 3SN,"THE LAST REFUGE, UNIT 9A, INDUSTRIAL PARK, 133, COPELAND ROAD, LONDON, SE15 3SN",534443.5,THE LAST REFUGE,0.7,INDUSTRIAL PARK,-0.065765435,51.47000757,133,,UNIT 9A
271,127674,127674,,16,Evelina Road,London,The golden anchor,Pub/bar/nightclub,7843,10,,364671,10,,51.469161,41976,528,food@southwark.gov.uk,Southwark,http://www.southwark.gov.uk/,-0.052013,SE15 2DX,23/10/2013,fhrs_2_en-GB,2,,FHRS,15,"The golden anchor, 16 Evelina Road, London, SE15 2DX",LONDON,APPROVED,EXACT,EVELINA ROAD,176295,2.00003E+11,1,SE15 2DX,"THE GOLDEN ANCHOR, 16, EVELINA ROAD, LONDON, SE15 2DX",535374,THE GOLDEN ANCHOR,1,,-0.052391918,51.46943618,16,,
272,127682,127682,,24,Nunhead Green,London,The great wall,Takeaway/sandwich shop,7844,5,,364547,10,,51.465307,3348,528,food@southwark.gov.uk,Southwark,http://www.southwark.gov.uk/,-0.058224,SE15 3QF,10/10/2012,fhrs_3_en-GB,3,,FHRS,10,"The great wall, 24 Nunhead Green, London, SE15 3QF",LONDON,APPROVED,EXACT,NUNHEAD GREEN,175805,2.00003E+11,1,SE15 3QF,"THE GREAT WALL, 24, NUNHEAD GREEN, LONDON, SE15 3QF",534978,THE GREAT WALL,1,,-0.058276611,51.46512738,24,,
273,127685,127685,,109,Peckham High Street,London,The greyhound,Pub/bar/nightclub,7843,10,,364238,5,,51.474117,2522,528,food@southwark.gov.uk,Southwark,http://www.southwark.gov.uk/,-0.068362,SE15 5SE,26/04/2007,fhrs_4_en-GB,4,,FHRS,5,"The greyhound, 109 Peckham High Street, London, SE15 5SE",LONDON,APPROVED,EXACT,PECKHAM HIGH STREET,176791,2.00003E+11,1,SE15 5SE,"THE GREYHOUND, 109, PECKHAM HIGH STREET, LONDON, SE15 5SE",534235,THE GREYHOUND,1,,-0.068591966,51.47416452,109,,
274,127703,127703,,71-79,Peckham High Street,London,The kentish drovers,Pub/bar/nightclub,7843,0,,364633,0,,51.473836,4074,528,food@southwark.gov.uk,Southwark,http://www.southwark.gov.uk/,-0.069309,SE15 5RS,13/10/2010,fhrs_5_en-GB,5,,FHRS,0,"The kentish drovers, 71-79 Peckham High Street, London, SE15 5RS",LONDON,APPROVED,GOOD,PECKHAM HIGH STREET,176748,2.00003E+11,2,SE15 5ED,"78A, PECKHAM HIGH STREET, LONDON, SE15 5ED",533574,,0.9,78A,-0.078119927,51.4739344,,,
275,127718,127718,,119,Bellenden Road,London,The lovely house,Restaurant/Cafe/Canteen,1,10,,467719,10,,51.467913,181732,528,food@southwark.gov.uk,Southwark,http://www.southwark.gov.uk/,-0.072281,SE15 4QY,29/08/2013,fhrs_2_en-GB,2,,FHRS,15,"The lovely house, 119 Bellenden Road, London, SE15 4QY",LONDON,APPROVED,GOOD,BELLENDEN ROAD,176088,2.00003E+11,1,SE15 4QY,"LOVELY HOUSE RESTAURANT, 119, BELLENDEN ROAD, LONDON, SE15 4QY",533998,LOVELY HOUSE RESTAURANT,0.8,,-0.072268683,51.4679032,119,,
276,127725,127725,,184,Bellenden Road,London,The melange chocolate,Takeaway/sandwich shop,7844,5,,363042,0,,51.466859,141060,528,food@southwark.gov.uk,Southwark,http://www.southwark.gov.uk/,-0.073218,SE15 4BW,29/02/2012,fhrs_2_en-GB,2,,FHRS,15,"The melange chocolate, 184 Bellenden Road, London, SE15 4BW",LONDON,APPROVED,EXACT,BELLENDEN ROAD,175990,2.00003E+11,1,SE15 4BW,"THE MELANGE CHOCOLATE, 184, BELLENDEN ROAD, LONDON, SE15 4BW",533954,THE MELANGE CHOCOLATE,1,,-0.072938856,51.46703294,184,,
277,127726,127726,Unit 2,117-125,Rye Lane,London,The mighty pound,Retailers - other,4613,,,433585,,,51.469866,3321,528,food@southwark.gov.uk,Southwark,http://www.southwark.gov.uk/,-0.068008,SE15 4ST,29/02/2012,fhrs_exempt_en-GB,Exempt,,FHRS,,"The mighty pound, Unit 2, 117-125, Rye Lane, London, SE15 4ST",LONDON,APPROVED,GOOD,RYE LANE,176190,2.00003E+11,1,SE15 4RZ,"122, RYE LANE, LONDON, SE15 4RZ",534289,,0.8,,-0.068043096,51.4687509,122,,
278,127727,127727,,43,Choumert Road,London,The montpelier,Pub/bar/nightclub,7843,10,,364107,0,,51.46755,2261,528,food@southwark.gov.uk,Southwark,http://www.southwark.gov.uk/,-0.070986,SE15 4AR,29/02/2012,fhrs_4_en-GB,4,,FHRS,5,"The montpelier, 43 Choumert Road, London, SE15 4AR",LONDON,APPROVED,EXACT,CHOUMERT ROAD,176054,2.00003E+11,1,SE15 4AR,"THE MONTPELIER, 43, CHOUMERT ROAD, LONDON, SE15 4AR",534139,THE MONTPELIER,1,,-0.070252884,51.46756429,43,,
279,127731,127731,,231-235,Rye Lane,London,The nags head,Pub/bar/nightclub,7843,5,,364263,5,,51.467685,2572,528,food@southwark.gov.uk,Southwark,http://www.southwark.gov.uk/,-0.066603,SE15 4TP,19/08/2004,fhrs_5_en-GB,5,,FHRS,5,"The nags head, 231-235, Rye Lane, London, SE15 4TP",LONDON,APPROVED,GOOD,RYE LANE,175936,2.00003E+11,1,SE15 4NL,"234, RYE LANE, LONDON, SE15 4NL",534402,,0.9,,-0.066513735,51.46644155,234,,
280,127743,127743,Pelican House,92,Peckham Road,London,The peckham pelican,Restaurant/Cafe/Canteen,1,0,,588919,5,,51.473999,183021,528,food@southwark.gov.uk,Southwark,http://www.southwark.gov.uk/,-0.07705,SE15 5PY,30/08/2013,fhrs_5_en-GB,5,,FHRS,5,"The peckham pelican, Pelican House, 92 Peckham Road, London, SE15 5PY",LONDON,APPROVED,GOOD,PECKHAM ROAD,176763,10009805610,2,SE15 5PY,"FLAT 66, PELICAN HOUSE, 92, PECKHAM ROAD, LONDON, SE15 5PY",533649,,0.8,PELICAN HOUSE,-0.077035021,51.47405151,92,,FLAT 66
281,127789,127789,Victoria Inn,77,Choumert Road,London,The victorian inn,Pub/bar/nightclub,7843,5,,363627,5,,51.46755,175679,528,food@southwark.gov.uk,Southwark,http://www.southwark.gov.uk/,-0.070986,SE15 4AR,20/06/2014,fhrs_4_en-GB,4,,FHRS,10,"The victorian inn, Victoria Inn, 77 Choumert Road, London, SE15 4AR",LONDON,APPROVED,GOOD,CHOUMERT ROAD,176029,2.00003E+11,1,SE15 4AR,"THE VICTORIA INN, 77-79, CHOUMERT ROAD, LONDON, SE15 4AR",534010,THE VICTORIA INN,0.9,77-79,-0.072118377,51.46737016,,,
282,127792,127792,,54,Lyndhurst Grove,London,The villa nursery,Hospitals/Childcare/Caring Premises,5,0,,363107,0,,51.469945,1549,528,food@southwark.gov.uk,Southwark,http://www.southwark.gov.uk/,-0.076068,SE15 5AH,10/09/2012,fhrs_5_en-GB,5,,FHRS,0,"The villa nursery, 54 Lyndhurst Grove, London, SE15 5AH",LONDON,APPROVED,EXACT,LYNDHURST GROVE,176298,2.00003E+11,1,SE15 5AH,"54, LYNDHURST GROVE, LONDON, SE15 5AH",533607,,1,,-0.077815049,51.46988272,54,,
283,127799,127799,,20,Peckham Rye,London,The white horse,Pub/bar/nightclub,7843,0,,364165,0,,51.465565,2391,528,food@southwark.gov.uk,Southwark,http://www.southwark.gov.uk/,-0.066722,SE15 4JR,20/10/2010,fhrs_5_en-GB,5,,FHRS,5,"The white horse, 20 Peckham Rye, London, SE15 4JR",LONDON,APPROVED,GOOD,PECKHAM RYE,175891,2.00003E+11,1,SE15 4JR,"WHITE HORSE, 20-22, PECKHAM RYE, LONDON, SE15 4JR",534346,WHITE HORSE,0.9,20-22,-0.067336516,51.46605045,,,
284,127807,127807,,184-186,Rye Lane,London,Three c's,Hospitals/Childcare/Caring Premises,5,10,,729110,5,,51.467136,183783,528,food@southwark.gov.uk,Southwark,http://www.southwark.gov.uk/,-0.066583,SE15 4NF,20/11/2014,fhrs_3_en-GB,3,,FHRS,10,"Three c's, 184-186, Rye Lane, London, SE15 4NF",LONDON,APPROVED,PARTIAL,RYE LANE,176025,2.00003E+11,1,SE15 4NF,"CROSSWAYS, 184-186, RYE LANE, LONDON, SE15 4NF",534377,CROSSWAYS,0.7,184-186,-0.066839616,51.46724727,,,
285,127817,127817,,94,Peckham High Street,London,Timgrace variety stores,Retailers - other,4613,10,,364003,0,,51.473722,1865,528,food@southwark.gov.uk,Southwark,http://www.southwark.gov.uk/,-0.068436,SE15 5ED,14/04/2014,fhrs_4_en-GB,4,,FHRS,10,"Timgrace variety stores, 94 Peckham High Street, London, SE15 5ED",LONDON,APPROVED,GOOD,PECKHAM HIGH STREET,176735,2.00003E+11,2,SE15 5ED,"TIMOGRACE VARIETY STORES, 94, PECKHAM HIGH STREET, LONDON, SE15 5ED",534215,TIMOGRACE VARIETY STORES,0.9,,-0.068901015,51.47366602,94,,
286,127822,127822,,173,Queens Road,London,Tops caribbean,Takeaway/sandwich shop,7844,5,,363964,5,,51.473679,180064,528,food@southwark.gov.uk,Southwark,http://www.southwark.gov.uk/,-0.057091,SE15 2ND,15/09/2014,fhrs_5_en-GB,5,,FHRS,5,"Tops caribbean, 173 Queens Road, London, SE15 2ND",LONDON,APPROVED,GOOD,QUEENS ROAD,176745,2.00003E+11,1,SE15 2ND,"TOPS CARRIBEAN, 173, QUEENS ROAD, LONDON, SE15 2ND",535074,TOPS CARRIBEAN,0.8,,-0.056536538,51.47355165,173,,
287,127828,127828,,37-41,Peckham Road,London,Total uk ltd (spar),Retailers - other,4613,0,,363002,5,,51.474265,138202,528,food@southwark.gov.uk,Southwark,http://www.southwark.gov.uk/,-0.079573,SE5 8UH,12/08/2010,fhrs_5_en-GB,5,,FHRS,0,"Total uk ltd (spar), 37-41 Peckham Road, London, SE5 8UH",LONDON,APPROVED,GOOD,PECKHAM ROAD,176691,2.00003E+11,1,SE5 8PX,"DRAGON WOK, 40, PECKHAM ROAD, LONDON, SE5 8PX",533355,DRAGON WOK,0.9,,-0.081292799,51.47347379,40,,
288,127845,127845,,94,Rye Lane,London,Truly african ltd,Retailers - other,4613,10,,692079,10,,51.469024,184265,528,food@southwark.gov.uk,Southwark,http://www.southwark.gov.uk/,-0.068174,SE15 4RZ,20/05/2014,fhrs_1_en-GB,1,,FHRS,20,"Truly african ltd, 94 Rye Lane, London, SE15 4RZ",LONDON,APPROVED,EXACT,RYE LANE,176267,2.00003E+11,1,SE15 4RZ,"LAY CASH & CARRY, 94, RYE LANE, LONDON, SE15 4RZ",534255,LAY CASH & CARRY,1,,-0.068503069,51.46945091,94,,
289,127857,127857,,4,Gibbon Road,London,Two sisters,Takeaway/sandwich shop,7844,10,,364548,10,,51.468035,3350,528,food@southwark.gov.uk,Southwark,http://www.southwark.gov.uk/,-0.052406,SE15 2AS,17/07/2013,fhrs_3_en-GB,3,,FHRS,10,"Two sisters, 4 Gibbon Road, London, SE15 2AS",LONDON,APPROVED,GOOD,GIBBON ROAD,176225,2.00003E+11,1,SE15 2AT,"4, HONITON GARDENS, GIBBON ROAD, LONDON, SE15 2AT",535378,,0.9,,-0.052361154,51.46880618,4,HONITON GARDENS,
290,127861,127861,,30,Rye Lane,London,Uk food store ltd,Retailers - other,4613,10,,363515,5,,51.472256,174788,528,food@southwark.gov.uk,Southwark,http://www.southwark.gov.uk/,-0.070053,SE15 5BS,14/04/2014,fhrs_2_en-GB,2,,FHRS,15,"Uk food store ltd, 30 Rye Lane, London, SE15 5BS",LONDON,APPROVED,EXACT,RYE LANE,176536,2.00003E+11,1,SE15 5BS,"UK FOODS, 30, RYE LANE, LONDON, SE15 5BS",534136,UK FOODS,1,,-0.070113274,51.47189645,30,,
291,127869,127869,,62,Peckham High Street,London,United meats butchers,Retailers - other,4613,10,,362771,10,,51.473214,1123,528,food@southwark.gov.uk,Southwark,http://www.southwark.gov.uk/,-0.070891,SE15 5DP,14/04/2014,fhrs_3_en-GB,3,,FHRS,10,"United meats butchers, 62 Peckham High Street, London, SE15 5DP",LONDON,APPROVED,PARTIAL,PECKHAM HIGH STREET,176708,2.00003E+11,1,SE15 5ED,"FLAT A-B, 74, PECKHAM HIGH STREET, LONDON, SE15 5ED",534168,,0.7,,-0.069587573,51.47343453,74,,FLAT A-B
292,127870,127870,,104,Peckham High Street,London,United newsagents ltd,Retailers - other,4613,5,,687780,5,,51.473722,182964,528,food@southwark.gov.uk,Southwark,http://www.southwark.gov.uk/,-0.068436,SE15 5ED,09/06/2014,fhrs_4_en-GB,4,,FHRS,10,"United newsagents ltd, 104 Peckham High Street, London, SE15 5ED",LONDON,APPROVED,EXACT,PECKHAM HIGH STREET,176738,2.00003E+11,1,SE15 5ED,"NEWS MARK, 104, PECKHAM HIGH STREET, LONDON, SE15 5ED",534243,NEWS MARK,1,,-0.068496965,51.47368635,104,,
293,127892,127892,,35,Vestry Road,London,Vestry fish bar,Takeaway/sandwich shop,7844,10,,363400,10,,51.470704,173535,528,food@southwark.gov.uk,Southwark,http://www.southwark.gov.uk/,-0.081781,SE5 8PG,21/07/2014,fhrs_2_en-GB,2,,FHRS,15,"Vestry fish bar, 35 Vestry Road, London, SE5 8PG",LONDON,APPROVED,EXACT,VESTRY ROAD,176426,2.00003E+11,1,SE5 8PG,"35, VESTRY ROAD, LONDON, SE5 8PG",533311,,1,,-0.082025831,51.47110274,35,,
294,127895,127895,,82,Peckham High Street,London,Victory food store,Retailers - other,4613,20,,364535,20,,51.473722,3323,528,food@southwark.gov.uk,Southwark,http://www.southwark.gov.uk/,-0.068436,SE15 5ED,14/04/2014,fhrs_0_en-GB,0,,FHRS,15,"Victory food store, 82 Peckham High Street, London, SE15 5ED",LONDON,APPROVED,GOOD,PECKHAM HIGH STREET,176720,2.00003E+11,1,SE15 5ED,"VICTORY FOOD & WINE, 82-84, PECKHAM HIGH STREET, LONDON, SE15 5ED",534192,VICTORY FOOD & WINE,0.8,82-84,-0.069237669,51.47353668,,,
295,127903,127903,,178-180,Bellenden Road,London,Village grocer,Retailers - other,4613,10,,714788,10,,51.466859,184475,528,food@southwark.gov.uk,Southwark,http://www.southwark.gov.uk/,-0.073218,SE15 4BW,13/10/2014,fhrs_3_en-GB,3,,FHRS,10,"Village grocer, 178-180, Bellenden Road, London, SE15 4BW",LONDON,APPROVED,GOOD,BELLENDEN ROAD,175854,2.00003E+11,1,SE15 4DG,"179, BELLENDEN ROAD, LONDON, SE15 4DG",533890,,0.9,,-0.073911131,51.46582592,179,,
296,127924,127924,,205,Rye Lane,London,Wang jia supermarket,Retailers - other,4613,10,,467695,10,,51.467749,181261,528,food@southwark.gov.uk,Southwark,http://www.southwark.gov.uk/,-0.066687,SE15 4TP,14/04/2014,fhrs_3_en-GB,3,,FHRS,10,"Wang jia supermarket, 205 Rye Lane, London, SE15 4TP",LONDON,APPROVED,EXACT,RYE LANE,176075,2.00003E+11,2,SE15 4TP,"WANG JIA SUPERMARKET, 205, RYE LANE, LONDON, SE15 4TP",534388,WANG JIA SUPERMARKET,1,,-0.066662359,51.46769398,205,,
297,127929,127929,Forecourt After,125,Rye Lane,London,Welcome to jamaican village of vegetable,Retailers - other,4613,10,,714802,10,,51.469866,184740,528,food@southwark.gov.uk,Southwark,http://www.southwark.gov.uk/,-0.068008,SE15 4ST,22/10/2014,fhrs_3_en-GB,3,,FHRS,10,"Welcome to jamaican village of vegetable, Forecourt After, 125 Rye Lane, London, SE15 4ST",LONDON,APPROVED,GOOD,RYE LANE,176344,10000812933,2,SE15 4ST,"RYE LANE CHINESE, 125, RYE LANE, LONDON, SE15 4ST",534265,RYE LANE CHINESE,0.8,,-0.068329959,51.47014049,125,,
298,127934,127934,,29,Nunhead Grove,London,Westminster house youth club,Restaurant/Cafe/Canteen,1,10,,362777,0,,51.464587,1139,528,food@southwark.gov.uk,Southwark,http://www.southwark.gov.uk/,-0.058139,SE15 3LZ,29/02/2012,fhrs_4_en-GB,4,,FHRS,0,"Westminster house youth club, 29 Nunhead Grove, London, SE15 3LZ",LONDON,APPROVED,GOOD,NUNHEAD GREEN,175893,2.00003E+11,1,SE15 3QF,"29, NUNHEAD GREEN, LONDON, SE15 3QF",534960,,0.9,,-0.058502009,51.46592246,29,,
299,127949,127949,Unit 11a The Aylesham Centre,,Rye Lane,London,Wing tai chinese supermarket,Retailers - other,4613,10,,364418,0,,51.472746,2971,528,food@southwark.gov.uk,Southwark,http://www.southwark.gov.uk/,-0.068693,SE15 5EW,14/04/2014,fhrs_4_en-GB,4,,FHRS,0,"Wing tai chinese supermarket, Unit 11a The Aylesham Centre, Rye Lane, London, SE15 5EW",LONDON,APPROVED,GOOD,RYE LANE,176632,2.00003E+11,1,SE15 5EW,"WING TAI CHINESE SUPERMARKET, UNIT 11A, AYLESHAM CENTRE, RYE LANE, LONDON, SE15 5EW",534233,WING TAI CHINESE SUPERMARKET,0.8,UNIT 11A,-0.068681094,51.47273616,,AYLESHAM CENTRE,
300,127950,127950,Unit 15 The Aylesham Centre,,Rye Lane,London,Wing tai restaurant,Restaurant/Cafe/Canteen,1,0,,364006,0,,51.472746,1868,528,food@southwark.gov.uk,Southwark,http://www.southwark.gov.uk/,-0.068693,SE15 5EW,22/08/2012,fhrs_5_en-GB,5,,FHRS,5,"Wing tai restaurant, Unit 15 The Aylesham Centre, Rye Lane, London, SE15 5EW",LONDON,APPROVED,GOOD,RYE LANE,176632,2.00003E+11,1,SE15 5EW,"WING TAI CHINESE RESTAURANT, UNIT 15, AYLESHAM CENTRE, RYE LANE, LONDON, SE15 5EW",534233,WING TAI CHINESE RESTAURANT,0.8,UNIT 15,-0.068681094,51.47273616,,AYLESHAM CENTRE,
301,127966,127966,,107,Peckham High Street,London,Yesil irmak,Retailers - other,4613,10,,564136,10,,51.473836,182904,528,food@southwark.gov.uk,Southwark,http://www.southwark.gov.uk/,-0.069309,SE15 5RS,14/04/2014,fhrs_3_en-GB,3,,FHRS,10,"Yesil irmak, 107 Peckham High Street, London, SE15 5RS",LONDON,APPROVED,EXACT,PECKHAM HIGH STREET,176777,2.00003E+11,1,SE15 5RS,"YESIL IRMAK, 107, PECKHAM HIGH STREET, LONDON, SE15 5RS",534213,YESIL IRMAK,1,,-0.068913855,51.47404393,107,,
302,127967,127967,,277,Rye Lane,London,Yilmaz kebab,Takeaway/sandwich shop,7844,10,,365127,5,,51.46589,99302,528,food@southwark.gov.uk,Southwark,http://www.southwark.gov.uk/,-0.0657,SE15 4UA,01/04/2014,fhrs_4_en-GB,4,,FHRS,5,"Yilmaz kebab, 277 Rye Lane, London, SE15 4UA",LONDON,APPROVED,GOOD,RYE LANE,175905,2.00003E+11,1,SE15 4UA,"YILMAZ, 277, RYE LANE, LONDON, SE15 4UA",534455,YILMAZ,0.8,,-0.065762985,51.4661504,277,,
303,127969,127969,,123,Bellenden Road,London,Yogi newsfare,Retailers - other,4613,10,,362867,0,,51.467913,1279,528,food@southwark.gov.uk,Southwark,http://www.southwark.gov.uk/,-0.072281,SE15 4QY,13/01/2011,fhrs_4_en-GB,4,,FHRS,0,"Yogi newsfare, 123 Bellenden Road, London, SE15 4QY",LONDON,APPROVED,GOOD,BELLENDEN ROAD,176078,2.00003E+11,1,SE15 4QY,"YOGI, 123, BELLENDEN ROAD, LONDON, SE15 4QY",533998,YOGI,0.8,,-0.07227247,51.46781334,123,,
304,127970,127970,,32a,Peckham High Street,London,Yop city le marche,Retailers - other,4613,20,,363271,5,,51.473214,171954,528,food@southwark.gov.uk,Southwark,http://www.southwark.gov.uk/,-0.070891,SE15 5DP,14/08/2012,fhrs_1_en-GB,1,,FHRS,10,"Yop city le marche, 32a, Peckham High Street, London, SE15 5DP",,,,,,,,,,,,,,,,,,
305,127972,127972,,18,St Marys Road,London,Young parents education centre,School/college/university,7845,5,,364074,0,,51.472298,2145,528,food@southwark.gov.uk,Southwark,http://www.southwark.gov.uk/,-0.055162,SE15 2DW,17/09/2012,fhrs_5_en-GB,5,,FHRS,5,"Young parents education centre, 18 St Marys Road, London, SE15 2DW",LONDON,APPROVED,GOOD,ST. MARKS ROAD,168355,1.00021E+11,1,SE25 4UH,"18, ST. MARKS ROAD, LONDON, SE25 4UH",534364,,0.9,,-0.069933859,51.39832425,18,,
306,127978,127978,,80,Rye Lane,London,Z a afro foods,Retailers - other,4613,20,,363720,10,,51.470033,176352,528,food@southwark.gov.uk,Southwark,http://www.southwark.gov.uk/,-0.068865,SE15 4RY,22/07/2014,fhrs_1_en-GB,1,,FHRS,15,"Z a afro foods, 80 Rye Lane, London, SE15 4RY",LONDON,APPROVED,GOOD,PECKHAM RYE,175711,2.00003E+11,1,SE15 4HA,"80, PECKHAM RYE, LONDON, SE15 4HA",534387,,0.9,,-0.066815004,51.46442317,80,,
307,127979,127979,,80,Rye Lane,London,Z a butchers,Retailers - other,4613,20,,362644,15,,51.470033,106274,528,food@southwark.gov.uk,Southwark,http://www.southwark.gov.uk/,-0.068865,SE15 4RY,22/07/2014,fhrs_1_en-GB,1,,FHRS,15,"Z a butchers, 80 Rye Lane, London, SE15 4RY",LONDON,APPROVED,GOOD,PECKHAM RYE,175711,2.00003E+11,1,SE15 4HA,"80, PECKHAM RYE, LONDON, SE15 4HA",534387,,0.9,,-0.066815004,51.46442317,80,,
308,127981,127981,,64,Peckham High Street,London,Zara's tropical food store,Retailers - other,4613,0,,363998,0,,51.473214,1859,528,food@southwark.gov.uk,Southwark,http://www.southwark.gov.uk/,-0.070891,SE15 5DP,14/04/2014,fhrs_5_en-GB,5,,FHRS,0,"Zara's tropical food store, 64 Peckham High Street, London, SE15 5DP",LONDON,APPROVED,GOOD,PECKHAM HILL STREET,177065,2.00003E+11,1,SE15 5JY,"64, PECKHAM HILL STREET, LONDON, SE15 5JY",534129,,0.9,,-0.07001336,51.47665191,64,,
